{"type":"FeatureCollection","features":[{"type":"Feature","properties":{"country":"MA","region":"Cercle de Zagora","parent":"Drâa-Tafilalet"},"geometry":{"type":"Polygon","coordinates":[[[-6.639088,30.439051],[-6.626642,30.455038],[-6.622608,30.46177],[-6.615742,30.469094],[-6.605013,30.476492],[-6.597975,30.478567],[-6.589821,30.477897],[-6.579779,30.475608],[-6.504848,30.46858],[-6.489399,30.465765],[-6.477297,30.458663],[-6.448629,30.425885],[-6.439703,30.413225],[-6.432493,30.407773],[-6.427004,30.402166],[-6.422108,30.410001],[-6.40889,30.414846],[-6.357477,30.404909],[-6.33765,30.392412],[-6.31851,30.399534],[-6.285723,30.435802],[-6.281088,30.452674],[-6.26581,30.46244],[-6.199205,30.469542],[-6.191137,30.480786],[-6.178778,30.495726],[-6.164015,30.507115],[-6.143587,30.516284],[-6.124876,30.522052],[-6.097043,30.535378],[-6.088484,30.550144],[-6.080931,30.561378],[-6.074751,30.56936],[-6.065996,30.578228],[-6.059473,30.571429],[-6.03956,30.559161],[-6.023424,30.554431],[-6.012867,30.554653],[-6.013811,30.567291],[-6.010893,30.64604],[-6.004541,30.723691],[-5.983255,30.75674],[-5.982651,30.759705],[-5.961626,30.759101],[-5.934761,30.756667],[-5.93047,30.729225],[-5.923346,30.709376],[-5.914591,30.705686],[-5.898111,30.706129],[-5.896566,30.702144],[-5.902489,30.69897],[-5.916308,30.698601],[-5.917166,30.691516],[-5.916308,30.686054],[-5.911158,30.682068],[-5.897253,30.687235],[-5.875967,30.687973],[-5.859831,30.685168],[-5.84833,30.677344],[-5.84421,30.669519],[-5.774343,30.673948],[-5.752371,30.672619],[-5.719755,30.66878],[-5.689972,30.645271],[-5.65521,30.621373],[-5.615728,30.567439],[-5.613239,30.540904],[-5.608862,30.515101],[-5.609377,30.485076],[-5.610922,30.465251],[-5.604828,30.45038],[-5.609719,30.414483],[-5.621049,30.369321],[-5.561997,30.347991],[-5.53424,30.334777],[-5.519935,30.340146],[-5.510442,30.345131],[-5.497619,30.350071],[-5.486787,30.355145],[-5.470347,30.364426],[-5.451327,30.367048],[-5.443396,30.367107],[-5.436401,30.371972],[-5.41454,30.377741],[-5.394524,30.381369],[-5.352922,30.375542],[-5.34288,30.375275],[-5.329516,30.378888],[-5.318916,30.387825],[-5.302454,30.403824],[-5.297175,30.39956],[-5.291124,30.400426],[-5.284086,30.414483],[-5.273443,30.430766],[-5.269666,30.438315],[-5.262796,30.444087],[-5.228549,30.45992],[-5.215999,30.463926],[-5.082551,30.424994],[-5.040665,30.264999],[-5.130034,30.000158],[-5.155477,29.986302],[-5.207688,29.952262],[-5.220142,29.946592],[-5.231275,29.939373],[-5.239381,29.93287],[-5.24824,29.921786],[-5.24936,29.915509],[-5.261593,29.910216],[-5.270706,29.904871],[-5.279379,29.891899],[-5.282149,29.88536],[-5.288863,29.881142],[-5.294285,29.86831],[-5.297358,29.850679],[-5.302078,29.843046],[-5.310422,29.833431],[-5.317072,29.824189],[-5.322799,29.8188],[-5.323424,29.814951],[-5.317233,29.803095],[-5.318356,29.79922],[-5.317033,29.794682],[-5.317726,29.789074],[-5.320314,29.787261],[-5.323177,29.781465],[-5.323134,29.777415],[-5.328927,29.769071],[-5.334281,29.765915],[-5.338175,29.759404],[-5.349741,29.74396],[-5.361356,29.732072],[-5.374596,29.712115],[-5.444968,29.633543],[-5.499998,29.563009],[-5.517018,29.542848],[-5.537173,29.516968],[-5.54208,29.512175],[-5.547057,29.500457],[-5.551051,29.494903],[-5.553345,29.489355],[-5.553592,29.483029],[-5.55833,29.478686],[-5.565482,29.476586],[-5.570349,29.480305],[-5.571877,29.486532],[-5.577996,29.489568],[-5.585068,29.490531],[-5.592187,29.490333],[-5.598923,29.488242],[-5.605985,29.488856],[-5.619366,29.492889],[-5.624184,29.497582],[-5.629668,29.501465],[-5.643629,29.50411],[-5.650809,29.504543],[-5.662429,29.511527],[-5.664898,29.517543],[-5.668735,29.522092],[-5.671907,29.523861],[-5.67691,29.524731],[-5.678453,29.527852],[-5.678133,29.530886],[-5.682914,29.53563],[-5.685828,29.541187],[-5.687718,29.540645],[-5.691676,29.53727],[-5.692489,29.534309],[-5.696688,29.530544],[-5.703183,29.527155],[-5.708358,29.52282],[-5.714535,29.519831],[-5.728804,29.518377],[-5.742935,29.515772],[-5.749243,29.518265],[-5.751749,29.524059],[-5.750733,29.530241],[-5.744158,29.548108],[-5.741548,29.55393],[-5.724356,29.573966],[-5.722377,29.579919],[-5.723236,29.586196],[-5.727504,29.591038],[-5.742225,29.593546],[-5.762278,29.593331],[-5.766041,29.594095],[-5.775054,29.599121],[-5.790413,29.605434],[-5.80203,29.607639],[-5.82212,29.607034],[-5.841918,29.604447],[-5.861351,29.600903],[-5.863888,29.5996],[-5.870133,29.592062],[-5.876441,29.590364],[-5.90172,29.59381],[-5.922861,29.594403],[-5.936287,29.593324],[-5.950203,29.590879],[-5.964114,29.588169],[-5.998108,29.57846],[-6.00522,29.577822],[-6.01693,29.572579],[-6.022739,29.567056],[-6.029,29.564145],[-6.034273,29.564167],[-6.040852,29.565799],[-6.048926,29.56565],[-6.062729,29.562558],[-6.069839,29.562125],[-6.083643,29.565364],[-6.090773,29.565785],[-6.103861,29.570347],[-6.118156,29.56949],[-6.125154,29.57093],[-6.137993,29.57641],[-6.152021,29.578416],[-6.158247,29.581509],[-6.165324,29.582295],[-6.172311,29.58099],[-6.178659,29.578086],[-6.185604,29.576848],[-6.199868,29.577708],[-6.213434,29.575885],[-6.2209,29.572926],[-6.234599,29.570468],[-6.240682,29.567103],[-6.247456,29.565404],[-6.261541,29.567803],[-6.27574,29.567765],[-6.289677,29.570458],[-6.303351,29.566899],[-6.317152,29.569982],[-6.345473,29.566635],[-6.352978,29.56818],[-6.364651,29.568852],[-6.37387,29.568157],[-6.380358,29.566015],[-6.38671,29.56176],[-6.388032,29.556548],[-6.38649,29.552702],[-6.390306,29.549829],[-6.393721,29.551396],[-6.3964,29.554103],[-6.400486,29.561666],[-6.418124,29.564298],[-6.428372,29.564499],[-6.440131,29.566142],[-6.448508,29.565642],[-6.427775,29.609979],[-6.420518,29.62829],[-6.405459,29.64685],[-6.406013,29.662988],[-6.421806,29.680655],[-6.424943,29.699172],[-6.412708,29.723926],[-6.390267,29.745155],[-6.397391,29.764455],[-6.403914,29.790603],[-6.403142,29.806096],[-6.406232,29.827766],[-6.406403,29.84824],[-6.414042,29.87273],[-6.416913,29.890453],[-6.420995,29.902422],[-6.41945,29.921839],[-6.422368,29.945121],[-6.429921,29.958655],[-6.429578,29.964604],[-6.431762,29.972977],[-6.400486,29.999485],[-6.357084,30.011822],[-6.353651,30.030757],[-6.36529,30.039384],[-6.387855,30.03977],[-6.397971,30.04657],[-6.479127,30.026009],[-6.507834,30.075096],[-6.488308,30.128345],[-6.502779,30.148641],[-6.589691,30.229285],[-6.557007,30.259367],[-6.510745,30.290655],[-6.512221,30.315909],[-6.5486,30.34186],[-6.57577,30.37428],[-6.614193,30.41359],[-6.638229,30.415505],[-6.6441,30.427273],[-6.639088,30.439051]]]}},{"type":"Feature","properties":{"country":"MA","region":"Pachalik de Zagora","parent":"Drâa-Tafilalet"},"geometry":{"type":"Polygon","coordinates":[[[-5.873407,30.416852],[-5.86721,30.413059],[-5.858228,30.412814],[-5.84431,30.410612],[-5.838761,30.40767],[-5.83241,30.400382],[-5.818733,30.388155],[-5.817145,30.38218],[-5.817415,30.37071],[-5.817608,30.365526],[-5.8196,30.363723],[-5.815626,30.361645],[-5.813081,30.354895],[-5.81739,30.34834],[-5.816068,30.33784],[-5.816287,30.330669],[-5.812278,30.320227],[-5.813224,30.312506],[-5.820914,30.300894],[-5.825068,30.292594],[-5.8485,30.285902],[-5.855881,30.31132],[-5.857169,30.318359],[-5.862284,30.322605],[-5.859915,30.329546],[-5.856448,30.333866],[-5.854646,30.335347],[-5.848328,30.335621],[-5.858902,30.348455],[-5.85973,30.360225],[-5.841687,30.388313],[-5.861771,30.404497],[-5.873407,30.416852]]]}}]}