{"type":"FeatureCollection","features":[{"type":"Feature","properties":{},"geometry":{"type":"Polygon","coordinates":[[[1.41765,42.49249],[1.44363,42.49532],[1.4684,42.51],[1.46333,42.51917],[1.45203,42.53119],[1.45197,42.53945],[1.43865,42.54368],[1.43265,42.54008],[1.41358,42.53538],[1.41438,42.54007],[1.41943,42.54533],[1.41928,42.54953],[1.42081,42.54998],[1.42523,42.55796],[1.44109,42.56432],[1.44498,42.5682],[1.4434,42.57192],[1.43387,42.5743],[1.42816,42.57971],[1.42766,42.58746],[1.43037,42.58776],[1.44059,42.59444],[1.4428,42.59876],[1.44199,42.60372],[1.45617,42.60203],[1.46402,42.60679],[1.46898,42.60646],[1.47688,42.61346],[1.47754,42.61464],[1.47058,42.62605],[1.4711,42.62941],[1.46802,42.63089],[1.47003,42.63547],[1.47699,42.64064],[1.47878,42.65145],[1.49376,42.65349],[1.49936,42.64594],[1.51872,42.64547],[1.52836,42.65181],[1.53343,42.64976],[1.5493,42.65594],[1.55814,42.65205],[1.56229,42.65356],[1.56832,42.64854],[1.57479,42.64793],[1.57601,42.64327],[1.57917,42.64191],[1.58035,42.63683],[1.58572,42.63346],[1.59444,42.63262],[1.60038,42.62588],[1.60388,42.62577],[1.60939,42.62857],[1.61134,42.62673],[1.61845,42.62581],[1.62227,42.62757],[1.62857,42.62666],[1.63712,42.63032],[1.63935,42.62818],[1.65315,42.62637],[1.65537,42.62248],[1.6639,42.61898],[1.6677,42.62168],[1.67296,42.62111],[1.68344,42.62494],[1.69213,42.62198],[1.70085,42.62232],[1.7155,42.61458],[1.72274,42.61673],[1.73198,42.6147],[1.73608,42.61784],[1.73841,42.61171],[1.73387,42.60757],[1.73298,42.60352],[1.73021,42.60045],[1.72768,42.601],[1.7263,42.5914],[1.72765,42.58827],[1.74195,42.58787],[1.75238,42.58258],[1.7601,42.58092],[1.7683,42.58014],[1.78118,42.58253],[1.78315,42.58194],[1.78527,42.57568],[1.78687,42.57451],[1.78496,42.57234],[1.76963,42.56484],[1.76404,42.5656],[1.75034,42.56412],[1.73968,42.55674],[1.73701,42.55105],[1.73444,42.54901],[1.73791,42.54954],[1.73465,42.54753],[1.73569,42.54327],[1.7335,42.5388],[1.73486,42.53368],[1.7331,42.53063],[1.73358,42.5279],[1.73236,42.52701],[1.73149,42.52887],[1.72908,42.52533],[1.72969,42.5204],[1.72759,42.51867],[1.72332,42.51818],[1.72561,42.51485],[1.72589,42.5027],[1.71137,42.49226],[1.70384,42.48954],[1.68599,42.49555],[1.66392,42.49294],[1.66225,42.49016],[1.66183,42.48411],[1.66324,42.47985],[1.66085,42.47902],[1.6625,42.47398],[1.65703,42.46845],[1.65091,42.46711],[1.64575,42.46878],[1.64052,42.46658],[1.63617,42.46809],[1.63287,42.46642],[1.63168,42.46275],[1.62257,42.46568],[1.60641,42.46437],[1.59761,42.46762],[1.58613,42.46116],[1.5812,42.4502],[1.57759,42.45009],[1.56745,42.45888],[1.56114,42.45866],[1.55701,42.45392],[1.56016,42.44932],[1.55986,42.44461],[1.55328,42.43928],[1.55294,42.43381],[1.55109,42.43262],[1.52951,42.43242],[1.51284,42.4289],[1.49607,42.43314],[1.48483,42.43279],[1.47589,42.43525],[1.45662,42.43565],[1.44723,42.43944],[1.44433,42.44111],[1.44258,42.44471],[1.4468,42.44377],[1.44532,42.44662],[1.44621,42.4482],[1.44177,42.45165],[1.44145,42.4553],[1.44747,42.46013],[1.44012,42.46437],[1.44103,42.47548],[1.43339,42.48177],[1.4165,42.48314],[1.41549,42.48425],[1.4111,42.48358],[1.40861,42.48434],[1.4078,42.48629],[1.41765,42.49249]]]}}]}