{"type":"FeatureCollection","features":[{"type":"Feature","properties":{"country":"MA","region":"Cercle d'Er-Rissani","parent":"Drâa-Tafilalet"},"geometry":{"type":"Polygon","coordinates":[[[-5.216,30.46393],[-5.18134,30.48174],[-5.09607,30.55186],[-4.98818,30.65455],[-4.91879,30.70406],[-4.83146,30.75576],[-4.79198,30.80311],[-4.70136,30.86836],[-4.70964,31.06116],[-4.64111,31.13865],[-4.59474,31.17296],[-4.55692,31.21237],[-4.55537,31.25977],[-4.53083,31.32197],[-4.57367,31.32422],[-4.57498,31.33657],[-4.56616,31.34694],[-4.53439,31.35838],[-4.50001,31.35811],[-4.45333,31.34162],[-4.36006,31.33055],[-4.30573,31.3003],[-4.28832,31.30921],[-4.25265,31.31324],[-4.24751,31.33143],[-4.25729,31.33275],[-4.25698,31.35254],[-4.18931,31.35672],[-4.16416,31.36346],[-4.1514,31.37452],[-4.14399,31.39343],[-4.11455,31.40991],[-4.08185,31.40142],[-4.04606,31.4127],[-4.02575,31.40625],[-3.92095,31.42046],[-3.83254,31.44485],[-3.72909,31.44024],[-3.66495,31.4466],[-3.66484,31.40146],[-3.647,31.39392],[-3.66091,31.37796],[-3.67278,31.38513],[-3.67941,31.3707],[-3.71162,31.36201],[-3.71312,31.35003],[-3.72257,31.34212],[-3.73552,31.34365],[-3.74117,31.35859],[-3.74931,31.36099],[-3.75795,31.34675],[-3.75413,31.33994],[-3.76463,31.33404],[-3.76265,31.31062],[-3.78555,31.29276],[-3.78208,31.28651],[-3.77466,31.29168],[-3.76958,31.27814],[-3.75674,31.28219],[-3.75879,31.26343],[-3.78322,31.24888],[-3.77969,31.24197],[-3.7907,31.23622],[-3.78268,31.22161],[-3.7723,31.223],[-3.76672,31.1844],[-3.75931,31.18],[-3.7768,31.14769],[-3.77506,31.1009],[-3.77243,31.11983],[-3.76026,31.12572],[-3.74127,31.12482],[-3.73393,31.11495],[-3.73051,31.11712],[-3.7237,31.13526],[-3.73391,31.14609],[-3.71054,31.15438],[-3.70801,31.13676],[-3.70545,31.13684],[-3.70477,31.15195],[-3.71387,31.1657],[-3.70206,31.17603],[-3.69789,31.16158],[-3.69437,31.16698],[-3.68093,31.16521],[-3.67155,31.15125],[-3.67011,31.11978],[-3.67954,31.08652],[-3.64386,31.08196],[-3.64276,31.0855],[-3.66645,31.09027],[-3.66202,31.09237],[-3.66465,31.10251],[-3.65723,31.09475],[-3.65437,31.09878],[-3.64474,31.09329],[-3.63658,31.09966],[-3.64418,31.11004],[-3.64464,31.13009],[-3.65159,31.1343],[-3.63865,31.1417],[-3.64308,31.15686],[-3.63899,31.16977],[-3.63694,31.1113],[-3.62964,31.1064],[-3.61599,31.11949],[-3.61758,31.09925],[-3.61077,31.10127],[-3.60532,31.09548],[-3.60306,31.07354],[-3.59161,31.07423],[-3.59218,31.05834],[-3.57389,31.04301],[-3.57205,31.05162],[-3.55918,31.04928],[-3.56131,31.06064],[-3.55239,31.06394],[-3.54861,31.0615],[-3.55494,31.0403],[-3.54838,31.03168],[-3.542,31.0386],[-3.54128,31.01864],[-3.53634,31.01369],[-3.54267,30.98078],[-3.53799,30.97377],[-3.54865,30.96346],[-3.54114,30.96273],[-3.54054,30.95509],[-3.55731,30.94834],[-3.55253,30.93867],[-3.55855,30.94015],[-3.5598,30.92918],[-3.5753,30.93396],[-3.57546,30.92234],[-3.58658,30.91915],[-3.58287,30.90797],[-3.59354,30.89459],[-3.60469,30.89484],[-3.60634,30.87901],[-3.61386,30.87742],[-3.61572,30.86577],[-3.62419,30.86469],[-3.63623,30.87568],[-3.63284,30.86809],[-3.63876,30.85826],[-3.65845,30.8514],[-3.65087,30.83926],[-3.64463,30.76761],[-3.63545,30.76449],[-3.62959,30.74465],[-3.63629,30.71566],[-3.64747,30.69939],[-3.6447,30.69044],[-3.65663,30.67234],[-3.67168,30.66407],[-3.68194,30.66786],[-3.72166,30.6449],[-3.74278,30.63963],[-3.76787,30.62615],[-3.77758,30.6104],[-3.7918,30.60732],[-3.8168,30.59035],[-3.84706,30.59534],[-3.88654,30.61069],[-3.92001,30.59913],[-3.92701,30.60383],[-3.9959,30.59286],[-4.14833,30.58514],[-4.32968,30.52155],[-4.42693,30.4393],[-4.48792,30.37224],[-4.58627,30.29293],[-4.93662,30.14047],[-5.13003,30.00016],[-5.04066,30.265],[-5.08255,30.42499],[-5.216,30.46393]]]}},{"type":"Feature","properties":{"country":"MA","region":"Cercle de Zagora","parent":"Drâa-Tafilalet"},"geometry":{"type":"Polygon","coordinates":[[[-6.6441,30.42727],[-6.61574,30.46909],[-6.59797,30.47857],[-6.50485,30.46858],[-6.4773,30.45866],[-6.427,30.40217],[-6.42211,30.41],[-6.40889,30.41485],[-6.35748,30.40491],[-6.33765,30.39241],[-6.31851,30.39953],[-6.28572,30.4358],[-6.28109,30.45267],[-6.26581,30.46244],[-6.19921,30.46954],[-6.16402,30.50711],[-6.09704,30.53538],[-6.066,30.57823],[-6.03956,30.55916],[-6.01287,30.55465],[-6.00454,30.72369],[-5.98265,30.75971],[-5.93476,30.75667],[-5.92335,30.70938],[-5.89657,30.70214],[-5.91631,30.6986],[-5.91631,30.68605],[-5.91116,30.68207],[-5.87597,30.68797],[-5.85983,30.68517],[-5.84421,30.66952],[-5.77434,30.67395],[-5.71976,30.66878],[-5.65521,30.62137],[-5.61573,30.56744],[-5.60886,30.5151],[-5.61092,30.46525],[-5.60483,30.45038],[-5.62105,30.36932],[-5.53424,30.33478],[-5.47035,30.36443],[-5.4434,30.36711],[-5.41454,30.37774],[-5.39452,30.38137],[-5.34288,30.37527],[-5.32952,30.37889],[-5.30245,30.40382],[-5.29112,30.40043],[-5.2628,30.44409],[-5.216,30.46393],[-5.08255,30.42499],[-5.04066,30.265],[-5.13003,30.00016],[-5.23128,29.93937],[-5.24936,29.91551],[-5.27071,29.90487],[-5.28886,29.88114],[-5.29736,29.85068],[-5.3228,29.8188],[-5.31703,29.79468],[-5.32313,29.77742],[-5.54208,29.51217],[-5.55833,29.47869],[-5.56548,29.47659],[-5.578,29.48957],[-5.60599,29.48886],[-5.62967,29.50146],[-5.65081,29.50454],[-5.67691,29.52473],[-5.68583,29.54119],[-5.71453,29.51983],[-5.74924,29.51826],[-5.74416,29.54811],[-5.72436,29.57397],[-5.72324,29.5862],[-5.7275,29.59104],[-5.76604,29.59409],[-5.80203,29.60764],[-5.86135,29.6009],[-5.87644,29.59036],[-5.92286,29.5944],[-5.9502,29.59088],[-6.00522,29.57782],[-6.029,29.56414],[-6.06984,29.56213],[-6.16532,29.58229],[-6.24746,29.5654],[-6.28968,29.57046],[-6.37387,29.56816],[-6.38671,29.56176],[-6.39031,29.54983],[-6.40049,29.56167],[-6.44851,29.56564],[-6.42052,29.62829],[-6.40546,29.64685],[-6.40601,29.66299],[-6.42181,29.68066],[-6.42494,29.69917],[-6.41271,29.72393],[-6.39027,29.74516],[-6.40391,29.7906],[-6.4064,29.84824],[-6.42099,29.90242],[-6.42237,29.94512],[-6.43176,29.97298],[-6.40049,29.99948],[-6.35708,30.01182],[-6.35365,30.03076],[-6.36529,30.03938],[-6.38786,30.03977],[-6.39797,30.04657],[-6.47913,30.02601],[-6.50783,30.0751],[-6.48831,30.12834],[-6.50278,30.14864],[-6.58969,30.22929],[-6.55701,30.25937],[-6.51075,30.29066],[-6.51222,30.31591],[-6.5486,30.34186],[-6.61419,30.41359],[-6.63823,30.4155],[-6.6441,30.42727]]]}},{"type":"Feature","properties":{"country":"MA","region":"Pachalik de Zagora","parent":"Drâa-Tafilalet"},"geometry":{"type":"Polygon","coordinates":[[[-5.87341,30.41685],[-5.84431,30.41061],[-5.81873,30.38816],[-5.81228,30.32023],[-5.82507,30.29259],[-5.8485,30.2859],[-5.86228,30.3226],[-5.85645,30.33387],[-5.84833,30.33562],[-5.8589,30.34846],[-5.85973,30.36022],[-5.84169,30.38831],[-5.87341,30.41685]]]}},{"type":"Feature","properties":{"country":"MA","region":"Cercle d'Agdz","parent":"Drâa-Tafilalet"},"geometry":{"type":"Polygon","coordinates":[[[-6.9794,30.56837],[-6.93381,30.62107],[-6.97619,30.6692],[-6.97816,30.68524],[-6.96769,30.70068],[-6.92117,30.73189],[-6.88464,30.77002],[-6.81804,30.81396],[-6.78537,30.85177],[-6.74268,30.88724],[-6.6826,30.88706],[-6.6335,30.8514],[-6.62715,30.81617],[-6.58801,30.85391],[-6.50081,30.88706],[-6.31747,30.94376],[-6.23216,30.96172],[-6.11592,31.02625],[-6.09431,31.0281],[-6.07784,31.0094],[-6.0478,30.98953],[-6.02136,30.99822],[-6.00214,30.9888],[-6.01999,30.9442],[-6.01793,30.92579],[-6.03063,30.86967],[-5.97304,30.8304],[-5.99064,30.80777],[-5.95605,30.79605],[-5.97673,30.77606],[-6.00454,30.72369],[-6.01287,30.55465],[-6.03956,30.55916],[-6.066,30.57823],[-6.09704,30.53538],[-6.16402,30.50711],[-6.19921,30.46954],[-6.26581,30.46244],[-6.28109,30.45267],[-6.28572,30.4358],[-6.31851,30.39953],[-6.33765,30.39241],[-6.35748,30.40491],[-6.40889,30.41485],[-6.42211,30.41],[-6.427,30.40217],[-6.4773,30.45866],[-6.4894,30.46577],[-6.59797,30.47857],[-6.61574,30.46909],[-6.63909,30.43905],[-6.65733,30.46162],[-6.67119,30.46102],[-6.68937,30.44749],[-6.81093,30.42329],[-6.83251,30.46033],[-6.87538,30.45112],[-6.89177,30.48012],[-6.89189,30.49571],[-6.90624,30.533],[-6.9794,30.56837]]]}},{"type":"Feature","properties":{"country":"MA","region":"Cercle d'Alnif","parent":"Drâa-Tafilalet"},"geometry":{"type":"Polygon","coordinates":[[[-5.38034,31.13325],[-5.29226,31.18581],[-5.26853,31.20547],[-5.24432,31.2371],[-5.23677,31.26368],[-5.12735,31.24663],[-5.06049,31.2649],[-4.95131,31.30958],[-4.80686,31.33143],[-4.75162,31.32864],[-4.67588,31.31009],[-4.66009,31.31713],[-4.61966,31.30804],[-4.60207,31.32343],[-4.53083,31.32197],[-4.55537,31.25977],[-4.55692,31.21237],[-4.59474,31.17296],[-4.64111,31.13865],[-4.70964,31.06116],[-4.70136,30.86836],[-4.79198,30.80311],[-4.83146,30.75576],[-4.91879,30.70406],[-4.98818,30.65455],[-5.09607,30.55186],[-5.18134,30.48174],[-5.216,30.46393],[-5.23696,30.48035],[-5.24331,30.54509],[-5.19215,30.61283],[-5.18872,30.65115],[-5.2946,30.68895],[-5.33192,30.71187],[-5.33058,30.73716],[-5.27546,30.7593],[-5.33029,30.80232],[-5.3552,30.78418],[-5.3715,30.81397],[-5.34947,30.8878],[-5.37412,30.89452],[-5.36899,30.9067],[-5.32071,30.91357],[-5.32106,30.94697],[-5.30329,30.97489],[-5.28811,30.98641],[-5.30607,30.9912],[-5.3495,31.02456],[-5.34431,31.06023],[-5.38034,31.13325]]]}},{"type":"Feature","properties":{"country":"MA","region":"cercle de Foum Zguid","parent":"Souss-Massa"},"geometry":{"type":"Polygon","coordinates":[[[-7.99543,30.06725],[-7.9934,30.09713],[-7.98429,30.11624],[-7.96367,30.1294],[-7.85698,30.10481],[-7.78593,30.10499],[-7.75341,30.08628],[-7.72432,30.14592],[-7.66914,30.19361],[-7.6334,30.21126],[-7.60499,30.21362],[-7.59057,30.20724],[-7.53776,30.22563],[-7.49045,30.19791],[-7.47018,30.21312],[-7.42246,30.18695],[-7.3693,30.18931],[-7.33143,30.12686],[-7.30152,30.10345],[-7.28815,30.12201],[-7.29849,30.1645],[-7.29546,30.21325],[-7.2318,30.29484],[-7.17953,30.35134],[-7.17068,30.37025],[-7.1597,30.37662],[-7.02246,30.33464],[-6.92455,30.35519],[-6.89864,30.34756],[-6.88272,30.33183],[-6.85616,30.36104],[-6.86071,30.40129],[-6.85473,30.43822],[-6.86124,30.45738],[-6.83251,30.46033],[-6.81093,30.42329],[-6.68937,30.44749],[-6.67119,30.46102],[-6.65733,30.46162],[-6.63909,30.43905],[-6.6441,30.42727],[-6.63823,30.4155],[-6.61419,30.41359],[-6.5486,30.34186],[-6.51222,30.31591],[-6.51075,30.29066],[-6.55701,30.25937],[-6.58969,30.22929],[-6.50278,30.14864],[-6.48831,30.12834],[-6.50783,30.0751],[-6.47913,30.02601],[-6.39797,30.04657],[-6.38786,30.03977],[-6.36529,30.03938],[-6.35365,30.03076],[-6.35708,30.01182],[-6.40049,29.99948],[-6.43176,29.97298],[-6.42237,29.94512],[-6.42099,29.90242],[-6.4064,29.84824],[-6.40391,29.7906],[-6.39027,29.74516],[-6.41271,29.72393],[-6.42494,29.69917],[-6.42181,29.68066],[-6.40601,29.66299],[-6.40546,29.64685],[-6.42052,29.62829],[-6.44851,29.56564],[-6.50955,29.53971],[-6.52296,29.52478],[-6.54107,29.51534],[-6.54773,29.52539],[-6.576,29.52298],[-6.61874,29.52975],[-6.63129,29.51972],[-6.6878,29.51697],[-6.72097,29.50569],[-6.75153,29.47114],[-6.77725,29.4621],[-6.83375,29.46808],[-6.85606,29.48271],[-6.89095,29.485],[-6.9154,29.49744],[-6.96478,29.49442],[-6.9894,29.50393],[-7.02263,29.49358],[-7.10781,29.52256],[-7.14983,29.52271],[-7.2514,29.47818],[-7.35089,29.3886],[-7.39298,29.37598],[-7.41271,29.37767],[-7.48873,29.36013],[-7.51508,29.40693],[-7.52188,29.49682],[-7.54229,29.53075],[-7.59911,29.57786],[-7.62262,29.58742],[-7.66288,29.59339],[-7.6906,29.61846],[-7.67687,29.68887],[-7.66407,29.71761],[-7.73712,29.75618],[-7.74862,29.76862],[-7.75901,29.80371],[-7.82578,29.84486],[-7.83608,29.87049],[-7.85849,29.88255],[-7.91522,29.88292],[-7.93831,29.89698],[-7.96326,29.92866],[-7.9676,29.95351],[-7.99555,29.97806],[-8.00921,30.00313],[-8.00951,30.0205],[-7.99543,30.06725]]]}},{"type":"Feature","properties":{"country":"MA","region":"Cercle de Tazarine","parent":"Drâa-Tafilalet"},"geometry":{"type":"Polygon","coordinates":[[[-6.11592,31.02625],[-6.08053,31.0439],[-6.00368,31.09711],[-5.96961,31.08359],[-5.946,31.11372],[-5.92123,31.12292],[-5.89983,31.14128],[-5.87142,31.15112],[-5.85151,31.14836],[-5.81588,31.10292],[-5.76181,31.0594],[-5.70284,31.03139],[-5.66671,31.0208],[-5.62208,31.013],[-5.55719,31.02536],[-5.51101,31.01624],[-5.3495,31.02456],[-5.30607,30.9912],[-5.28811,30.98641],[-5.30329,30.97489],[-5.32106,30.94697],[-5.32071,30.91357],[-5.36899,30.9067],[-5.37412,30.89452],[-5.34947,30.8878],[-5.3715,30.81397],[-5.3552,30.78418],[-5.33029,30.80232],[-5.27546,30.7593],[-5.33058,30.73716],[-5.33192,30.71187],[-5.2946,30.68895],[-5.18872,30.65115],[-5.19215,30.61283],[-5.24331,30.54509],[-5.23696,30.48035],[-5.216,30.46393],[-5.2628,30.44409],[-5.29112,30.40043],[-5.30245,30.40382],[-5.32952,30.37889],[-5.34288,30.37527],[-5.39452,30.38137],[-5.41454,30.37774],[-5.4434,30.36711],[-5.47035,30.36443],[-5.53424,30.33478],[-5.62105,30.36932],[-5.60483,30.45038],[-5.61092,30.46525],[-5.60886,30.5151],[-5.61573,30.56744],[-5.65521,30.62137],[-5.71976,30.66878],[-5.77434,30.67395],[-5.84421,30.66952],[-5.85983,30.68517],[-5.89725,30.68724],[-5.91116,30.68207],[-5.91631,30.68605],[-5.91631,30.6986],[-5.89657,30.70214],[-5.92335,30.70938],[-5.93476,30.75667],[-5.98265,30.75971],[-5.97673,30.77606],[-5.95605,30.79605],[-5.99064,30.80777],[-5.97304,30.8304],[-6.03063,30.86967],[-6.01793,30.92579],[-6.01999,30.9442],[-6.00214,30.9888],[-6.02136,30.99822],[-6.0478,30.98953],[-6.07784,31.0094],[-6.09431,31.0281],[-6.11592,31.02625]]]}}]}