{"type":"FeatureCollection","features":[{"type":"Feature","properties":{"district":"Aveiro"},"geometry":{"type":"Polygon","coordinates":[[[-8.78399,40.5204],[-8.74949,40.63495],[-8.76318,40.64321],[-8.68168,40.85108],[-8.6456,41.01599],[-8.6058,41.02579],[-8.5613,41.01475],[-8.5284,41.04049],[-8.51504,41.01564],[-8.49403,41.01105],[-8.47554,41.02835],[-8.49259,41.0396],[-8.4862,41.05269],[-8.45717,41.0437],[-8.4487,41.05349],[-8.42715,41.02169],[-8.39147,41.01026],[-8.39889,41.05189],[-8.34708,41.04084],[-8.2941,41.08009],[-8.23711,41.0577],[-8.23417,41.01744],[-8.208,41.01349],[-8.20548,40.99566],[-8.13409,40.97871],[-8.09111,41.009],[-8.08921,40.9876],[-8.1323,40.94736],[-8.10641,40.8552],[-8.1337,40.84921],[-8.16754,40.86499],[-8.1905,40.84611],[-8.23081,40.86407],[-8.24871,40.85824],[-8.23681,40.8275],[-8.2729,40.75671],[-8.33212,40.73705],[-8.32428,40.70898],[-8.2975,40.69409],[-8.29383,40.63481],[-8.24541,40.6164],[-8.30629,40.59455],[-8.2846,40.53966],[-8.25011,40.51111],[-8.33246,40.48829],[-8.31761,40.4412],[-8.3525,40.40702],[-8.35791,40.34741],[-8.39807,40.34866],[-8.40961,40.32391],[-8.44672,40.31797],[-8.4544,40.27921],[-8.52529,40.292],[-8.52989,40.31569],[-8.48573,40.31828],[-8.4822,40.38706],[-8.50479,40.40011],[-8.50967,40.42135],[-8.5724,40.40031],[-8.58363,40.47854],[-8.62007,40.4823],[-8.63221,40.4314],[-8.6479,40.42411],[-8.68391,40.43818],[-8.78399,40.5204]]]}},{"type":"Feature","properties":{"district":"Açores"},"geometry":{"type":"MultiPolygon","coordinates":[[[[-25.18599,36.984],[-25.14601,37.01148],[-25.11798,37.0033],[-25.0591,37.01439],[-25.05436,36.98677],[-25.01561,36.9586],[-25.01511,36.9282],[-25.0696,36.92811],[-25.1029,36.95087],[-25.1579,36.93901],[-25.18599,36.984]]],[[[-25.85499,37.8598],[-25.82169,37.89939],[-25.7818,37.90969],[-25.71921,37.8864],[-25.67805,37.83518],[-25.58778,37.81401],[-25.5267,37.82258],[-25.48852,37.84659],[-25.47114,37.82475],[-25.40438,37.82642],[-25.3172,37.86579],[-25.29211,37.8543],[-25.1653,37.85489],[-25.1494,37.84949],[-25.13471,37.8065],[-25.14155,37.77261],[-25.1712,37.74131],[-25.26832,37.74474],[-25.3684,37.71271],[-25.42726,37.7155],[-25.4437,37.70291],[-25.4828,37.71657],[-25.5101,37.70551],[-25.56827,37.74198],[-25.6275,37.74977],[-25.69622,37.73396],[-25.84099,37.827],[-25.85499,37.8598]]],[[[-27.3522,38.6868],[-27.37879,38.767],[-27.3334,38.79419],[-27.2012,38.80069],[-27.1047,38.78579],[-27.0695,38.76569],[-27.04471,38.7362],[-27.06324,38.72238],[-27.04959,38.72101],[-27.04241,38.696],[-27.07481,38.66984],[-27.07821,38.64361],[-27.20678,38.65442],[-27.2277,38.63911],[-27.23293,38.65623],[-27.278,38.65241],[-27.3522,38.6868]]],[[[-28.31869,38.75629],[-28.0266,38.67259],[-27.75361,38.5478],[-27.8301,38.53381],[-27.94281,38.58904],[-28.0257,38.60151],[-28.2235,38.67991],[-28.23118,38.70094],[-28.31869,38.75629]]],[[[-28.07349,39.0666],[-28.0511,39.09479],[-27.9973,39.08859],[-27.95061,39.01291],[-28.03659,39.02271],[-28.07349,39.0666]]],[[[-28.543,38.5097],[-28.5342,38.5365],[-28.5078,38.55249],[-28.3911,38.55839],[-28.32011,38.531],[-28.29574,38.50654],[-28.2442,38.49949],[-28.19163,38.4629],[-28.05811,38.443],[-28.0298,38.41181],[-28.0823,38.39971],[-28.17859,38.40952],[-28.241,38.38221],[-28.27302,38.41232],[-28.3691,38.4126],[-28.41215,38.42786],[-28.4459,38.42031],[-28.51789,38.4523],[-28.543,38.5097]]],[[[-28.83589,38.6026],[-28.75574,38.61128],[-28.7049,38.6437],[-28.59939,38.59419],[-28.61155,38.56196],[-28.60361,38.5466],[-28.6233,38.54029],[-28.6242,38.51531],[-28.63956,38.52549],[-28.7542,38.52201],[-28.76194,38.56246],[-28.8167,38.5815],[-28.83589,38.6026]]],[[[-31.12809,39.7015],[-31.1207,39.72459],[-31.08161,39.7062],[-31.1115,39.6688],[-31.12809,39.7015]]],[[[-31.26819,39.4508],[-31.23629,39.51999],[-31.21008,39.5235],[-31.18401,39.49914],[-31.1584,39.5025],[-31.12381,39.4576],[-31.1597,39.3847],[-31.1919,39.37201],[-31.24999,39.3759],[-31.26819,39.4508]]]]}},{"type":"Feature","properties":{"district":"Beja"},"geometry":{"type":"Polygon","coordinates":[[[-8.81949,37.5993],[-8.78983,37.71172],[-8.81249,37.7489],[-8.793,37.81959],[-8.77666,37.80592],[-8.7355,37.81479],[-8.68445,37.75438],[-8.6611,37.76849],[-8.61866,37.74971],[-8.58995,37.75988],[-8.58379,37.7994],[-8.55036,37.81988],[-8.55129,37.8473],[-8.5382,37.85319],[-8.4347,37.87089],[-8.33456,37.85066],[-8.3333,37.86969],[-8.30321,37.89876],[-8.29414,37.99069],[-8.3244,38.02325],[-8.36379,38.02191],[-8.40969,38.0728],[-8.3891,38.1148],[-8.36291,38.10454],[-8.35569,38.1382],[-8.3336,38.15519],[-8.29314,38.13961],[-8.2843,38.18659],[-8.24112,38.17963],[-8.2205,38.20249],[-8.13191,38.22374],[-8.13005,38.26618],[-8.16209,38.3269],[-8.1327,38.31289],[-8.0551,38.32829],[-8.00666,38.30038],[-7.98128,38.31807],[-7.8401,38.25296],[-7.7589,38.24649],[-7.67053,38.20061],[-7.6351,38.20949],[-7.56795,38.18984],[-7.50015,38.18872],[-7.49709,38.2055],[-7.46417,38.21709],[-7.4323,38.2606],[-7.40958,38.26722],[-7.40669,38.29859],[-7.35785,38.29932],[-7.3372,38.321],[-7.2873,38.33109],[-7.24412,38.26318],[-7.19011,38.2465],[-7.19839,38.2238],[-7.16033,38.16448],[-7.1217,38.18639],[-7.08261,38.17171],[-7.06619,38.18649],[-7.02369,38.18494],[-7.0107,38.20459],[-6.97138,38.2038],[-6.9367,38.22069],[-6.93151,38.20829],[-6.96847,38.16504],[-6.95221,38.1528],[-6.98841,38.09965],[-7.00201,38.02241],[-7.0468,38.01431],[-7.0989,38.04323],[-7.1243,38.02826],[-7.12071,38.0046],[-7.1735,37.99281],[-7.20174,38.00261],[-7.25734,37.98035],[-7.25491,37.9232],[-7.28169,37.89595],[-7.30211,37.8404],[-7.42087,37.75714],[-7.44588,37.69604],[-7.44361,37.6646],[-7.50079,37.60353],[-7.50691,37.55681],[-7.52165,37.55662],[-7.51371,37.52528],[-7.573,37.52791],[-7.6207,37.48981],[-7.66287,37.5049],[-7.71259,37.50029],[-7.88889,37.43237],[-7.88831,37.41531],[-7.9078,37.40431],[-7.96455,37.40921],[-7.99972,37.39414],[-7.9905,37.363],[-8.0657,37.31901],[-8.19269,37.34365],[-8.25015,37.38518],[-8.27559,37.38721],[-8.27955,37.42614],[-8.2988,37.4328],[-8.40466,37.42385],[-8.42791,37.38551],[-8.4545,37.37371],[-8.5151,37.37871],[-8.57175,37.41098],[-8.6208,37.40091],[-8.6397,37.37541],[-8.66333,37.40005],[-8.7335,37.39521],[-8.75439,37.42812],[-8.80155,37.44522],[-8.78585,37.53352],[-8.81949,37.5993]]]}},{"type":"Feature","properties":{"district":"Braga"},"geometry":{"type":"Polygon","coordinates":[[[-8.80989,41.6115],[-8.73916,41.61993],[-8.6968,41.6407],[-8.64991,41.63453],[-8.6433,41.65439],[-8.5522,41.62719],[-8.53682,41.65023],[-8.54729,41.6633],[-8.52166,41.68182],[-8.5183,41.7263],[-8.50149,41.73864],[-8.46207,41.73218],[-8.3749,41.77039],[-8.30786,41.76137],[-8.2951,41.7805],[-8.27151,41.77152],[-8.1961,41.81249],[-8.0534,41.82059],[-8.04511,41.8039],[-8.06069,41.79012],[-8.0618,41.7606],[-8.11238,41.69261],[-8.0381,41.70069],[-7.9851,41.68209],[-8.00146,41.63798],[-7.99528,41.60295],[-7.88209,41.58846],[-7.8509,41.61509],[-7.81071,41.5733],[-7.86131,41.5118],[-7.89292,41.50926],[-7.9026,41.48931],[-7.93645,41.47909],[-7.93905,41.43629],[-7.9651,41.414],[-7.98871,41.3472],[-8.0281,41.31931],[-8.0689,41.34178],[-8.08919,41.32981],[-8.1197,41.34321],[-8.14639,41.36031],[-8.14266,41.37497],[-8.16597,41.39911],[-8.2149,41.4117],[-8.22221,41.3936],[-8.27295,41.36975],[-8.2873,41.34111],[-8.3164,41.35131],[-8.33071,41.37573],[-8.3942,41.36191],[-8.40149,41.38355],[-8.4317,41.36291],[-8.45582,41.37543],[-8.5,41.36766],[-8.51829,41.34573],[-8.6037,41.33861],[-8.62329,41.3827],[-8.59585,41.39484],[-8.60328,41.41008],[-8.6501,41.41971],[-8.66859,41.44475],[-8.7007,41.44211],[-8.77509,41.4712],[-8.80989,41.6115]]]}},{"type":"Feature","properties":{"district":"Bragança"},"geometry":{"type":"Polygon","coordinates":[[[-7.43189,41.2108],[-7.41428,41.24831],[-7.39529,41.2462],[-7.39149,41.2855],[-7.36711,41.30384],[-7.37559,41.314],[-7.32802,41.34019],[-7.36159,41.3648],[-7.36529,41.4404],[-7.30548,41.46269],[-7.2839,41.51559],[-7.23278,41.5227],[-7.25839,41.5632],[-7.25869,41.5914],[-7.2089,41.7118],[-7.17266,41.74451],[-7.17182,41.77005],[-7.19409,41.7824],[-7.21359,41.8272],[-7.17804,41.91753],[-7.18659,41.9694],[-7.1414,41.99069],[-7.08751,41.97349],[-7.06923,41.94933],[-7.00816,41.95009],[-6.9793,41.97379],[-6.9578,41.9689],[-6.94303,41.94459],[-6.89417,41.94003],[-6.82247,41.94596],[-6.81129,41.99249],[-6.7687,41.9841],[-6.74947,41.9434],[-6.69999,41.93341],[-6.62069,41.93997],[-6.5847,41.96629],[-6.5465,41.9394],[-6.56788,41.88429],[-6.51551,41.8716],[-6.54361,41.7785],[-6.56644,41.74778],[-6.54881,41.7255],[-6.54809,41.68547],[-6.49921,41.65714],[-6.4579,41.66713],[-6.445,41.68479],[-6.30241,41.66183],[-6.18911,41.5748],[-6.25504,41.51299],[-6.26181,41.48681],[-6.28351,41.47865],[-6.30452,41.44996],[-6.3,41.42871],[-6.33164,41.41172],[-6.3176,41.38571],[-6.38877,41.38486],[-6.37962,41.35639],[-6.41496,41.34759],[-6.4376,41.3053],[-6.48708,41.29112],[-6.47841,41.2758],[-6.4986,41.26525],[-6.5216,41.27432],[-6.5713,41.23901],[-6.64733,41.24697],[-6.70911,41.1726],[-6.7683,41.13417],[-6.7559,41.1012],[-6.80891,41.0365],[-6.8345,41.02843],[-6.91554,41.03801],[-6.99308,41.02559],[-7.0435,41.04431],[-7.1023,41.0809],[-7.08426,41.12594],[-7.13019,41.1377],[-7.11485,41.15139],[-7.11631,41.17825],[-7.1637,41.12611],[-7.24974,41.14488],[-7.2815,41.13551],[-7.3572,41.1478],[-7.39078,41.195],[-7.43189,41.2108]]]}},{"type":"Feature","properties":{"district":"Castelo Branco"},"geometry":{"type":"Polygon","coordinates":[[[-8.29309,39.8077],[-8.27251,39.82225],[-8.2737,39.84309],[-8.21013,39.85099],[-8.1862,39.88129],[-8.14846,39.88609],[-8.1146,39.94869],[-8.08513,39.94508],[-8.0868,39.96469],[-8.06516,39.95486],[-8.0564,39.96969],[-8.03539,39.96494],[-8.0318,39.98449],[-8.01653,39.97217],[-8.0139,39.98929],[-7.99709,39.98025],[-7.96514,39.98409],[-7.9528,40.00249],[-7.91869,39.99917],[-7.90672,40.01125],[-7.91589,40.0328],[-7.86122,40.05896],[-7.80916,40.04033],[-7.80313,40.06191],[-7.81559,40.07822],[-7.78732,40.086],[-7.77718,40.06956],[-7.73461,40.10851],[-7.73669,40.1241],[-7.80899,40.1818],[-7.7823,40.23],[-7.65562,40.27387],[-7.60892,40.32355],[-7.53654,40.31881],[-7.50929,40.3762],[-7.4616,40.40179],[-7.44642,40.38699],[-7.3945,40.38071],[-7.34642,40.38995],[-7.3216,40.41329],[-7.27041,40.4081],[-7.27581,40.3394],[-7.32742,40.29195],[-7.29754,40.27178],[-7.24102,40.25874],[-7.2126,40.28599],[-7.1617,40.26877],[-7.1119,40.32459],[-7.08393,40.27878],[-7.0164,40.29039],[-6.9616,40.26789],[-6.95141,40.2576],[-6.96251,40.23871],[-7.00867,40.22817],[-7.02826,40.19058],[-7.01643,40.14059],[-6.99703,40.11956],[-6.941,40.11259],[-6.86381,40.012],[-6.88526,39.98045],[-6.885,39.9407],[-6.90389,39.92451],[-6.9036,39.8707],[-6.98718,39.80749],[-6.97681,39.7723],[-7.01551,39.67041],[-7.1514,39.6531],[-7.25552,39.66609],[-7.33131,39.641],[-7.53469,39.66682],[-7.5795,39.65857],[-7.63754,39.6227],[-7.67309,39.64829],[-7.71496,39.62595],[-7.7231,39.59271],[-7.75436,39.58835],[-7.7698,39.56431],[-7.8251,39.53741],[-7.81674,39.57541],[-7.86472,39.63593],[-7.91764,39.66707],[-7.9577,39.66141],[-7.95469,39.72162],[-7.96691,39.74453],[-7.98682,39.72889],[-8.01153,39.7439],[-8.05428,39.73415],[-8.05801,39.6719],[-8.07619,39.6567],[-8.05361,39.61651],[-8.1346,39.61131],[-8.23739,39.64183],[-8.22911,39.75448],[-8.24434,39.77839],[-8.2813,39.7771],[-8.29309,39.8077]]]}},{"type":"Feature","properties":{"district":"Coimbra"},"geometry":{"type":"Polygon","coordinates":[[[-8.90959,40.1876],[-8.84636,40.32675],[-8.784,40.52039],[-8.66235,40.42839],[-8.635,40.42717],[-8.63159,40.4658],[-8.6148,40.48559],[-8.5748,40.4649],[-8.57323,40.40156],[-8.50481,40.42219],[-8.50678,40.406],[-8.48171,40.3867],[-8.48501,40.31531],[-8.52554,40.3143],[-8.52501,40.29485],[-8.45896,40.27887],[-8.44909,40.3171],[-8.411,40.32502],[-8.40519,40.35198],[-8.35969,40.34721],[-8.35388,40.36962],[-8.2989,40.35779],[-8.25028,40.32335],[-8.2106,40.34129],[-8.11659,40.33933],[-8.04358,40.38485],[-7.9743,40.40534],[-7.82842,40.49851],[-7.79691,40.4574],[-7.8109,40.43931],[-7.84538,40.43109],[-7.84474,40.41489],[-7.79721,40.40499],[-7.80416,40.35095],[-7.75821,40.3318],[-7.7653,40.31641],[-7.80408,40.30766],[-7.82465,40.26457],[-7.7828,40.2317],[-7.80696,40.18168],[-7.79623,40.16116],[-7.736,40.12389],[-7.73211,40.105],[-7.7733,40.06401],[-7.79133,40.07882],[-7.80407,40.07187],[-7.8083,40.03571],[-7.8613,40.05868],[-7.9137,40.0342],[-7.902,40.00291],[-7.95055,40.00123],[-7.96251,39.97751],[-7.98385,39.98964],[-8.00521,39.97271],[-8.03137,39.9785],[-8.0333,39.96051],[-8.05598,39.96597],[-8.0878,39.9425],[-8.11554,39.94718],[-8.1241,39.93291],[-8.13209,39.9406],[-8.11158,39.97158],[-8.15689,40.0273],[-8.1433,40.06663],[-8.1795,40.08866],[-8.2097,40.05211],[-8.23812,40.0666],[-8.27479,40.04591],[-8.29762,40.01129],[-8.27061,39.9891],[-8.2793,39.95961],[-8.31583,39.98425],[-8.3858,39.92391],[-8.40889,39.9318],[-8.38192,39.95703],[-8.42624,40.02582],[-8.4271,39.99771],[-8.45519,40.0144],[-8.4906,39.98611],[-8.51875,39.98335],[-8.5388,39.94881],[-8.56218,40.02803],[-8.58981,40.02728],[-8.615,39.99231],[-8.6429,39.99041],[-8.64465,40.00906],[-8.67571,40.02886],[-8.76275,40.04103],[-8.8005,40.01261],[-8.86859,40.0234],[-8.89399,40.0443],[-8.86239,40.13664],[-8.90959,40.1876]]]}},{"type":"Feature","properties":{"district":"Évora"},"geometry":{"type":"Polygon","coordinates":[[[-8.65829,38.6023],[-8.57899,38.6716],[-8.50344,38.71562],[-8.51053,38.73707],[-8.49321,38.76097],[-8.54679,38.7634],[-8.5231,38.78889],[-8.5004,38.80749],[-8.46919,38.79591],[-8.4302,38.83429],[-8.4074,38.82522],[-8.3774,38.85639],[-8.34175,38.83904],[-8.3015,38.86909],[-8.26041,38.84339],[-8.26698,38.83096],[-8.2505,38.81846],[-8.2225,38.82949],[-8.19933,38.79711],[-8.17361,38.801],[-8.17375,38.78197],[-8.14307,38.77321],[-8.12705,38.80635],[-8.1453,38.81793],[-8.16,38.80661],[-8.16635,38.82816],[-8.18789,38.8381],[-8.16512,38.86807],[-8.27219,38.9074],[-8.24268,38.93872],[-8.24259,38.9735],[-8.20979,38.98509],[-8.1748,39.02059],[-8.152,39.02689],[-8.13468,39.01237],[-8.1038,39.02269],[-8.09861,39.0127],[-8.11871,38.99778],[-8.10227,38.97021],[-8.08792,38.97708],[-8.0792,39.0138],[-8.0476,39.00829],[-8.01371,38.9814],[-8.01889,38.94233],[-7.925,38.97479],[-7.87336,38.90937],[-7.79222,38.89699],[-7.75205,38.90828],[-7.7329,38.93919],[-7.70077,38.91388],[-7.6834,38.92939],[-7.64401,38.91333],[-7.6043,38.95379],[-7.54369,38.96762],[-7.55309,38.9925],[-7.5334,39.00839],[-7.45291,38.9644],[-7.4617,38.92411],[-7.42281,38.9032],[-7.4253,38.87475],[-7.40721,38.8602],[-7.39074,38.80433],[-7.36808,38.81138],[-7.34555,38.79854],[-7.30409,38.8374],[-7.27872,38.82917],[-7.2575,38.84799],[-7.20741,38.83109],[-7.22774,38.77195],[-7.20381,38.7515],[-7.25984,38.72269],[-7.27206,38.63847],[-7.24361,38.624],[-7.30283,38.54316],[-7.32154,38.47989],[-7.29591,38.476],[-7.3191,38.44357],[-7.27961,38.4194],[-7.26854,38.39132],[-7.15061,38.27579],[-7.1079,38.188],[-7.1596,38.1599],[-7.19909,38.2241],[-7.19331,38.24618],[-7.2442,38.26311],[-7.28614,38.33084],[-7.3381,38.31985],[-7.3561,38.29921],[-7.387,38.30045],[-7.4611,38.2199],[-7.49574,38.2067],[-7.4979,38.18851],[-7.5672,38.18891],[-7.63442,38.20937],[-7.6696,38.20021],[-7.7596,38.24652],[-7.8391,38.25161],[-7.97781,38.31723],[-8.0097,38.29951],[-8.04544,38.32583],[-8.1702,38.31941],[-8.19866,38.34283],[-8.26919,38.35361],[-8.27865,38.37164],[-8.32259,38.37221],[-8.28694,38.41136],[-8.30188,38.42439],[-8.28806,38.43215],[-8.3231,38.43681],[-8.31299,38.4629],[-8.36929,38.54483],[-8.4231,38.52101],[-8.47589,38.51681],[-8.50426,38.54755],[-8.51574,38.54098],[-8.50621,38.5192],[-8.5277,38.51121],[-8.5335,38.52766],[-8.57249,38.5316],[-8.57704,38.54455],[-8.63909,38.54951],[-8.65829,38.6023]]]}},{"type":"Feature","properties":{"district":"Faro"},"geometry":{"type":"Polygon","coordinates":[[[-8.9975,37.02224],[-8.90435,37.16459],[-8.91859,37.1963],[-8.89601,37.20611],[-8.86098,37.26733],[-8.87989,37.322],[-8.84109,37.35946],[-8.79631,37.44299],[-8.7496,37.43189],[-8.73452,37.40097],[-8.6639,37.40069],[-8.64136,37.37726],[-8.6209,37.40109],[-8.5733,37.41209],[-8.52098,37.38191],[-8.45613,37.37409],[-8.42798,37.38594],[-8.4184,37.41889],[-8.32629,37.42657],[-8.3182,37.43939],[-8.28551,37.43123],[-8.26461,37.4081],[-8.27208,37.38891],[-8.18913,37.34211],[-8.0677,37.32097],[-8.00212,37.36484],[-7.9999,37.39809],[-7.98449,37.4064],[-7.90572,37.41033],[-7.8918,37.43459],[-7.713,37.50179],[-7.6624,37.50579],[-7.61931,37.49178],[-7.5744,37.52909],[-7.5157,37.52859],[-7.4922,37.5222],[-7.46381,37.4872],[-7.4687,37.46852],[-7.44551,37.4194],[-7.45949,37.40796],[-7.43711,37.3704],[-7.44193,37.31085],[-7.42171,37.2738],[-7.43328,37.24991],[-7.41321,37.2245],[-7.39992,37.16354],[-7.46892,37.17603],[-7.57017,37.14794],[-7.80834,37.01253],[-7.8696,36.96261],[-7.9532,36.97991],[-8.09321,37.06287],[-8.18339,37.09027],[-8.2984,37.07161],[-8.3684,37.10153],[-8.4367,37.0853],[-8.53378,37.11729],[-8.601,37.12288],[-8.65898,37.11098],[-8.6676,37.07891],[-8.72612,37.0862],[-8.7894,37.0626],[-8.84035,37.0604],[-8.8931,37.04036],[-8.948,36.99351],[-8.96601,37.02502],[-8.9975,37.02224]]]}},{"type":"Feature","properties":{"district":"Guarda"},"geometry":{"type":"Polygon","coordinates":[[[-7.84919,40.4275],[-7.79932,40.45463],[-7.82729,40.4818],[-7.82269,40.50809],[-7.7841,40.50742],[-7.6657,40.55959],[-7.58888,40.573],[-7.53825,40.69086],[-7.59099,40.71381],[-7.5968,40.7287],[-7.57239,40.7508],[-7.62809,40.7815],[-7.586,40.8526],[-7.5581,40.8732],[-7.51411,40.8693],[-7.44619,40.81603],[-7.40513,40.87562],[-7.4303,40.8944],[-7.4179,40.92179],[-7.37846,40.90707],[-7.33524,40.93535],[-7.32711,40.97248],[-7.37879,40.99121],[-7.37902,41.01328],[-7.33704,41.01529],[-7.34567,41.04652],[-7.3046,41.13949],[-7.2515,41.145],[-7.16464,41.12644],[-7.1501,41.1544],[-7.11422,41.17746],[-7.12884,41.1376],[-7.08381,41.126],[-7.10249,41.10388],[-7.10187,41.08133],[-6.9905,41.02497],[-6.9681,41.03639],[-6.93131,41.02939],[-6.9215,41.0033],[-6.85911,40.9497],[-6.84776,40.9017],[-6.80861,40.8817],[-6.80011,40.8485],[-6.82112,40.83952],[-6.83092,40.75256],[-6.79401,40.6613],[-6.84359,40.56959],[-6.80091,40.55029],[-6.79531,40.5114],[-6.84929,40.45096],[-6.83496,40.40851],[-6.78101,40.3645],[-6.7941,40.3284],[-6.86179,40.29903],[-6.8709,40.2625],[-6.95348,40.25808],[-7.01589,40.29025],[-7.0307,40.27831],[-7.0832,40.27831],[-7.11165,40.32426],[-7.136,40.2829],[-7.1614,40.26861],[-7.20533,40.28564],[-7.2402,40.25841],[-7.2979,40.27181],[-7.33259,40.2939],[-7.27556,40.34039],[-7.27084,40.4059],[-7.29254,40.41488],[-7.3068,40.40351],[-7.32844,40.41016],[-7.3449,40.38181],[-7.35976,40.39233],[-7.4002,40.38061],[-7.4473,40.38681],[-7.46137,40.40143],[-7.48832,40.39377],[-7.5372,40.31781],[-7.5813,40.31131],[-7.61021,40.32265],[-7.6189,40.2996],[-7.6612,40.27121],[-7.70904,40.26104],[-7.7337,40.23691],[-7.7824,40.22991],[-7.82569,40.2659],[-7.8044,40.30759],[-7.76645,40.31663],[-7.7609,40.33219],[-7.80509,40.34931],[-7.7983,40.40277],[-7.8269,40.40321],[-7.84919,40.4275]]]}},{"type":"Feature","properties":{"district":"Leiria"},"geometry":{"type":"MultiPolygon","coordinates":[[[[-9.40949,39.3598],[-9.37929,39.37609],[-9.35317,39.36135],[-9.341,39.37958],[-9.30575,39.38226],[-9.22988,39.42571],[-9.20369,39.4731],[-9.14481,39.51051],[-9.07587,39.58827],[-9.08369,39.6215],[-9.05099,39.719],[-8.89399,40.04429],[-8.86328,40.02366],[-8.80345,40.01347],[-8.7665,40.0409],[-8.6755,40.03009],[-8.6411,40.01109],[-8.63852,39.99072],[-8.61495,39.99315],[-8.5904,40.02799],[-8.5626,40.02819],[-8.53924,39.94995],[-8.52219,39.98449],[-8.49151,39.98619],[-8.427,40.02669],[-8.37991,39.9554],[-8.40162,39.93194],[-8.38662,39.92414],[-8.33614,39.95584],[-8.3138,39.98869],[-8.30586,39.97401],[-8.27717,39.97109],[-8.27427,39.98818],[-8.29679,40.0159],[-8.24319,40.06679],[-8.21158,40.05551],[-8.1791,40.08969],[-8.14371,40.07279],[-8.15583,40.02516],[-8.10801,39.9621],[-8.129,39.94057],[-8.11881,39.9321],[-8.13981,39.8949],[-8.21328,39.85035],[-8.27421,39.84184],[-8.27201,39.81951],[-8.2921,39.80806],[-8.2851,39.79581],[-8.32851,39.79761],[-8.33249,39.76096],[-8.34509,39.77397],[-8.3801,39.75191],[-8.40402,39.7602],[-8.45279,39.73091],[-8.47936,39.83542],[-8.5929,39.77691],[-8.63374,39.78984],[-8.67642,39.77338],[-8.68078,39.74883],[-8.66421,39.7251],[-8.67928,39.71208],[-8.63211,39.6955],[-8.6494,39.66071],[-8.70142,39.63635],[-8.6715,39.5618],[-8.7145,39.52081],[-8.7448,39.52982],[-8.72931,39.48],[-8.80288,39.48275],[-8.90403,39.46455],[-8.9457,39.39101],[-8.97045,39.39328],[-8.99122,39.3759],[-9.00125,39.35255],[-8.98641,39.3188],[-9.0034,39.29151],[-9.0265,39.29321],[-9.04006,39.31032],[-9.0679,39.30773],[-9.12113,39.27012],[-9.1436,39.22861],[-9.17812,39.21153],[-9.19879,39.2348],[-9.18933,39.2714],[-9.20481,39.30213],[-9.2586,39.31501],[-9.2969,39.28351],[-9.3415,39.2929],[-9.3657,39.34866],[-9.40949,39.3598]]],[[[-9.5124,39.40741],[-9.5129,39.4196],[-9.50101,39.4185],[-9.5124,39.40741]]]]}},{"type":"Feature","properties":{"district":"Lisboa"},"geometry":{"type":"Polygon","coordinates":[[[-9.50039,38.781],[-9.41553,38.94558],[-9.42779,39.0023],[-9.42199,39.0747],[-9.34596,39.20273],[-9.3411,39.29199],[-9.29739,39.28582],[-9.2556,39.31769],[-9.20051,39.3023],[-9.18701,39.2689],[-9.20069,39.24342],[-9.17955,39.21207],[-9.14064,39.23146],[-9.1011,39.28969],[-9.04567,39.31138],[-9.02484,39.29367],[-8.97521,39.2871],[-8.98058,39.25075],[-8.9119,39.23624],[-8.877,39.25169],[-8.82071,39.2048],[-8.8265,39.1859],[-8.88457,39.1867],[-8.9038,39.16594],[-8.86891,39.12923],[-8.80761,39.1045],[-8.78191,39.05841],[-8.821,39.02861],[-8.85239,39.02788],[-8.84211,39.0159],[-8.87357,38.9723],[-8.85071,38.9599],[-8.89079,38.94464],[-8.91141,38.8883],[-8.9691,38.82651],[-8.99241,38.85644],[-9.02209,38.85461],[-9.00956,38.87993],[-9.01563,38.90967],[-9.0463,38.8362],[-9.08746,38.81002],[-9.09131,38.7568],[-9.1246,38.71101],[-9.2159,38.69141],[-9.28163,38.69833],[-9.3238,38.67321],[-9.39298,38.70185],[-9.4234,38.68941],[-9.4604,38.69511],[-9.48619,38.7081],[-9.4734,38.74873],[-9.50039,38.781]]]}},{"type":"Feature","properties":{"district":"Madeira"},"geometry":{"type":"MultiPolygon","coordinates":[[[[-15.87341,30.15714],[-15.86261,30.15461],[-15.8705,30.13801],[-15.87719,30.14151],[-15.87341,30.15714]]],[[[-16.04469,30.0318],[-16.0399,30.03979],[-16.02191,30.0357],[-16.02751,30.03181],[-16.04469,30.0318]]],[[[-16.41019,33.0409],[-16.38961,33.04473],[-16.36988,33.08292],[-16.322,33.10959],[-16.30513,33.0974],[-16.2877,33.1038],[-16.29114,33.0601],[-16.33898,33.05477],[-16.38082,33.02311],[-16.3814,32.99651],[-16.39389,33.0065],[-16.38306,33.02834],[-16.41019,33.0409]]],[[[-16.48479,32.4169],[-16.4909,32.46399],[-16.48499,32.42749],[-16.46332,32.40361],[-16.48479,32.4169]]],[[[-16.537,32.5401],[-16.5451,32.5921],[-16.50011,32.5198],[-16.49151,32.47601],[-16.51626,32.52682],[-16.537,32.5401]]],[[[-17.26569,32.815],[-17.1966,32.86999],[-17.16241,32.8696],[-17.12571,32.82772],[-17.05214,32.80867],[-16.989,32.83029],[-16.9039,32.83739],[-16.82215,32.76848],[-16.6938,32.75439],[-16.65561,32.7304],[-16.69174,32.74619],[-16.72583,32.74182],[-16.8313,32.64021],[-16.9022,32.64666],[-16.945,32.63281],[-17.1046,32.67771],[-17.1916,32.72441],[-17.24512,32.77291],[-17.26569,32.815]]]]}},{"type":"Feature","properties":{"district":"Portalegre"},"geometry":{"type":"Polygon","coordinates":[[[-8.34389,39.1044],[-8.2989,39.16279],[-8.23381,39.18236],[-8.18465,39.21894],[-8.1345,39.28739],[-8.08007,39.27798],[-8.02832,39.33971],[-8.03089,39.36359],[-7.96922,39.38398],[-7.94205,39.40853],[-8.00889,39.4732],[-7.9549,39.56499],[-7.84771,39.51106],[-7.7554,39.5881],[-7.72338,39.59293],[-7.704,39.63619],[-7.6718,39.64889],[-7.63714,39.62282],[-7.5791,39.65879],[-7.5417,39.66369],[-7.49789,39.5884],[-7.4612,39.57279],[-7.42988,39.53429],[-7.39071,39.5297],[-7.37654,39.48983],[-7.29431,39.4568],[-7.32221,39.38219],[-7.3079,39.33678],[-7.23151,39.2783],[-7.24753,39.25308],[-7.23982,39.20758],[-7.13471,39.17119],[-7.14327,39.10852],[-7.10675,39.09977],[-7.0388,39.11839],[-6.996,39.09929],[-6.95111,39.0236],[-7.04746,38.90906],[-7.03301,38.8788],[-7.0397,38.86431],[-7.2043,38.75201],[-7.23249,38.7827],[-7.21261,38.80841],[-7.21613,38.82933],[-7.24428,38.84739],[-7.2796,38.82761],[-7.29972,38.83886],[-7.32091,38.82529],[-7.31911,38.8095],[-7.3456,38.79851],[-7.3916,38.80141],[-7.40546,38.83722],[-7.42418,38.848],[-7.40916,38.85625],[-7.42779,38.8771],[-7.42294,38.90288],[-7.46609,38.926],[-7.45812,38.96549],[-7.53294,39.00715],[-7.54745,38.98995],[-7.5418,38.96851],[-7.56471,38.95251],[-7.60479,38.95347],[-7.63771,38.91151],[-7.68232,38.92854],[-7.6981,38.91241],[-7.73138,38.93571],[-7.7671,38.90171],[-7.8519,38.90091],[-7.87599,38.90841],[-7.92474,38.97226],[-8.0221,38.94141],[-8.01528,38.98159],[-8.07051,39.01549],[-8.1032,38.96921],[-8.12029,39.004],[-8.10188,39.01895],[-8.12393,39.02382],[-8.12901,39.01221],[-8.1507,39.02572],[-8.17685,39.01831],[-8.2189,38.97821],[-8.22703,39.00229],[-8.2603,39.0123],[-8.29199,39.08073],[-8.34389,39.1044]]]}},{"type":"Feature","properties":{"district":"Porto"},"geometry":{"type":"Polygon","coordinates":[[[-8.78679,41.4151],[-8.7751,41.47119],[-8.70049,41.4431],[-8.6681,41.44459],[-8.64812,41.41951],[-8.59071,41.4001],[-8.6211,41.38283],[-8.60697,41.34286],[-8.52079,41.34654],[-8.5014,41.36829],[-8.4523,41.37559],[-8.43147,41.363],[-8.3994,41.38429],[-8.38431,41.3809],[-8.39088,41.36323],[-8.32611,41.37689],[-8.31605,41.35208],[-8.28571,41.34219],[-8.27779,41.3694],[-8.2154,41.41189],[-8.1658,41.40029],[-8.12852,41.34824],[-8.08469,41.33025],[-8.06541,41.34329],[-8.03435,41.31891],[-7.98984,41.34683],[-7.9742,41.37519],[-7.94731,41.3527],[-7.96209,41.32842],[-7.90761,41.3027],[-7.91412,41.27471],[-7.87571,41.2422],[-7.89271,41.20905],[-7.88952,41.1632],[-7.91191,41.11991],[-7.95073,41.12258],[-8.05649,41.08961],[-8.09638,41.10044],[-8.1355,41.0838],[-8.20426,41.09401],[-8.2654,41.06481],[-8.2938,41.07948],[-8.3522,41.04011],[-8.39295,41.04995],[-8.40056,41.03438],[-8.38341,41.0235],[-8.3868,41.00241],[-8.42999,41.0225],[-8.44437,41.05036],[-8.47998,41.05281],[-8.49065,41.03968],[-8.46661,41.0303],[-8.4947,41.01041],[-8.53151,41.03784],[-8.56579,41.01382],[-8.6021,41.00951],[-8.60698,41.02484],[-8.64499,41.01601],[-8.66963,41.1407],[-8.69254,41.17519],[-8.7082,41.17211],[-8.73952,41.33207],[-8.78679,41.4151]]]}},{"type":"Feature","properties":{"district":"Santarém"},"geometry":{"type":"Polygon","coordinates":[[[-9.00159,39.3547],[-8.9837,39.3847],[-8.94526,39.39321],[-8.9034,39.46599],[-8.73459,39.48188],[-8.74659,39.529],[-8.73392,39.53632],[-8.71323,39.52254],[-8.6746,39.56131],[-8.70199,39.63999],[-8.64975,39.6609],[-8.63512,39.69422],[-8.67919,39.70891],[-8.67989,39.7694],[-8.635,39.7899],[-8.58476,39.77958],[-8.54424,39.79935],[-8.52359,39.82769],[-8.50479,39.81692],[-8.4787,39.83839],[-8.44908,39.73571],[-8.4041,39.76029],[-8.38041,39.75238],[-8.34759,39.77363],[-8.33263,39.76916],[-8.33569,39.80339],[-8.2854,39.79619],[-8.26501,39.77068],[-8.243,39.77899],[-8.22771,39.7446],[-8.23383,39.64829],[-8.13563,39.61162],[-8.06015,39.62202],[-8.07879,39.657],[-8.05826,39.67226],[-8.05519,39.73589],[-8.0376,39.74779],[-7.98878,39.73033],[-7.96999,39.74595],[-7.95771,39.7407],[-7.95471,39.66364],[-7.9148,39.66849],[-7.8644,39.63819],[-7.80901,39.5658],[-7.8511,39.50991],[-7.95809,39.56203],[-8.00849,39.47152],[-7.93951,39.41],[-7.9687,39.38231],[-8.02812,39.36275],[-8.02641,39.3416],[-8.07861,39.2779],[-8.13493,39.28703],[-8.18361,39.2186],[-8.234,39.18151],[-8.29771,39.16194],[-8.34339,39.10827],[-8.29081,39.0804],[-8.28935,39.05761],[-8.2678,39.05229],[-8.26094,39.01385],[-8.2218,38.9967],[-8.23885,38.97668],[-8.2428,38.9383],[-8.26947,38.90762],[-8.15871,38.8664],[-8.18631,38.83826],[-8.12431,38.805],[-8.1453,38.77181],[-8.1756,38.7827],[-8.17933,38.80235],[-8.20489,38.7993],[-8.19965,38.8101],[-8.22005,38.8275],[-8.2506,38.81831],[-8.29852,38.86082],[-8.3417,38.83881],[-8.37953,38.85448],[-8.4091,38.82301],[-8.42928,38.83436],[-8.4711,38.79391],[-8.50047,38.80626],[-8.5481,38.76271],[-8.61319,38.7833],[-8.60091,38.83965],[-8.64777,38.8095],[-8.70064,38.84109],[-8.7586,38.7405],[-8.7916,38.73421],[-8.83889,38.7617],[-8.9049,38.74501],[-8.89901,38.73191],[-8.9101,38.7326],[-8.94509,38.7782],[-8.93533,38.80379],[-8.967,38.8322],[-8.91195,38.88772],[-8.89139,38.9445],[-8.85679,38.95803],[-8.87839,38.9718],[-8.84819,39.00995],[-8.86129,39.0278],[-8.81887,39.02933],[-8.78459,39.06245],[-8.80823,39.10488],[-8.8681,39.12861],[-8.91259,39.17],[-8.88828,39.18552],[-8.82761,39.1864],[-8.81939,39.19645],[-8.83342,39.22272],[-8.87805,39.25135],[-8.9116,39.23491],[-8.96253,39.25489],[-8.9813,39.24941],[-8.97672,39.2835],[-8.99449,39.2967],[-8.98729,39.31808],[-9.00159,39.3547]]]}},{"type":"Feature","properties":{"district":"Setúbal"},"geometry":{"type":"Polygon","coordinates":[[[-9.26298,38.6627],[-9.1463,38.68839],[-9.13748,38.65983],[-9.08514,38.64473],[-9.0894,38.6621],[-9.0583,38.68389],[-9.03725,38.66456],[-8.99362,38.69107],[-9.01105,38.70212],[-9.04929,38.68991],[-9.0449,38.7157],[-8.9465,38.76179],[-8.89145,38.74197],[-8.84007,38.76168],[-8.79153,38.73442],[-8.76665,38.73785],[-8.75163,38.74533],[-8.70794,38.84537],[-8.64686,38.8095],[-8.596,38.84119],[-8.60736,38.77807],[-8.49101,38.76129],[-8.51093,38.73528],[-8.50101,38.7155],[-8.65653,38.60753],[-8.63849,38.55146],[-8.5752,38.54789],[-8.571,38.53211],[-8.53241,38.52819],[-8.52509,38.51182],[-8.50734,38.51957],[-8.52019,38.5429],[-8.50438,38.54752],[-8.47226,38.51704],[-8.4222,38.52129],[-8.3691,38.54569],[-8.31031,38.4585],[-8.32211,38.44129],[-8.2914,38.43899],[-8.28381,38.4258],[-8.31521,38.37554],[-8.1977,38.3426],[-8.14328,38.29799],[-8.12971,38.2663],[-8.12981,38.224],[-8.22056,38.20194],[-8.2397,38.1795],[-8.28205,38.1867],[-8.29121,38.13911],[-8.33312,38.15324],[-8.35457,38.13851],[-8.3634,38.10391],[-8.39372,38.108],[-8.40689,38.06555],[-8.34697,38.01854],[-8.31911,38.02609],[-8.29361,37.9933],[-8.30884,37.91091],[-8.29951,37.8991],[-8.33491,37.86684],[-8.33081,37.84701],[-8.43362,37.87026],[-8.53791,37.85325],[-8.55188,37.84451],[-8.54911,37.81591],[-8.56497,37.81867],[-8.58303,37.79994],[-8.58711,37.75681],[-8.6201,37.7493],[-8.66112,37.7681],[-8.686,37.7544],[-8.73756,37.81385],[-8.7826,37.80721],[-8.79989,37.8343],[-8.79285,37.86652],[-8.80667,37.92271],[-8.83592,37.93828],[-8.8562,37.93251],[-8.86862,37.95069],[-8.88949,37.94121],[-8.89059,37.9579],[-8.85463,37.99042],[-8.79645,38.12156],[-8.77509,38.22147],[-8.78176,38.31818],[-8.82501,38.41992],[-8.90709,38.4912],[-8.87901,38.4849],[-8.81584,38.43215],[-8.7985,38.44349],[-8.7578,38.4155],[-8.75319,38.43569],[-8.73919,38.41918],[-8.67814,38.41407],[-8.69394,38.43847],[-8.74819,38.4607],[-8.72239,38.46713],[-8.73459,38.4754],[-8.72324,38.48606],[-8.73865,38.54866],[-8.75334,38.54801],[-8.76528,38.52446],[-8.75541,38.4868],[-8.7799,38.47241],[-8.7979,38.46882],[-8.84684,38.50563],[-8.89759,38.51983],[-8.93391,38.4883],[-8.97965,38.47904],[-9.0288,38.44591],[-9.2222,38.41331],[-9.17774,38.51147],[-9.21083,38.60337],[-9.26298,38.6627]]]}},{"type":"Feature","properties":{"district":"Viana do Castelo"},"geometry":{"type":"Polygon","coordinates":[[[-8.88069,41.7532],[-8.86503,41.81025],[-8.87329,41.8699],[-8.8184,41.9113],[-8.75774,41.9322],[-8.7441,41.9659],[-8.66258,42.00281],[-8.65759,42.0301],[-8.6284,42.05056],[-8.54682,42.05407],[-8.5198,42.07959],[-8.42319,42.07264],[-8.3625,42.09049],[-8.33236,42.08411],[-8.3171,42.10449],[-8.25961,42.12165],[-8.2455,42.13979],[-8.22228,42.13428],[-8.1987,42.15429],[-8.18262,42.06627],[-8.1214,42.08279],[-8.08816,42.0575],[-8.08601,42.0165],[-8.1609,41.98289],[-8.2167,41.91262],[-8.19675,41.8778],[-8.1717,41.87909],[-8.16171,41.861],[-8.16731,41.80761],[-8.19637,41.81135],[-8.2722,41.77111],[-8.29299,41.78088],[-8.3068,41.76121],[-8.3737,41.76998],[-8.46164,41.73227],[-8.486,41.72721],[-8.5009,41.73884],[-8.5151,41.72681],[-8.52171,41.67961],[-8.54516,41.66694],[-8.54082,41.63126],[-8.5628,41.62371],[-8.57894,41.64312],[-8.6047,41.63491],[-8.63947,41.65333],[-8.65118,41.63133],[-8.69676,41.64051],[-8.8007,41.60641],[-8.88069,41.7532]]]}},{"type":"Feature","properties":{"district":"Vila Real"},"geometry":{"type":"Polygon","coordinates":[[[-8.11939,41.68921],[-8.08819,41.7133],[-8.06233,41.76031],[-8.05119,41.8195],[-8.01366,41.83251],[-7.98759,41.86925],[-7.92336,41.87868],[-7.9063,41.92709],[-7.88471,41.9243],[-7.89051,41.86004],[-7.87556,41.85033],[-7.84352,41.86552],[-7.84519,41.88129],[-7.6973,41.9072],[-7.65353,41.88128],[-7.5858,41.88189],[-7.61046,41.8304],[-7.52153,41.84184],[-7.50725,41.85117],[-7.5113,41.8653],[-7.4913,41.87119],[-7.45039,41.86337],[-7.42004,41.8115],[-7.3658,41.85279],[-7.35482,41.8412],[-7.31533,41.84271],[-7.20051,41.87949],[-7.20675,41.81184],[-7.17061,41.7676],[-7.1764,41.73671],[-7.20848,41.71224],[-7.25786,41.59295],[-7.2582,41.56356],[-7.22911,41.5228],[-7.28442,41.51497],[-7.29781,41.4651],[-7.36456,41.44028],[-7.36039,41.36345],[-7.31422,41.34128],[-7.37131,41.31678],[-7.36221,41.3038],[-7.39208,41.28375],[-7.3886,41.24301],[-7.4151,41.24684],[-7.4319,41.21081],[-7.50354,41.19909],[-7.5244,41.17971],[-7.54707,41.18787],[-7.57592,41.16007],[-7.66547,41.16222],[-7.6969,41.14171],[-7.79677,41.16151],[-7.8135,41.14571],[-7.8614,41.15826],[-7.9054,41.11871],[-7.91439,41.1345],[-7.89596,41.16111],[-7.8781,41.24298],[-7.91619,41.2726],[-7.91375,41.30556],[-7.96389,41.3296],[-7.94911,41.35252],[-7.9726,41.36041],[-7.96875,41.38691],[-7.98109,41.3949],[-7.94083,41.43175],[-7.93819,41.4774],[-7.90355,41.48979],[-7.8943,41.5132],[-7.86401,41.51183],[-7.81156,41.57638],[-7.84756,41.6138],[-7.8794,41.58821],[-7.9966,41.6031],[-8.00119,41.6409],[-7.98303,41.67836],[-8.02492,41.69754],[-8.11939,41.68921]]]}},{"type":"Feature","properties":{"district":"Viseu"},"geometry":{"type":"Polygon","coordinates":[[[-8.35919,40.369],[-8.35489,40.4089],[-8.31922,40.44401],[-8.33559,40.486],[-8.25149,40.51282],[-8.28489,40.5391],[-8.30839,40.5964],[-8.25023,40.61779],[-8.2932,40.6337],[-8.29757,40.68992],[-8.32579,40.7106],[-8.33355,40.7371],[-8.26922,40.76732],[-8.23734,40.82573],[-8.25509,40.8559],[-8.231,40.86469],[-8.19135,40.84644],[-8.1674,40.86619],[-8.12554,40.84938],[-8.10374,40.86445],[-8.12809,40.8988],[-8.13259,40.9477],[-8.09046,40.98721],[-8.09196,41.00935],[-8.1334,40.97861],[-8.21288,40.99401],[-8.21151,41.01027],[-8.23469,41.01181],[-8.24099,41.0252],[-8.23107,41.04586],[-8.2594,41.07039],[-8.2045,41.0941],[-8.13715,41.08381],[-8.0984,41.10059],[-8.05282,41.0899],[-7.9516,41.12269],[-7.90245,41.11957],[-7.87459,41.15681],[-7.8146,41.14611],[-7.7975,41.16179],[-7.69794,41.1418],[-7.6652,41.1626],[-7.58943,41.1565],[-7.5479,41.18839],[-7.52309,41.18026],[-7.5042,41.19899],[-7.446,41.21469],[-7.3911,41.19579],[-7.35585,41.14759],[-7.3072,41.1456],[-7.34457,41.05074],[-7.3374,41.0144],[-7.37946,41.00975],[-7.37374,40.99266],[-7.32531,40.972],[-7.33612,40.9342],[-7.37398,40.91238],[-7.38,40.8687],[-7.40325,40.87759],[-7.4542,40.81261],[-7.51665,40.86971],[-7.55883,40.87302],[-7.62132,40.79459],[-7.62292,40.78208],[-7.57071,40.7475],[-7.59479,40.72923],[-7.59113,40.71402],[-7.53511,40.6903],[-7.5886,40.58585],[-7.5813,40.5731],[-7.71226,40.54379],[-7.785,40.507],[-7.81914,40.50906],[-7.9312,40.42871],[-8.1342,40.33311],[-8.19257,40.34258],[-8.2525,40.32361],[-8.29961,40.35817],[-8.35919,40.369]]]}}]}