{"type": "Feature", "properties": {}, "geometry": {"type": "MultiPolygon", "coordinates": [[[[6.779377652000051, 49.161800706000065], [6.723465736000037, 49.218829140000025], [6.55698581300004, 49.41920838800007], [6.367107614000076, 49.46950698200004], [6.380052606000049, 49.551105033000056], [6.499791043000073, 49.72820742700003], [6.474962738000045, 49.82127507800004], [6.298279063000052, 49.85882438400006], [6.136217786000032, 50.01515130900003], [6.137662259000024, 50.129951507000044], [6.195401546000028, 50.229657692000046], [6.405028615000049, 50.32330853700006], [6.315555889000052, 50.49704261100004], [6.192200636000052, 50.521055484000044], [6.189312373000064, 50.56609405700004], [6.194050729000026, 50.637636230000055], [6.020999006000068, 50.75429537200006], [6.086947596000073, 50.91313496500004], [5.877055682000048, 51.03205973900003], [6.174812124000027, 51.18451343100003], [6.072657111000069, 51.24258758000008], [6.224405044000036, 51.36497902500008], [6.192230455000072, 51.52239143000003], [5.953191999000069, 51.74784610100005], [5.990897525000037, 51.82431018600005], [6.167766021000034, 51.90080465400007], [6.407779532000063, 51.828092122000044], [6.777568393000024, 51.93683942700005], [6.760464770000056, 52.118569369000056], [7.065685203000044, 52.24137303600003], [6.997369488000061, 52.444526703000065], [6.697774679000077, 52.48630126200004], [6.709741817000065, 52.62778412900008], [7.006229336000047, 52.63876304400003], [7.092691936000051, 52.83820085600007], [7.194149484000036, 52.97428243400003], [7.20279454100006, 53.113281580000034], [7.208935202000021, 53.243064469000046], [7.302077283000074, 53.323638059000075], [7.039353392000066, 53.33786033900003], [6.999446568000053, 53.35988790400006], [7.051488021000068, 53.499230140000066], [7.210963387000049, 53.64682400100003], [7.550173265000069, 53.675037571000075], [7.809895649000055, 53.70766193600008], [8.014333558000033, 53.69941540000008], [8.091290784000023, 53.63810896700005], [8.143959039000038, 53.592489871000055], [8.161393819000068, 53.534286372000054], [8.133207912000046, 53.51011685600008], [8.062340918000075, 53.50566751000008], [8.19555493200005, 53.40917151800005], [8.299814991000062, 53.46574459500005], [8.244924142000059, 53.54545595700006], [8.290381810000042, 53.59970148800005], [8.552684190000036, 53.51617546700004], [8.56436175400006, 53.54979198700005], [8.523293773000034, 53.59156510400004], [8.520410542000036, 53.60620504600007], [8.517731731000026, 53.74559730800007], [8.651577135000025, 53.88331536100003], [9.029917344000069, 53.825564876000044], [9.259451073000037, 53.854869766000036], [9.397542461000057, 53.74559730800007], [9.573364290000029, 53.59975660600003], [9.765380813000036, 53.54651849000004], [9.734364863000053, 53.56521552600003], [9.579590677000056, 53.61911904500005], [9.517639893000023, 53.71386157900008], [9.198433484000077, 53.88943213400006], [8.987136659000043, 53.89615718200008], [8.889128820000053, 53.955795926000064], [8.851253711000027, 54.01741749400003], [8.936953643000038, 54.07573638200006], [8.830173989000059, 54.16117671500007], [8.844813221000038, 54.26553280200005], [8.690795305000051, 54.33202755900004], [8.860201192000034, 54.44149204000007], [8.860056986000075, 54.58010981000007], [8.650595328000065, 54.823581336000075], [8.635999799000047, 54.91156926800005], [9.113097123000045, 54.87360159800005], [9.295612509000023, 54.80834476500007], [9.42015163800005, 54.83195640400004], [9.422933882000052, 54.82322309700004], [9.49194953400007, 54.822635552000065], [9.946252908000076, 54.76844849000008], [10.031170218000057, 54.63657494100005], [9.976350848000038, 54.47931344300008], [10.16851679000007, 54.432845017000034], [10.174162139000032, 54.34574558300005], [10.341321107000056, 54.42807162400004], [10.728152434000037, 54.30767138700003], [10.953803067000024, 54.373479168000074], [11.073302325000043, 54.311485117000075], [11.062144936000038, 54.190118452000036], [10.778360441000075, 54.06366754700008], [10.840885766000042, 53.991893865000065], [10.903661397000064, 53.956821956000056], [11.138352294000072, 54.00239951300006], [11.366208535000055, 53.96480799600005], [11.452733107000029, 53.89813703000004], [11.561778331000028, 54.028088628000035], [11.66891737700007, 54.14130745700004], [11.99848440900007, 54.17496997000006], [12.114026117000037, 54.17522646800006], [12.207709100000045, 54.24402662600005], [12.285530692000066, 54.27495204500008], [12.572140322000052, 54.436438260000045], [12.79782810100005, 54.37802449900005], [12.993830698000068, 54.398175654000056], [13.132205211000041, 54.29915473600005], [13.298339489000057, 54.599617167000076], [13.460018501000036, 54.51565233700006], [13.51003619100004, 54.56959381300004], [13.63871176300006, 54.567454206000036], [13.55680794500006, 54.44911689300005], [13.597303519000036, 54.35124608400008], [13.319396030000064, 54.19350592400008], [13.47479097400003, 54.112162511000065], [13.736964447000048, 54.137530180000056], [13.821254088000046, 54.150270840000076], [13.97529318200003, 53.984343093000064], [14.096144705000029, 53.99780288200003], [14.22630214000003, 53.928652853000074], [14.213077566000038, 53.86647943000003], [14.05410405200007, 53.831487725000045], [14.030434745000036, 53.79861770600007], [14.094329156000072, 53.75504202700006], [14.26603127900006, 53.74559730800007], [14.268869316000064, 53.69792322900008], [14.412156848000052, 53.329636082000036], [14.34916045600005, 53.07293872100007], [14.143657761000043, 52.96136838800004], [14.156692153000051, 52.895590998000046], [14.164825372000053, 52.830544186000054], [14.43643813600005, 52.67990036100008], [14.565062983000075, 52.624496890000046], [14.63056410200005, 52.521818186000075], [14.53436189000007, 52.39500803800007], [14.600891329000035, 52.27205200600008], [14.69553976900005, 52.22886559500006], [14.755105498000034, 52.07008455600004], [14.716716022000071, 52.00118802000003], [14.611507325000048, 51.83039265600007], [14.737448991000065, 51.664883159000055], [14.72986178900004, 51.58177711400003], [14.931646348000072, 51.466495258000066], [14.97418297300004, 51.36394997700006], [15.022566269000038, 51.27585717800008], [14.997301495000045, 51.13758067900005], [14.823362001000078, 50.87055037200008], [14.755768953000029, 50.826100187000065], [14.61879975900007, 50.85780447700006], [14.583493686000054, 50.980511300000046], [14.491221239000026, 51.04353041100006], [14.317873514000041, 51.05469913300004], [14.282124881000072, 51.00081036100005], [14.362585839000076, 50.90419029100008], [13.829683216000035, 50.73273847400003], [13.65217407800003, 50.73035993500008], [13.501846054000055, 50.633643033000055], [13.04970938300005, 50.49839046800008], [12.948144599000045, 50.40431146900005], [12.805882302000043, 50.450163272000054], [12.583778453000036, 50.407078916000046], [12.410605049000026, 50.31818228700007], [12.316772118000074, 50.181643043000065], [12.173330873000054, 50.31222683100003], [12.100900625000065, 50.31802807500003], [12.160679129000073, 50.21984910300006], [12.260798923000038, 50.05815665500006], [12.550988701000051, 49.90508807900005], [12.401524209000058, 49.758373121000034], [12.593778745000066, 49.542191357000036], [12.637107380000032, 49.520279912000035], [12.63376343300007, 49.47619511100004], [12.792186180000044, 49.358154840000054], [12.984293566000076, 49.322934513000064], [13.170907943000032, 49.17357963100005], [13.41665153300005, 48.980035368000074], [13.551578318000054, 48.96778749400005], [13.839507129000026, 48.77160502800007], [13.796106769000062, 48.71360049300006], [13.809691039000029, 48.61491346200006], [13.727090617000044, 48.51301965600004], [13.513497246000043, 48.59096179000005], [13.438430625000024, 48.548895025000036], [13.414325218000045, 48.38014409600004], [13.177043068000046, 48.29438993100007], [12.944684477000067, 48.20669234400003], [12.751554922000025, 48.112810409000076], [12.860181681000029, 47.996639851000054], [12.875785694000058, 47.96260914100003], [12.984537639000052, 47.85674540900004], [12.928674957000055, 47.73569148400003], [13.079003518000036, 47.66716295800006], [13.046055369000044, 47.52050256700005], [12.912872511000046, 47.49865145900003], [12.695795413000042, 47.682222995000075], [12.575026261000062, 47.632315980000044], [12.338045351000062, 47.69708757500007], [12.06066222100003, 47.61874355300006], [11.632883142000026, 47.59244601900008], [11.560552463000022, 47.52160337300006], [11.410219187000052, 47.49532392400005], [11.421427625000035, 47.44485203700003], [11.016500436000058, 47.396367988000065], [10.991202288000068, 47.396130991000064], [10.886146826000072, 47.53678234600005], [10.810076885000058, 47.52045065500005], [10.454438851000077, 47.55579702400007], [10.429380963000028, 47.39241719700004], [10.178352767000035, 47.270114025000055], [10.200433607000036, 47.35576015400005], [9.999526182000068, 47.483017139000026], [9.967813723000063, 47.546240553000075], [9.558720702000073, 47.541892877000066], [9.506947226000023, 47.54973636700004], [9.182192186000066, 47.65589045300004], [8.874888089000024, 47.65466992900008], [8.850247057000047, 47.70439475000006], [8.821322310000028, 47.704217467000035], [8.795708327000057, 47.67559553800004], [8.67046119400004, 47.68486244500008], [8.66335415900005, 47.68589263500007], [8.715380050000022, 47.750154845000054], [8.613831660000073, 47.80107906500007], [8.51011489800004, 47.77619041600008], [8.435063146000061, 47.67615028700004], [8.606369523000069, 47.66900558100008], [8.426434680000057, 47.56754892500004], [8.228042002000052, 47.61190579700008], [8.015890763000073, 47.55535073400006], [7.894107272000042, 47.586375117000046], [7.713784363000059, 47.53940500600004], [7.634097171000064, 47.56111351000004], [7.589039168000056, 47.58987802200005], [7.545990414000073, 47.74357396400006], [7.604545128000041, 47.968912852000074], [7.577290835000042, 48.11565507200004], [7.576981681000063, 48.119056390000026], [7.680712927000059, 48.25726715600007], [7.731775146000075, 48.38014409600004], [7.824622053000041, 48.61143485900004], [7.959630338000068, 48.718580950000046], [8.23263287800006, 48.96657139400003], [8.068310039000039, 48.99934588200006], [7.910654726000075, 49.045163381000066], [7.635650929000064, 49.05395039300004], [7.478726108000046, 49.15775012100005], [7.368755545000056, 49.16145809300008], [7.249932039000043, 49.117937667000035], [7.101069047000067, 49.15599804000004], [6.930711505000033, 49.21620241000005], [6.779377652000051, 49.161800706000065]]], [[[6.784253560000025, 53.548802720000026], [6.688693860000058, 53.546187263000036], [6.619622502000027, 53.596539912000026], [6.729143235000038, 53.63249216500003], [6.784253560000025, 53.548802720000026]]], [[[8.456317204000072, 53.91417447100008], [8.357419460000074, 53.928272279000055], [8.445662748000075, 54.013781265000034], [8.510300638000047, 54.01381423200007], [8.456317204000072, 53.91417447100008]]], [[[8.708697685000061, 54.50732759300007], [8.668103875000043, 54.48395034100008], [8.61013701500002, 54.48269724900007], [8.561383860000035, 54.52050652100007], [8.686306804000026, 54.56344249800003], [8.724478299000054, 54.55426248200007], [8.708697685000061, 54.50732759300007]]], [[[8.383573656000067, 54.63079104600007], [8.327702292000026, 54.611170282000046], [8.253172326000026, 54.668258011000034], [8.349281935000022, 54.72873720600006], [8.383573656000067, 54.63079104600007]]], [[[8.54294439000006, 54.67111055700008], [8.44500836100002, 54.71181468300006], [8.54755054900005, 54.75858527400004], [8.629596445000061, 54.71341763400005], [8.54294439000006, 54.67111055700008]]], [[[8.376755550000041, 54.88040303200006], [8.315361092000046, 54.845488414000044], [8.271889551000072, 54.86302301500007], [8.30892994800007, 54.95007404100005], [8.355316065000068, 54.97703126300007], [8.376755550000041, 54.88040303200006]]], [[[11.152451704000043, 54.39136068200003], [10.99701931800007, 54.466554029000065], [11.157948092000026, 54.517904083000076], [11.27227369600007, 54.43365871600008], [11.152451704000043, 54.39136068200003]]]]}}