{"type":"FeatureCollection","features":[{"type":"Feature","properties":{"country":"DE","region":"Baden-Württemberg"},"geometry":{"type":"Polygon","coordinates":[[[9.79842,49.69492],[9.93553,49.5007],[10.08372,49.54356],[10.11833,49.47317],[10.11197,49.38491],[10.14074,49.21005],[10.25676,49.05949],[10.40985,48.97744],[10.42369,48.74424],[10.48726,48.69666],[10.27742,48.67987],[10.27823,48.51609],[10.23078,48.51051],[10.1339,48.45487],[10.0327,48.4572],[10.02525,48.42212],[9.98322,48.3822],[9.99761,48.35012],[10.09536,48.16401],[10.13646,48.10846],[10.11493,47.9763],[10.1053,47.97464],[10.13193,47.82009],[10.07729,47.63927],[9.8594,47.66794],[9.69215,47.61042],[9.55872,47.54189],[9.50695,47.54974],[9.18219,47.65589],[8.87489,47.65467],[8.85025,47.70439],[8.82132,47.70422],[8.79571,47.6756],[8.66335,47.68589],[8.71538,47.75015],[8.61383,47.80108],[8.51012,47.77619],[8.43506,47.67615],[8.60637,47.66901],[8.42643,47.56755],[8.22804,47.61191],[8.01589,47.55535],[7.89411,47.58637],[7.71378,47.53941],[7.6341,47.56111],[7.58904,47.58988],[7.54599,47.74357],[7.60454,47.96891],[7.57698,48.11906],[7.68071,48.25727],[7.82462,48.61144],[7.95963,48.71858],[8.23263,48.96657],[8.27735,48.98994],[8.33997,49.08015],[8.41307,49.24982],[8.46699,49.28298],[8.48727,49.29003],[8.47091,49.34071],[8.49732,49.41135],[8.47251,49.44351],[8.42307,49.54182],[8.42244,49.58338],[8.58137,49.51978],[8.66017,49.59173],[8.8294,49.4486],[8.93188,49.47064],[9.08278,49.52639],[9.10301,49.57746],[9.41098,49.6635],[9.3607,49.75644],[9.4715,49.77973],[9.64874,49.79148],[9.64479,49.72136],[9.79842,49.69492]]]}},{"type":"Feature","properties":{"country":"DE","region":"Bayern"},"geometry":{"type":"Polygon","coordinates":[[[10.58655,50.32344],[10.61016,50.22792],[10.72944,50.23026],[10.80543,50.26851],[10.75288,50.35529],[10.94559,50.38651],[11.1135,50.35193],[11.18994,50.27119],[11.2684,50.32816],[11.26594,50.47942],[11.38504,50.51134],[11.48157,50.43162],[11.60329,50.39877],[11.91932,50.42473],[12.1009,50.31803],[12.2608,50.05816],[12.55099,49.90509],[12.40152,49.75837],[12.59378,49.54219],[12.63711,49.52028],[12.63376,49.47619],[12.79219,49.35815],[12.98429,49.32294],[13.41665,48.98004],[13.55158,48.96779],[13.83951,48.77161],[13.79611,48.7136],[13.80969,48.61491],[13.72709,48.51302],[13.5135,48.59096],[13.43843,48.5489],[13.41432,48.38014],[12.94468,48.20669],[12.75155,48.11281],[12.86018,47.99664],[12.87579,47.96261],[12.98454,47.85674],[12.92868,47.73569],[13.079,47.66716],[13.04606,47.5205],[12.91287,47.49865],[12.6958,47.68222],[12.57503,47.63232],[12.33804,47.69709],[12.06066,47.61874],[11.63288,47.59245],[11.56055,47.5216],[11.41022,47.49532],[11.42143,47.44485],[11.0165,47.39637],[10.9912,47.39613],[10.88615,47.53678],[10.81008,47.52045],[10.45444,47.5558],[10.42938,47.39242],[10.17835,47.27011],[10.20043,47.35576],[9.99953,47.48302],[9.96781,47.54624],[9.55872,47.54189],[9.69215,47.61042],[9.8594,47.66794],[10.07729,47.63927],[10.13193,47.82009],[10.1053,47.97464],[10.11493,47.9763],[10.13646,48.10846],[10.09536,48.16401],[9.99761,48.35012],[9.98322,48.3822],[10.02525,48.42212],[10.0327,48.4572],[10.1339,48.45487],[10.23078,48.51051],[10.27823,48.51609],[10.27742,48.67987],[10.48726,48.69666],[10.42369,48.74424],[10.40985,48.97744],[10.25676,49.05949],[10.14074,49.21005],[10.11197,49.38491],[10.11833,49.47317],[10.08372,49.54356],[9.93553,49.5007],[9.79842,49.69492],[9.64479,49.72136],[9.64874,49.79148],[9.4715,49.77973],[9.3607,49.75644],[9.41098,49.6635],[9.10301,49.57746],[9.12717,49.74213],[9.03608,49.8465],[9.05008,49.86632],[9.01609,49.99134],[8.99056,50.06712],[9.25405,50.14191],[9.40498,50.08773],[9.50084,50.11374],[9.53904,50.22197],[9.62315,50.22904],[9.77971,50.41133],[9.93566,50.41961],[10.04134,50.51647],[10.20104,50.54966],[10.58655,50.32344]]]}},{"type":"Feature","properties":{"country":"DE","region":"Berlin"},"geometry":{"type":"Polygon","coordinates":[[[13.66698,52.47417],[13.72988,52.43859],[13.69974,52.37788],[13.42098,52.37625],[13.31193,52.39919],[13.1659,52.39428],[13.11108,52.42679],[13.1537,52.50182],[13.16426,52.5989],[13.39854,52.64819],[13.61083,52.54424],[13.66698,52.47417]]]}},{"type":"Feature","properties":{"country":"DE","region":"Brandenburg"},"geometry":{"type":"Polygon","coordinates":[[[14.20457,53.42822],[14.17555,53.26628],[14.41216,53.32964],[14.34916,53.07294],[14.14366,52.96137],[14.15669,52.89559],[14.16483,52.83054],[14.43644,52.6799],[14.56506,52.6245],[14.63056,52.52182],[14.53436,52.39501],[14.60089,52.27205],[14.69554,52.22887],[14.75511,52.07008],[14.71672,52.00119],[14.61151,51.83039],[14.73745,51.66488],[14.72986,51.58178],[14.44777,51.54207],[14.16333,51.54104],[14.02851,51.42221],[13.83531,51.37679],[13.69125,51.37401],[13.39886,51.4406],[13.21015,51.40474],[13.18406,51.53393],[13.05102,51.64768],[13.15175,51.70976],[13.15091,51.85961],[12.76978,51.97928],[12.37612,52.04512],[12.27673,52.10402],[12.23723,52.17257],[12.31718,52.4541],[12.28332,52.50473],[12.17129,52.50618],[12.2492,52.79186],[12.12681,52.8902],[11.91465,52.89543],[11.59778,53.03593],[11.26573,53.12198],[11.50882,53.13481],[11.60281,53.22589],[11.78574,53.23324],[12.09895,53.35302],[12.3251,53.3213],[12.98468,53.16499],[13.2414,53.2324],[13.41367,53.27002],[13.71007,53.47906],[14.20457,53.42822]],[[13.11108,52.42679],[13.1659,52.39428],[13.31193,52.39919],[13.42098,52.37625],[13.69974,52.37788],[13.72988,52.43859],[13.66698,52.47417],[13.61083,52.54424],[13.39854,52.64819],[13.16426,52.5989],[13.1537,52.50182],[13.11108,52.42679]]]}},{"type":"Feature","properties":{"country":"DE","region":"Bremen"},"geometry":{"type":"MultiPolygon","coordinates":[[[[8.98419,53.12607],[8.91583,53.01102],[8.71142,53.04463],[8.6549,53.10886],[8.48533,53.22712],[8.98419,53.12607]]],[[[8.60943,53.48963],[8.49265,53.47242],[8.55268,53.51617],[8.56436,53.54979],[8.52329,53.59157],[8.52041,53.60621],[8.60842,53.58623],[8.64585,53.51926],[8.60943,53.48963]]]]}},{"type":"Feature","properties":{"country":"DE","region":"Hamburg"},"geometry":{"type":"MultiPolygon","coordinates":[[[[10.30795,53.4332],[9.92151,53.4235],[9.76886,53.50528],[9.76538,53.54652],[9.73437,53.56522],[9.94538,53.65293],[10.07281,53.70963],[10.19315,53.64439],[10.16474,53.54803],[10.23668,53.49635],[10.30795,53.4332]]],[[[8.5103,54.01381],[8.45632,53.91417],[8.35742,53.92827],[8.44566,54.01378],[8.5103,54.01381]]]]}},{"type":"Feature","properties":{"country":"DE","region":"Hessen"},"geometry":{"type":"Polygon","coordinates":[[[9.64776,51.55251],[9.58729,51.36978],[9.73161,51.29559],[9.79882,51.38446],[9.92834,51.3753],[9.96819,51.30519],[10.20694,51.19065],[10.21001,51.14408],[10.17967,51.01311],[10.02156,50.99295],[10.03671,50.86708],[9.92618,50.76739],[9.90171,50.65455],[10.05632,50.66808],[10.04134,50.51647],[9.93566,50.41961],[9.77971,50.41133],[9.62315,50.22904],[9.53904,50.22197],[9.50084,50.11374],[9.40498,50.08773],[9.25405,50.14191],[8.99056,50.06712],[9.01609,49.99134],[9.05008,49.86632],[9.03608,49.8465],[9.12717,49.74213],[9.10301,49.57746],[9.08278,49.52639],[8.93188,49.47064],[8.8294,49.4486],[8.66017,49.59173],[8.58137,49.51978],[8.42244,49.58338],[8.41477,49.59505],[8.37951,49.68444],[8.44837,49.73366],[8.40006,49.80367],[8.34303,49.94051],[8.28824,49.99513],[8.19004,50.0353],[8.17513,50.03426],[7.91999,49.97738],[7.774,50.06654],[8.12191,50.27723],[7.97156,50.40622],[8.01289,50.52782],[8.15159,50.59937],[8.12578,50.68581],[8.17312,50.81644],[8.3555,50.862],[8.47789,50.96905],[8.54908,51.10187],[8.66346,51.10866],[8.73998,51.18349],[8.71373,51.25613],[8.59251,51.29903],[8.70927,51.37184],[8.9155,51.39579],[8.91759,51.48144],[8.97081,51.50666],[9.15541,51.44268],[9.44046,51.65039],[9.60887,51.62479],[9.64776,51.55251]]]}},{"type":"Feature","properties":{"country":"DE","region":"Mecklenburg-Vorpommern"},"geometry":{"type":"Polygon","coordinates":[[[13.29834,54.59962],[13.46002,54.51565],[13.51004,54.56959],[13.63871,54.56745],[13.55681,54.44912],[13.5973,54.35125],[13.3194,54.19351],[13.47479,54.11216],[13.73696,54.13753],[13.82125,54.15027],[13.97529,53.98434],[14.09614,53.9978],[14.2263,53.92865],[14.21308,53.86648],[14.0541,53.83149],[14.03044,53.79862],[14.09433,53.75504],[14.26603,53.7456],[14.26887,53.69792],[14.41216,53.32964],[14.17555,53.26628],[14.20457,53.42822],[13.71007,53.47906],[13.41367,53.27002],[13.2414,53.2324],[12.98468,53.16499],[12.3251,53.3213],[12.09895,53.35302],[11.78574,53.23324],[11.60281,53.22589],[11.50882,53.13481],[11.26573,53.12198],[11.17186,53.15664],[10.97063,53.33112],[10.81008,53.31369],[10.59505,53.36393],[10.6422,53.44217],[10.81008,53.51557],[10.83855,53.55713],[10.90765,53.57746],[10.95192,53.64762],[10.76296,53.81115],[10.90366,53.95682],[11.13835,54.0024],[11.36621,53.96481],[11.45273,53.89814],[11.56178,54.02809],[11.66892,54.14131],[11.99848,54.17497],[12.11403,54.17523],[12.20771,54.24403],[12.28553,54.27495],[12.57214,54.43644],[12.79783,54.37802],[12.99383,54.39818],[13.13221,54.29915],[13.29834,54.59962]]]}},{"type":"Feature","properties":{"country":"DE","region":"Niedersachsen"},"geometry":{"type":"MultiPolygon","coordinates":[[[[8.65158,53.88332],[9.02992,53.82556],[9.25945,53.85487],[9.39754,53.7456],[9.57336,53.59976],[9.76538,53.54652],[9.76886,53.50528],[9.92151,53.4235],[10.30795,53.4332],[10.46924,53.38582],[10.59505,53.36393],[10.81008,53.31369],[10.97063,53.33112],[11.17186,53.15664],[11.26573,53.12198],[11.59778,53.03593],[11.50503,52.94103],[10.81008,52.84914],[10.75932,52.79583],[11.00878,52.49675],[10.93454,52.4718],[11.04656,52.37427],[11.02655,52.14649],[10.96439,52.05668],[10.81008,52.04799],[10.56123,52.00407],[10.62847,51.90032],[10.58832,51.79926],[10.70137,51.64219],[10.67728,51.63838],[10.48855,51.57478],[9.92834,51.3753],[9.79882,51.38446],[9.73161,51.29559],[9.58729,51.36978],[9.64776,51.55251],[9.60887,51.62479],[9.44046,51.65039],[9.41732,51.64727],[9.42767,51.82524],[9.32334,51.85506],[9.30886,51.92296],[9.1556,52.09783],[8.98583,52.1946],[8.99523,52.30254],[9.12525,52.41199],[9.07039,52.48822],[8.92342,52.40774],[8.73874,52.40102],[8.70297,52.50031],[8.29721,52.4565],[8.46619,52.26761],[8.41059,52.11512],[8.09645,52.05714],[7.88516,52.0834],[7.98866,52.12431],[7.92347,52.21365],[7.95646,52.27249],[7.96463,52.32486],[7.60898,52.47399],[7.54063,52.36841],[7.31748,52.28027],[7.09915,52.24306],[7.06569,52.24137],[6.99737,52.44453],[6.69778,52.4863],[6.70974,52.62778],[7.00623,52.63876],[7.09269,52.8382],[7.19415,52.97428],[7.20894,53.24306],[7.30208,53.32364],[7.03935,53.33786],[6.99945,53.35989],[7.05149,53.49923],[7.21096,53.64682],[7.55017,53.67504],[7.8099,53.70766],[8.01433,53.69942],[8.14396,53.59249],[8.16139,53.53429],[8.13321,53.51012],[8.06234,53.50567],[8.19556,53.40917],[8.29982,53.46574],[8.24492,53.54546],[8.29038,53.5997],[8.55268,53.51617],[8.49265,53.47242],[8.60943,53.48963],[8.64585,53.51926],[8.60842,53.58623],[8.52041,53.60621],[8.51773,53.7456],[8.65158,53.88332]],[[8.71142,53.04463],[8.91583,53.01102],[8.98419,53.12607],[8.48533,53.22712],[8.6549,53.10886],[8.71142,53.04463]]],[[[6.78425,53.5488],[6.68869,53.54619],[6.61962,53.59654],[6.72914,53.63249],[6.78425,53.5488]]]]}},{"type":"Feature","properties":{"country":"DE","region":"Nordrhein-Westfalen"},"geometry":{"type":"Polygon","coordinates":[[[8.70297,52.50031],[8.73874,52.40102],[8.92342,52.40774],[9.07039,52.48822],[9.12525,52.41199],[8.99523,52.30254],[8.98583,52.1946],[9.1556,52.09783],[9.30886,51.92296],[9.32334,51.85506],[9.42767,51.82524],[9.41732,51.64727],[9.44046,51.65039],[9.15541,51.44268],[8.97081,51.50666],[8.91759,51.48144],[8.9155,51.39579],[8.70927,51.37184],[8.59251,51.29903],[8.71373,51.25613],[8.73998,51.18349],[8.66346,51.10866],[8.54908,51.10187],[8.47789,50.96905],[8.3555,50.862],[8.17312,50.81644],[8.12578,50.68581],[8.03969,50.69738],[7.8515,50.92583],[7.7859,50.93991],[7.661,50.82036],[7.43915,50.71109],[7.2124,50.6234],[6.9279,50.55862],[6.8931,50.48694],[6.77096,50.45495],[6.80071,50.36178],[6.4253,50.32301],[6.40503,50.32331],[6.31556,50.49704],[6.1922,50.52105],[6.18931,50.56609],[6.19405,50.63764],[6.021,50.75429],[6.08695,50.91313],[5.87706,51.03206],[6.17481,51.18451],[6.07266,51.24259],[6.2244,51.36498],[6.19223,51.52239],[5.95319,51.74785],[5.9909,51.82431],[6.16777,51.9008],[6.40778,51.82809],[6.77757,51.93684],[6.76046,52.11857],[7.06569,52.24137],[7.09915,52.24306],[7.31748,52.28027],[7.54063,52.36841],[7.60898,52.47399],[7.96463,52.32486],[7.95646,52.27249],[7.92347,52.21365],[7.98866,52.12431],[7.88516,52.0834],[8.09645,52.05714],[8.41059,52.11512],[8.46619,52.26761],[8.29721,52.4565],[8.70297,52.50031]]]}},{"type":"Feature","properties":{"country":"DE","region":"Rheinland-Pfalz"},"geometry":{"type":"Polygon","coordinates":[[[7.97156,50.40622],[8.12191,50.27723],[7.774,50.06654],[7.91999,49.97738],[8.17513,50.03426],[8.19004,50.0353],[8.28824,49.99513],[8.34303,49.94051],[8.40006,49.80367],[8.44837,49.73366],[8.37951,49.68444],[8.41477,49.59505],[8.42244,49.58338],[8.42307,49.54182],[8.47251,49.44351],[8.49732,49.41135],[8.47091,49.34071],[8.48727,49.29003],[8.46699,49.28298],[8.41307,49.24982],[8.33997,49.08015],[8.27735,48.98994],[8.23263,48.96657],[8.06831,48.99935],[7.91066,49.04516],[7.63565,49.05395],[7.47873,49.15775],[7.36876,49.16146],[7.32034,49.1895],[7.31032,49.24552],[7.39449,49.31635],[7.40208,49.36772],[7.3959,49.37205],[7.2926,49.40822],[7.25259,49.43147],[7.27662,49.54862],[7.02798,49.63944],[6.89145,49.61342],[6.5856,49.52593],[6.38005,49.5511],[6.49979,49.72821],[6.47496,49.82127],[6.29828,49.85882],[6.13622,50.01515],[6.13766,50.12995],[6.1954,50.22966],[6.40503,50.32331],[6.4253,50.32301],[6.80071,50.36178],[6.77096,50.45495],[6.8931,50.48694],[6.9279,50.55862],[7.2124,50.6234],[7.43915,50.71109],[7.661,50.82036],[7.7859,50.93991],[7.8515,50.92583],[8.03969,50.69738],[8.12578,50.68581],[8.15159,50.59937],[8.01289,50.52782],[7.97156,50.40622]]]}},{"type":"Feature","properties":{"country":"DE","region":"Saarland"},"geometry":{"type":"Polygon","coordinates":[[[7.27662,49.54862],[7.25259,49.43147],[7.2926,49.40822],[7.3959,49.37205],[7.40208,49.36772],[7.39449,49.31635],[7.31032,49.24552],[7.32034,49.1895],[7.36876,49.16146],[7.24993,49.11794],[7.10107,49.156],[6.93071,49.2162],[6.77938,49.1618],[6.72347,49.21883],[6.55699,49.41921],[6.36711,49.46951],[6.38005,49.5511],[6.5856,49.52593],[6.89145,49.61342],[7.02798,49.63944],[7.27662,49.54862]]]}},{"type":"Feature","properties":{"country":"DE","region":"Sachsen"},"geometry":{"type":"Polygon","coordinates":[[[13.18406,51.53393],[13.21015,51.40474],[13.39886,51.4406],[13.69125,51.37401],[13.83531,51.37679],[14.02851,51.42221],[14.16333,51.54104],[14.44777,51.54207],[14.72986,51.58178],[14.93165,51.4665],[14.97418,51.36395],[15.02257,51.27586],[14.9973,51.13758],[14.82336,50.87055],[14.75577,50.8261],[14.6188,50.8578],[14.58349,50.98051],[14.49122,51.04353],[14.31787,51.0547],[14.28213,51.00081],[14.36259,50.90419],[13.82968,50.73274],[13.65217,50.73036],[13.50185,50.63364],[13.04971,50.49839],[12.94815,50.40431],[12.80588,50.45016],[12.58378,50.40708],[12.41061,50.31818],[12.31677,50.18164],[12.17333,50.31223],[12.1009,50.31803],[11.91932,50.42473],[11.89688,50.54004],[11.94414,50.59128],[12.0655,50.56868],[12.31892,50.67653],[12.25089,50.73029],[12.2505,50.81854],[12.65287,50.92368],[12.61735,50.98079],[12.43661,51.08039],[12.28355,51.09192],[12.1709,51.27551],[12.19354,51.33252],[12.19894,51.53132],[12.58026,51.62607],[13.05102,51.64768],[13.18406,51.53393]]]}},{"type":"Feature","properties":{"country":"DE","region":"Sachsen-Anhalt"},"geometry":{"type":"Polygon","coordinates":[[[12.28355,51.09192],[12.22417,50.94293],[12.16353,50.9586],[12.02102,50.96912],[11.69694,51.08749],[11.48461,51.10544],[11.38537,51.24589],[11.47302,51.29647],[11.39311,51.3595],[10.97811,51.42688],[10.91606,51.61637],[10.81008,51.63959],[10.70137,51.64219],[10.58832,51.79926],[10.62847,51.90032],[10.56123,52.00407],[10.81008,52.04799],[10.96439,52.05668],[11.02655,52.14649],[11.04656,52.37427],[10.93454,52.4718],[11.00878,52.49675],[10.75932,52.79583],[10.81008,52.84914],[11.50503,52.94103],[11.59778,53.03593],[11.91465,52.89543],[12.12681,52.8902],[12.2492,52.79186],[12.17129,52.50618],[12.28332,52.50473],[12.31718,52.4541],[12.23723,52.17257],[12.27673,52.10402],[12.37612,52.04512],[12.76978,51.97928],[13.15091,51.85961],[13.15175,51.70976],[13.05102,51.64768],[12.58026,51.62607],[12.19894,51.53132],[12.19354,51.33252],[12.1709,51.27551],[12.28355,51.09192]]]}},{"type":"Feature","properties":{"country":"DE","region":"Schleswig-Holstein"},"geometry":{"type":"MultiPolygon","coordinates":[[[[9.1131,54.8736],[9.29561,54.80835],[9.42015,54.83196],[9.42293,54.82322],[9.49195,54.82264],[9.94625,54.76845],[10.03117,54.63658],[9.97635,54.47931],[10.16852,54.43285],[10.17416,54.34575],[10.34132,54.42807],[10.72815,54.30767],[10.9538,54.37348],[11.0733,54.31148],[11.06214,54.19012],[10.77836,54.06367],[10.84089,53.99189],[10.90366,53.95682],[10.76296,53.81115],[10.95192,53.64762],[10.90765,53.57746],[10.83855,53.55713],[10.81008,53.51557],[10.6422,53.44217],[10.59505,53.36393],[10.46924,53.38582],[10.30795,53.4332],[10.23668,53.49635],[10.16474,53.54803],[10.19315,53.64439],[10.07281,53.70963],[9.94538,53.65293],[9.73437,53.56522],[9.57959,53.61912],[9.51764,53.71386],[9.19843,53.88943],[8.98714,53.89616],[8.88913,53.9558],[8.85125,54.01742],[8.93695,54.07574],[8.83017,54.16118],[8.84481,54.26553],[8.69079,54.33203],[8.8602,54.44149],[8.86006,54.58011],[8.65059,54.82358],[8.636,54.91157],[9.1131,54.8736]]],[[[11.27227,54.43366],[11.15245,54.39136],[10.99702,54.46655],[11.15795,54.5179],[11.27227,54.43366]]],[[[8.6681,54.48395],[8.61014,54.4827],[8.56138,54.52051],[8.68631,54.56344],[8.72448,54.55426],[8.7087,54.50733],[8.6681,54.48395]]],[[[8.38357,54.63079],[8.3277,54.61117],[8.25317,54.66826],[8.34928,54.72874],[8.38357,54.63079]]],[[[8.6296,54.71342],[8.54294,54.67111],[8.44501,54.71182],[8.54755,54.75858],[8.6296,54.71342]]],[[[8.37676,54.8804],[8.31536,54.84549],[8.27189,54.86302],[8.30893,54.95007],[8.35532,54.97703],[8.37676,54.8804]]]]}},{"type":"Feature","properties":{"country":"DE","region":"Thüringen"},"geometry":{"type":"Polygon","coordinates":[[[12.16353,50.9586],[12.22417,50.94293],[12.28355,51.09192],[12.43661,51.08039],[12.61735,50.98079],[12.65287,50.92368],[12.2505,50.81854],[12.25089,50.73029],[12.31892,50.67653],[12.0655,50.56868],[11.94414,50.59128],[11.89688,50.54004],[11.91932,50.42473],[11.60329,50.39877],[11.48157,50.43162],[11.38504,50.51134],[11.26594,50.47942],[11.2684,50.32816],[11.18994,50.27119],[11.1135,50.35193],[10.94559,50.38651],[10.75288,50.35529],[10.80543,50.26851],[10.72944,50.23026],[10.61016,50.22792],[10.58655,50.32344],[10.20104,50.54966],[10.04134,50.51647],[10.05632,50.66808],[9.90171,50.65455],[9.92618,50.76739],[10.03671,50.86708],[10.02156,50.99295],[10.17967,51.01311],[10.21001,51.14408],[10.20694,51.19065],[9.96819,51.30519],[9.92834,51.3753],[10.48855,51.57478],[10.67728,51.63838],[10.70137,51.64219],[10.81008,51.63959],[10.91606,51.61637],[10.97811,51.42688],[11.39311,51.3595],[11.47302,51.29647],[11.38537,51.24589],[11.48461,51.10544],[11.69694,51.08749],[12.02102,50.96912],[12.16353,50.9586]]]}}]}