{"type":"Feature","properties":{},"geometry":{"type":"Polygon","coordinates":[[[-17.09403,20.92501],[-17.08443,20.9586],[-17.07058,20.98025],[-17.06336,21.0013],[-17.0648,21.07939],[-17.04381,21.16281],[-17.04958,21.17143],[-17.05046,21.18471],[-17.0434,21.23381],[-17.03526,21.25924],[-17.03569,21.27399],[-17.02763,21.29149],[-17.03243,21.3209],[-17.03055,21.33866],[-17.01295,21.39895],[-17.01031,21.44452],[-16.99272,21.49912],[-16.99252,21.52626],[-16.98199,21.56033],[-16.97987,21.58638],[-16.98488,21.59137],[-16.98584,21.60414],[-16.97373,21.65225],[-16.97915,21.67241],[-16.98187,21.71769],[-16.95035,21.75957],[-16.95304,21.77049],[-16.96483,21.77243],[-16.96714,21.79628],[-16.96049,21.80647],[-16.95255,21.8378],[-16.92143,21.86654],[-16.90211,21.89507],[-16.89393,21.92079],[-16.89401,21.92735],[-16.89937,21.93028],[-16.89641,21.94303],[-16.88186,21.96507],[-16.86913,22.00868],[-16.84901,22.04627],[-16.81206,22.15144],[-16.80576,22.163],[-16.78911,22.16806],[-16.77052,22.18155],[-16.76926,22.19268],[-16.77424,22.1968],[-16.77341,22.19279],[-16.77808,22.19176],[-16.7758,22.19998],[-16.78191,22.20242],[-16.77225,22.20745],[-16.76335,22.22376],[-16.7198,22.25207],[-16.69925,22.28103],[-16.68161,22.29488],[-16.65342,22.29366],[-16.63666,22.26829],[-16.61575,22.26914],[-16.54351,22.29278],[-16.49421,22.32581],[-16.49479,22.3484],[-16.47678,22.36281],[-16.45964,22.39275],[-16.46158,22.41059],[-16.45698,22.41431],[-16.45238,22.43213],[-16.45143,22.45977],[-16.43989,22.48289],[-16.43802,22.504],[-16.42766,22.52242],[-16.38086,22.5525],[-16.35975,22.57823],[-16.3573,22.61446],[-16.34298,22.65355],[-16.34574,22.66466],[-16.33995,22.69081],[-16.34425,22.72077],[-16.33434,22.75763],[-16.32796,22.76582],[-16.32911,22.77589],[-16.32302,22.77925],[-16.28918,22.83083],[-16.28914,22.84774],[-16.30293,22.85313],[-16.30315,22.8598],[-16.29117,22.88377],[-16.28847,22.9046],[-16.28392,22.90554],[-16.28054,22.89629],[-16.26846,22.89664],[-16.20902,22.92103],[-16.16463,22.96418],[-16.1461,22.99885],[-16.14138,23.03103],[-16.14919,23.06169],[-16.17136,23.08882],[-16.18773,23.09211],[-16.20802,23.07866],[-16.19805,23.10652],[-16.18908,23.12257],[-16.16279,23.14264],[-16.12398,23.19103],[-16.11398,23.20981],[-16.11769,23.22534],[-16.11458,23.23264],[-16.06083,23.30678],[-16.05921,23.31663],[-16.06578,23.32841],[-16.00577,23.37955],[-15.9788,23.41811],[-15.95133,23.47643],[-15.95732,23.48633],[-15.96558,23.49058],[-15.96651,23.50187],[-15.97545,23.50352],[-15.97521,23.50928],[-15.95751,23.52219],[-15.94251,23.52686],[-15.92166,23.55821],[-15.90676,23.56353],[-15.90036,23.58127],[-15.8765,23.6176],[-15.87682,23.62851],[-15.85779,23.63357],[-15.83338,23.67393],[-15.80238,23.70974],[-15.79219,23.73302],[-15.80149,23.72355],[-15.80012,23.72815],[-15.78811,23.73797],[-15.77919,23.75309],[-15.76212,23.76245],[-15.7462,23.77796],[-15.73489,23.8075],[-15.71091,23.8205],[-15.70764,23.83042],[-15.70907,23.83532],[-15.7167,23.83235],[-15.72117,23.83504],[-15.73267,23.82653],[-15.73901,23.82743],[-15.74252,23.8141],[-15.74515,23.8204],[-15.74958,23.81771],[-15.74236,23.83005],[-15.73467,23.86173],[-15.74959,23.89557],[-15.76162,23.8981],[-15.76811,23.88858],[-15.76291,23.90412],[-15.7712,23.89015],[-15.77263,23.89814],[-15.76375,23.91349],[-15.76394,23.9211],[-15.76899,23.92067],[-15.78542,23.90064],[-15.79382,23.8985],[-15.80109,23.88028],[-15.80834,23.87845],[-15.81996,23.88355],[-15.84666,23.85987],[-15.86397,23.83132],[-15.8652,23.83441],[-15.87347,23.82875],[-15.88476,23.80526],[-15.89486,23.79588],[-15.90068,23.7709],[-15.90634,23.76779],[-15.90903,23.73884],[-15.91356,23.73511],[-15.92379,23.70074],[-15.93004,23.69813],[-15.93903,23.68292],[-15.96775,23.66249],[-15.98341,23.63655],[-15.9883,23.63499],[-15.98418,23.62695],[-16.00053,23.63239],[-16.00665,23.64177],[-16.00518,23.64901],[-15.98385,23.67976],[-15.96064,23.69996],[-15.95626,23.72572],[-15.93401,23.74249],[-15.92391,23.75731],[-15.92281,23.77777],[-15.90345,23.81917],[-15.84325,23.88537],[-15.80683,23.91253],[-15.80481,23.92206],[-15.7892,23.92884],[-15.74717,23.95914],[-15.68892,23.98588],[-15.68513,23.9899],[-15.68953,23.99547],[-15.69781,23.9933],[-15.69147,23.99977],[-15.68331,23.99004],[-15.6763,23.99168],[-15.59148,24.04525],[-15.57797,24.06354],[-15.57682,24.07012],[-15.5832,24.07789],[-15.57256,24.09465],[-15.55276,24.10408],[-15.53205,24.12131],[-15.52022,24.14402],[-15.50175,24.15593],[-15.41641,24.24054],[-15.36693,24.27246],[-15.32701,24.30678],[-15.27598,24.36761],[-15.25141,24.40589],[-15.22023,24.44009],[-15.18789,24.46376],[-15.16629,24.48772],[-15.14555,24.50011],[-15.05051,24.534],[-15.01296,24.55361],[-15.00199,24.56974],[-15.00189,24.58367],[-14.99151,24.59889],[-14.98553,24.63089],[-14.94013,24.65391],[-14.88331,24.70159],[-14.88398,24.73422],[-14.8876,24.74135],[-14.88204,24.77016],[-14.87117,24.80873],[-14.8521,24.84402],[-14.82902,24.90904],[-14.83312,24.94328],[-14.82448,24.9756],[-14.81871,25.05016],[-14.82721,25.07323],[-14.84078,25.08315],[-14.83665,25.10255],[-14.84558,25.1265],[-14.83908,25.1385],[-14.83684,25.161],[-14.84502,25.20683],[-14.82508,25.2559],[-14.82761,25.29595],[-14.81166,25.32263],[-14.81351,25.33768],[-14.80122,25.35377],[-14.79255,25.37455],[-14.79391,25.39542],[-14.78688,25.41912],[-14.76352,25.45441],[-14.71908,25.50442],[-14.69707,25.54531],[-14.68548,25.57997],[-14.68614,25.61744],[-14.66468,25.66544],[-14.66148,25.69053],[-14.64187,25.74359],[-14.63669,25.76975],[-14.61661,25.78367],[-14.5667,25.8493],[-14.56224,25.8646],[-14.5345,25.90894],[-14.52657,25.9354],[-14.51638,25.94855],[-14.50974,25.96995],[-14.49893,25.98711],[-14.48746,26.03713],[-14.4895,26.06684],[-14.48522,26.09318],[-14.50032,26.12782],[-14.47541,26.17876],[-14.45794,26.20223],[-14.40359,26.26224],[-14.3482,26.27116],[-14.31701,26.2823],[-14.29343,26.30427],[-14.25209,26.33135],[-14.20973,26.37767],[-14.18031,26.42637],[-14.14168,26.42552],[-14.07172,26.43674],[-14.03489,26.44702],[-13.97581,26.47181],[-13.91504,26.51819],[-13.72006,26.61818],[-13.66717,26.65224],[-13.61602,26.69014],[-13.56889,26.73745],[-13.53084,26.80118],[-13.52672,26.81956],[-13.49883,26.87372],[-13.47374,26.95886],[-13.4383,27.03333],[-13.43802,27.03785],[-13.44622,27.03777],[-13.44644,27.04106],[-13.43728,27.03825],[-13.43087,27.0532],[-13.43069,27.05719],[-13.43834,27.05998],[-13.43096,27.05807],[-13.41796,27.0819],[-13.42098,27.09321],[-13.42453,27.09588],[-13.42602,27.08938],[-13.42654,27.08914],[-13.4282,27.08942],[-13.42607,27.09568],[-13.43046,27.0954],[-13.43319,27.0891],[-13.4329,27.09622],[-13.42497,27.09683],[-13.41773,27.11314],[-13.40775,27.16394],[-13.3653,27.23566],[-13.32623,27.28603],[-13.30416,27.32411],[-13.30081,27.34468],[-13.27949,27.37964],[-13.25846,27.44198],[-13.2307,27.50266],[-13.21806,27.55316],[-13.20582,27.57963],[-13.19681,27.62322],[-13.17182,27.6678],[-13.1644,27.69185],[-13.15952,27.69714],[-13.13034,27.70731],[-13.11157,27.72132],[-13.07059,27.73576],[-13.05073,27.75101],[-13.02763,27.79435],[-13.00846,27.808],[-12.99736,27.8505],[-12.98851,27.8614],[-12.98563,27.87419],[-12.98857,27.87782],[-12.98199,27.88293],[-12.97968,27.89337],[-12.97067,27.89778],[-12.95876,27.92108],[-12.93782,27.93005],[-12.93573,27.93906],[-12.9305,27.94261],[-12.93908,27.9388],[-12.94096,27.94139],[-12.93547,27.94534],[-12.93024,27.94361],[-12.91535,27.95389],[-12.86447,27.9559],[-12.82531,27.96553],[-12.55928,27.99654],[-12.5172,28.00792],[-12.22771,28.05474],[-12.08237,28.08675],[-12.05091,28.09666],[-12.04634,28.1037],[-12.02924,28.1132],[-11.9365,28.1563],[-11.88479,28.17541],[-11.87047,28.17648],[-11.87032,28.17994],[-11.7938,28.20976],[-11.77963,28.20996],[-11.76808,28.2191],[-11.74323,28.22823],[-11.61402,28.26654],[-11.50632,28.30942],[-11.49268,28.32276],[-11.45761,28.34327],[-11.44252,28.3769],[-11.41194,28.40061],[-11.38214,28.44622],[-11.36777,28.45281],[-11.35171,28.46884],[-11.35326,28.47488],[-11.34795,28.47824],[-11.35082,28.48045],[-11.35866,28.47375],[-11.35203,28.48092],[-11.35777,28.48363],[-11.35119,28.48223],[-11.32037,28.51756],[-11.25299,28.56838],[-11.21214,28.61528],[-11.16967,28.64159],[-11.13811,28.67342],[-11.1131,28.68765],[-11.07451,28.73256],[-11.07366,28.74208],[-11.041,28.7625],[-11.01027,28.77185],[-10.68924,28.92311],[-10.52432,29.0187],[-10.46846,29.06815],[-10.45746,29.08518],[-10.43976,29.09606],[-10.42377,29.12867],[-10.40479,29.14496],[-10.40212,29.15544],[-10.38189,29.17959],[-10.34319,29.21554],[-10.32879,29.23548],[-10.30463,29.25126],[-10.29569,29.26215],[-10.24745,29.28633],[-10.21483,29.31282],[-10.20421,29.33915],[-10.1921,29.35526],[-10.19581,29.3576],[-10.19175,29.35752],[-10.19366,29.36236],[-10.2008,29.3569],[-10.19716,29.36199],[-10.19984,29.36405],[-10.19199,29.36328],[-10.16921,29.39347],[-10.12114,29.43996],[-10.09934,29.48079],[-10.07806,29.50057],[-10.07038,29.51717],[-10.07246,29.53189],[-10.05643,29.55588],[-10.05893,29.56504],[-10.04907,29.57639],[-10.04794,29.58615],[-10.03345,29.59613],[-10.02477,29.61603],[-9.99281,29.65026],[-9.98523,29.66089],[-9.98234,29.67581],[-9.96028,29.69971],[-9.89503,29.7503],[-9.83873,29.80055],[-9.82634,29.82074],[-9.79171,29.86025],[-9.78699,29.87107],[-9.7911,29.87531],[-9.76157,29.91464],[-9.7615,29.9281],[-9.74479,29.94861],[-9.69645,30.05055],[-9.67071,30.08065],[-9.65483,30.12159],[-9.65466,30.13449],[-9.63873,30.18726],[-9.64268,30.20348],[-9.63315,30.22704],[-9.60448,30.3662],[-9.60748,30.37202],[-9.60015,30.39502],[-9.60492,30.41327],[-9.61668,30.42312],[-9.61727,30.41898],[-9.62929,30.41806],[-9.6213,30.42153],[-9.62089,30.42469],[-9.63236,30.42378],[-9.63117,30.41617],[-9.638,30.42086],[-9.63305,30.42334],[-9.63997,30.42182],[-9.63669,30.42449],[-9.64489,30.42974],[-9.64923,30.42735],[-9.64009,30.41598],[-9.64668,30.42102],[-9.65121,30.42678],[-9.64797,30.43147],[-9.65082,30.43962],[-9.66117,30.44606],[-9.66622,30.45789],[-9.67867,30.49931],[-9.6887,30.50668],[-9.69117,30.52226],[-9.70321,30.54165],[-9.71673,30.5465],[-9.72707,30.54514],[-9.73976,30.55128],[-9.74725,30.5738],[-9.78653,30.61078],[-9.82673,30.6272],[-9.86817,30.62334],[-9.88967,30.63019],[-9.88719,30.66027],[-9.87316,30.6999],[-9.84938,30.72187],[-9.85108,30.73327],[-9.82956,30.76198],[-9.82834,30.77702],[-9.81615,30.78891],[-9.80514,30.81744],[-9.80837,30.83675],[-9.81564,30.84064],[-9.82332,30.83741],[-9.82223,30.844],[-9.82703,30.84769],[-9.80754,30.89123],[-9.82007,30.91178],[-9.8168,30.9241],[-9.81899,30.94949],[-9.82637,30.96365],[-9.82195,30.98206],[-9.80777,31.00876],[-9.8169,31.02611],[-9.81717,31.05274],[-9.82501,31.0601],[-9.81832,31.07398],[-9.81763,31.08663],[-9.82298,31.09652],[-9.84188,31.10446],[-9.83453,31.12605],[-9.83889,31.14349],[-9.8316,31.15655],[-9.83237,31.16492],[-9.81697,31.1893],[-9.82383,31.21168],[-9.8168,31.22632],[-9.82078,31.23415],[-9.79724,31.28913],[-9.79972,31.2933],[-9.79484,31.32839],[-9.79842,31.33173],[-9.80278,31.36692],[-9.81167,31.37977],[-9.81787,31.38508],[-9.83257,31.38524],[-9.84289,31.39092],[-9.83403,31.41413],[-9.79916,31.44586],[-9.77924,31.47471],[-9.7754,31.489],[-9.76618,31.49609],[-9.76733,31.50737],[-9.77394,31.50977],[-9.7754,31.50589],[-9.77255,31.5154],[-9.76137,31.51996],[-9.73537,31.54381],[-9.68698,31.60459],[-9.67529,31.63552],[-9.67545,31.69863],[-9.64876,31.71917],[-9.60875,31.76204],[-9.58576,31.78934],[-9.58399,31.79851],[-9.52996,31.84609],[-9.52505,31.85779],[-9.49504,31.88302],[-9.46079,31.92181],[-9.34617,32.03127],[-9.34173,32.0514],[-9.32979,32.06598],[-9.32973,32.08479],[-9.31942,32.10326],[-9.32227,32.11291],[-9.27962,32.15406],[-9.2688,32.16902],[-9.27486,32.17398],[-9.26934,32.17039],[-9.26319,32.17395],[-9.2723,32.18026],[-9.28019,32.17481],[-9.27248,32.1808],[-9.26134,32.17515],[-9.25091,32.21861],[-9.26575,32.25122],[-9.25209,32.27297],[-9.24378,32.30034],[-9.24647,32.30194],[-9.24955,32.30466],[-9.25342,32.31138],[-9.25672,32.3132],[-9.25303,32.3115],[-9.24945,32.30518],[-9.24455,32.3021],[-9.25455,32.32004],[-9.28075,32.32983],[-9.28129,32.34535],[-9.29039,32.36246],[-9.28572,32.37598],[-9.24846,32.41731],[-9.23323,32.45833],[-9.23149,32.47517],[-9.24766,32.49539],[-9.26205,32.50375],[-9.26476,32.5124],[-9.27125,32.51639],[-9.27182,32.52848],[-9.28489,32.54186],[-9.12275,32.66131],[-9.07726,32.7021],[-9.04238,32.74051],[-9.04211,32.73388],[-9.03208,32.7386],[-9.02262,32.74731],[-9.02046,32.75314],[-9.01164,32.75383],[-9.00226,32.76424],[-8.99416,32.76778],[-8.9911,32.77211],[-8.98897,32.77211],[-8.98503,32.77362],[-8.98168,32.77602],[-8.99116,32.77271],[-8.99486,32.76847],[-8.99731,32.77087],[-9.00882,32.7632],[-9.01267,32.7556],[-9.02092,32.75409],[-9.03319,32.73986],[-9.0387,32.74324],[-8.89952,32.8431],[-8.8554,32.8887],[-8.79005,32.94397],[-8.75674,32.97985],[-8.75401,32.97967],[-8.75912,32.97329],[-8.75703,32.97082],[-8.74561,32.97712],[-8.74063,32.98732],[-8.73479,32.98823],[-8.72877,32.99638],[-8.73698,32.99694],[-8.74915,32.98625],[-8.74828,32.98004],[-8.7564,32.98053],[-8.74363,32.99814],[-8.74066,32.997],[-8.71013,33.0247],[-8.69913,33.04622],[-8.69297,33.04654],[-8.68056,33.06351],[-8.65963,33.08098],[-8.66004,33.08589],[-8.65334,33.08764],[-8.63249,33.11069],[-8.6288,33.12023],[-8.63755,33.12508],[-8.62771,33.1209],[-8.63276,33.12559],[-8.62606,33.12305],[-8.63067,33.12734],[-8.62525,33.12501],[-8.62289,33.12794],[-8.62732,33.1303],[-8.62064,33.1294],[-8.61932,33.13384],[-8.63256,33.13441],[-8.64499,33.12334],[-8.63189,33.13513],[-8.61275,33.13328],[-8.61764,33.13583],[-8.61354,33.14344],[-8.62941,33.16123],[-8.6245,33.17036],[-8.61805,33.17247],[-8.60899,33.18855],[-8.59968,33.19035],[-8.57504,33.21752],[-8.5641,33.21738],[-8.55797,33.22208],[-8.55549,33.23259],[-8.524,33.25647],[-8.52635,33.25918],[-8.51935,33.25586],[-8.50955,33.26452],[-8.49526,33.25691],[-8.50262,33.25574],[-8.4976,33.25646],[-8.49876,33.25223],[-8.48678,33.24541],[-8.44774,33.25169],[-8.39814,33.27695],[-8.33879,33.31907],[-8.31111,33.35913],[-8.29864,33.36726],[-8.21522,33.38571],[-8.1807,33.40462],[-8.135,33.41149],[-8.07967,33.43499],[-8.01309,33.4556],[-7.9578,33.48215],[-7.93613,33.48208],[-7.88097,33.5064],[-7.87028,33.5122],[-7.87055,33.51627],[-7.85323,33.51834],[-7.82311,33.53763],[-7.81661,33.52717],[-7.80082,33.52963],[-7.79429,33.53768],[-7.78557,33.53687],[-7.75723,33.5487],[-7.71535,33.57161],[-7.7043,33.58305],[-7.68032,33.59138],[-7.67913,33.59884],[-7.67156,33.59776],[-7.66073,33.60385],[-7.65211,33.61591],[-7.64948,33.6077],[-7.63991,33.60481],[-7.62618,33.61083],[-7.61692,33.60741],[-7.61162,33.61176],[-7.59157,33.62044],[-7.61286,33.61042],[-7.61851,33.60527],[-7.61625,33.60129],[-7.61416,33.60561],[-7.6103,33.60285],[-7.61141,33.60892],[-7.6073,33.60236],[-7.60585,33.60781],[-7.60014,33.60216],[-7.60545,33.61059],[-7.59563,33.60561],[-7.59769,33.6128],[-7.58839,33.60815],[-7.59077,33.61373],[-7.58826,33.60987],[-7.58198,33.61267],[-7.58742,33.60996],[-7.58068,33.60626],[-7.5615,33.61753],[-7.53549,33.62065],[-7.48569,33.64989],[-7.44408,33.67972],[-7.4391,33.68407],[-7.43962,33.68691],[-7.4371,33.68974],[-7.43875,33.68418],[-7.41514,33.7036],[-7.41226,33.70292],[-7.4035,33.70688],[-7.41218,33.70411],[-7.40318,33.71202],[-7.39939,33.72091],[-7.38753,33.73373],[-7.39598,33.72375],[-7.39085,33.72431],[-7.39683,33.72113],[-7.39178,33.71481],[-7.3972,33.71466],[-7.39939,33.71199],[-7.37804,33.70809],[-7.35647,33.71289],[-7.35102,33.71998],[-7.34322,33.71969],[-7.34534,33.72594],[-7.34181,33.73013],[-7.31658,33.74172],[-7.30319,33.75425],[-7.29827,33.75273],[-7.29951,33.75726],[-7.27786,33.77282],[-7.23136,33.79531],[-7.22754,33.8025],[-7.19043,33.80425],[-7.17488,33.81652],[-7.15058,33.82029],[-7.14783,33.82381],[-7.15113,33.82709],[-7.14718,33.82821],[-7.14699,33.81983],[-7.14491,33.81955],[-7.1426,33.8216],[-7.145,33.82223],[-7.1454,33.82518],[-7.14424,33.82659],[-7.14087,33.82345],[-7.12823,33.82834],[-7.06432,33.86972],[-7.02945,33.87736],[-7.02753,33.88273],[-7.00269,33.89551],[-7.00312,33.90137],[-6.99667,33.90113],[-6.98926,33.90916],[-6.98181,33.91068],[-6.97746,33.91843],[-6.96407,33.92281],[-6.93954,33.94152],[-6.85243,34.02592],[-6.83962,34.03307],[-6.84021,34.03781],[-6.83159,34.02836],[-6.82411,34.02679],[-6.83301,34.03092],[-6.83343,34.04121],[-6.83391,34.03904],[-6.83842,34.03976],[-6.83414,34.03935],[-6.83409,34.04221],[-6.83098,34.0467],[-6.81601,34.06335],[-6.80854,34.06537],[-6.80806,34.0714],[-6.8044,34.07032],[-6.78872,34.0854],[-6.72144,34.17128],[-6.67931,34.2575],[-6.68669,34.26305],[-6.66589,34.26164],[-6.64803,34.27035],[-6.6529,34.27499],[-6.66948,34.26571],[-6.67786,34.26504],[-6.68452,34.26697],[-6.67584,34.26523],[-6.52353,34.47244],[-6.39031,34.69781],[-6.29933,34.86965],[-6.30132,34.87233],[-6.22664,35.04233],[-6.21416,35.08745],[-6.19216,35.13291],[-6.16987,35.19319],[-6.15584,35.1967],[-6.15472,35.20153],[-6.1418,35.19885],[-6.14504,35.2038],[-6.15655,35.20353],[-6.15145,35.20368],[-6.14184,35.22454],[-6.08938,35.36366],[-6.08129,35.39591],[-6.06789,35.41193],[-6.04956,35.45628],[-6.03528,35.47477],[-6.03962,35.46866],[-6.03143,35.47144],[-6.03399,35.47362],[-6.02961,35.4753],[-6.01614,35.50634],[-6.00012,35.56458],[-5.9944,35.56941],[-5.99645,35.57732],[-5.96997,35.66808],[-5.9285,35.78944],[-5.9075,35.80116],[-5.86295,35.79589],[-5.84788,35.80108],[-5.83346,35.79408],[-5.79317,35.79129],[-5.80289,35.79104],[-5.80743,35.78448],[-5.79782,35.78837],[-5.79529,35.78519],[-5.79478,35.78349],[-5.79703,35.78655],[-5.80434,35.78124],[-5.79673,35.78426],[-5.79674,35.77886],[-5.78223,35.77683],[-5.76967,35.78168],[-5.75276,35.79765],[-5.7483,35.80524],[-5.75016,35.81784],[-5.72381,35.82407],[-5.71925,35.83073],[-5.70766,35.82958],[-5.68739,35.83887],[-5.65389,35.82721],[-5.62828,35.83542],[-5.60431,35.83011],[-5.58833,35.83343],[-5.57703,35.83926],[-5.57741,35.84264],[-5.57041,35.84652],[-5.57647,35.84246],[-5.5752,35.83943],[-5.56172,35.8485],[-5.55816,35.8445],[-5.55015,35.84733],[-5.54084,35.85469],[-5.54767,35.86062],[-5.54042,35.87367],[-5.5337,35.88141],[-5.54636,35.86126],[-5.54113,35.85637],[-5.54321,35.85926],[-5.52276,35.87913],[-5.5308,35.87728],[-5.52216,35.88422],[-5.52121,35.87638],[-5.51558,35.87835],[-5.5146,35.88217],[-5.51908,35.88206],[-5.50824,35.88393],[-5.50535,35.89275],[-5.50155,35.89609],[-5.49608,35.89978],[-5.49431,35.90038],[-5.50459,35.89073],[-5.50021,35.88749],[-5.48747,35.89829],[-5.49213,35.8973],[-5.48693,35.89915],[-5.48256,35.90855],[-5.47454,35.90612],[-5.46512,35.91439],[-5.45732,35.91461],[-5.45093,35.91215],[-5.44958,35.90588],[-5.44107,35.90415],[-5.43655,35.91],[-5.43156,35.90711],[-5.4161,35.90939],[-5.40124,35.92242],[-5.39692,35.91685],[-5.39964,35.91332],[-5.39478,35.90988],[-5.37985,35.91067],[-5.37136,35.88168],[-5.34339,35.87097],[-5.35364,35.8416],[-5.3478,35.77775],[-5.34395,35.75775],[-5.33948,35.75617],[-5.33799,35.75073],[-5.3398,35.75551],[-5.34288,35.75595],[-5.33483,35.72063],[-5.33758,35.71959],[-5.33476,35.71887],[-5.33381,35.72129],[-5.33013,35.70164],[-5.31907,35.68309],[-5.28859,35.68754],[-5.27336,35.6857],[-5.28413,35.66522],[-5.26534,35.60206],[-5.24449,35.55559],[-5.2348,35.54693],[-5.22577,35.55026],[-5.21292,35.53781],[-5.20054,35.54145],[-5.19316,35.53531],[-5.17318,35.53136],[-5.15278,35.50455],[-5.10626,35.47692],[-5.06054,35.40653],[-5.02971,35.39933],[-5.01641,35.40303],[-4.9924,35.37753],[-4.9725,35.36535],[-4.94463,35.33904],[-4.92696,35.31808],[-4.896,35.30444],[-4.87803,35.29984],[-4.86863,35.3021],[-4.82433,35.26241],[-4.79936,35.25285],[-4.78178,35.23757],[-4.76661,35.23438],[-4.74987,35.22438],[-4.73728,35.22487],[-4.67787,35.20447],[-4.66524,35.20828],[-4.66794,35.20857],[-4.66266,35.21278],[-4.65769,35.20998],[-4.64888,35.21411],[-4.63255,35.19632],[-4.61332,35.1894],[-4.60219,35.18776],[-4.5914,35.19195],[-4.52101,35.17542],[-4.49198,35.17615],[-4.428,35.15448],[-4.40483,35.15831],[-4.37696,35.15389],[-4.37362,35.14824],[-4.36816,35.15072],[-4.35499,35.14746],[-4.33658,35.15814],[-4.32447,35.15822],[-4.31507,35.16699],[-4.30028,35.1672],[-4.29024,35.17242],[-4.28741,35.18137],[-4.28267,35.17779],[-4.24954,35.18846],[-4.21887,35.18377],[-4.18954,35.19816],[-4.1631,35.20172],[-4.15357,35.19708],[-4.13621,35.19971],[-4.11261,35.20572],[-4.09007,35.22033],[-4.05163,35.22899],[-4.04406,35.23332],[-4.0454,35.23677],[-4.03337,35.23353],[-4.01619,35.2403],[-4.01677,35.23537],[-4.007,35.23204],[-3.9941,35.2369],[-3.97914,35.23658],[-3.93053,35.26189],[-3.91442,35.25427],[-3.92032,35.2505],[-3.91778,35.24646],[-3.92046,35.24977],[-3.92454,35.24921],[-3.91982,35.24635],[-3.92621,35.24294],[-3.91916,35.24049],[-3.92314,35.23277],[-3.91712,35.23157],[-3.91461,35.22094],[-3.90682,35.21392],[-3.85526,35.19809],[-3.81748,35.2003],[-3.79137,35.20842],[-3.77133,35.22224],[-3.7648,35.23252],[-3.75802,35.26452],[-3.74976,35.27426],[-3.7065,35.28824],[-3.67853,35.28567],[-3.66159,35.26647],[-3.59311,35.22861],[-3.5691,35.22003],[-3.53718,35.21797],[-3.48861,35.19951],[-3.4747,35.19836],[-3.45076,35.20624],[-3.44433,35.19776],[-3.42621,35.19253],[-3.33526,35.18533],[-3.29756,35.20666],[-3.25981,35.21255],[-3.21628,35.22755],[-3.20591,35.22313],[-3.18976,35.22853],[-3.16761,35.24479],[-3.17828,35.25476],[-3.17893,35.25595],[-3.17905,35.25765],[-3.17767,35.25997],[-3.16292,35.27046],[-3.17861,35.25599],[-3.16608,35.24553],[-3.16208,35.248],[-3.15654,35.24432],[-3.15441,35.24803],[-3.1663,35.2579],[-3.16371,35.2623],[-3.1577,35.25752],[-3.14929,35.26216],[-3.13457,35.28461],[-3.12464,35.28356],[-3.10967,35.27241],[-3.08323,35.28127],[-3.0594,35.30379],[-3.02724,35.35148],[-3.00924,35.38367],[-3.0109,35.39525],[-3.00562,35.3936],[-3.00301,35.39713],[-3.0103,35.40145],[-2.99523,35.41727],[-2.9945,35.43555],[-2.98898,35.43266],[-2.97677,35.44011],[-2.969,35.4355],[-2.96289,35.43976],[-2.94985,35.42681],[-2.96438,35.41247],[-2.96347,35.4075],[-2.9554,35.40401],[-2.96354,35.39111],[-2.95892,35.38477],[-2.96564,35.37947],[-2.97132,35.36381],[-2.95624,35.34657],[-2.96155,35.33157],[-2.95205,35.32015],[-2.96102,35.3145],[-2.97019,35.28873],[-2.96518,35.28851],[-2.96834,35.28197],[-2.95419,35.27275],[-2.95054,35.26563],[-2.92665,35.2737],[-2.92306,35.26796],[-2.91879,35.27113],[-2.92165,35.27677],[-2.91628,35.27407],[-2.92064,35.27868],[-2.91408,35.27683],[-2.91794,35.2844],[-2.9136,35.27698],[-2.92249,35.26408],[-2.86311,35.21064],[-2.85797,35.2115],[-2.86099,35.20594],[-2.87298,35.20794],[-2.8798,35.22162],[-2.89511,35.23422],[-2.90161,35.23451],[-2.89716,35.23736],[-2.89831,35.23823],[-2.90312,35.23507],[-2.90483,35.24394],[-2.91537,35.24719],[-2.92146,35.2578],[-2.92963,35.25061],[-2.93117,35.23897],[-2.92404,35.22499],[-2.9165,35.21753],[-2.90563,35.21818],[-2.89885,35.21229],[-2.90396,35.20625],[-2.91155,35.21064],[-2.91301,35.20385],[-2.92555,35.19784],[-2.92436,35.1846],[-2.90389,35.16092],[-2.90901,35.15378],[-2.90394,35.15338],[-2.88261,35.13239],[-2.81026,35.10227],[-2.75515,35.09825],[-2.74466,35.11244],[-2.75768,35.12408],[-2.7627,35.12459],[-2.75695,35.1207],[-2.76021,35.12075],[-2.77218,35.13477],[-2.78507,35.14367],[-2.7773,35.13718],[-2.78404,35.13954],[-2.78898,35.15196],[-2.81042,35.16286],[-2.8346,35.18696],[-2.84536,35.19365],[-2.84911,35.18956],[-2.84832,35.19361],[-2.8597,35.20217],[-2.86205,35.1992],[-2.8545,35.21083],[-2.85681,35.206],[-2.84146,35.19679],[-2.8435,35.19345],[-2.83981,35.19734],[-2.83997,35.19264],[-2.76415,35.13447],[-2.69,35.10136],[-2.62541,35.08657],[-2.59921,35.08751],[-2.56752,35.08175],[-2.52051,35.08932],[-2.48055,35.10493],[-2.42367,35.14838],[-2.42358,35.14774],[-2.42029,35.14762],[-2.41841,35.14651],[-2.4231,35.14712],[-2.41883,35.14232],[-2.37281,35.12818],[-2.33967,35.12438],[-2.30585,35.11432],[-2.29745,35.11796],[-2.29341,35.11724],[-2.2983,35.11701],[-2.29865,35.11351],[-2.29354,35.11223],[-2.29811,35.10927],[-2.29255,35.10927],[-2.29286,35.11335],[-2.29608,35.11466],[-2.29517,35.11623],[-2.29263,35.11344],[-2.29259,35.11051],[-2.26443,35.0986],[-2.21176,35.08526],[-2.21459,35.06921],[-2.21083,35.0585],[-2.21837,35.04799],[-2.203,35.03744],[-2.19494,35.03674],[-2.19075,35.03068],[-2.18399,35.03123],[-2.18787,35.02417],[-2.18287,35.0237],[-2.17908,35.01482],[-2.1721,35.01545],[-2.16571,35.0054],[-2.1598,35.00828],[-2.1598,35.00459],[-2.12745,34.99616],[-2.12201,34.99007],[-2.12204,34.98276],[-2.11044,34.97604],[-2.10438,34.96672],[-2.04587,34.92683],[-2.03501,34.92455],[-2.01205,34.93195],[-1.99223,34.93021],[-1.97339,34.93578],[-1.97272,34.87879],[-1.89336,34.84164],[-1.88873,34.80622],[-1.85922,34.80226],[-1.842,34.78804],[-1.81483,34.78266],[-1.80594,34.77303],[-1.73927,34.74367],[-1.77122,34.72461],[-1.77522,34.69896],[-1.81545,34.65992],[-1.83605,34.62908],[-1.85383,34.61623],[-1.83908,34.61698],[-1.81666,34.60442],[-1.81237,34.59458],[-1.79956,34.58538],[-1.78998,34.57116],[-1.79065,34.56134],[-1.76759,34.54377],[-1.76559,34.5317],[-1.75513,34.52883],[-1.75185,34.51754],[-1.68773,34.49313],[-1.78297,34.3917],[-1.77077,34.37273],[-1.73376,34.34488],[-1.70533,34.30687],[-1.71183,34.26157],[-1.70893,34.23713],[-1.69754,34.20438],[-1.64782,34.10544],[-1.69875,33.86969],[-1.68372,33.81936],[-1.67215,33.80575],[-1.67508,33.78645],[-1.67132,33.7731],[-1.67655,33.75903],[-1.69207,33.75089],[-1.71117,33.74758],[-1.72095,33.74057],[-1.73248,33.70111],[-1.70194,33.67563],[-1.65275,33.68061],[-1.64655,33.67585],[-1.63134,33.63142],[-1.62501,33.62506],[-1.59955,33.61543],[-1.59471,33.60549],[-1.59902,33.60192],[-1.59646,33.58621],[-1.60124,33.57586],[-1.59312,33.57251],[-1.59302,33.56486],[-1.60336,33.5564],[-1.58816,33.52906],[-1.60618,33.49822],[-1.62177,33.48771],[-1.61758,33.47339],[-1.62445,33.46123],[-1.62127,33.44818],[-1.62881,33.43831],[-1.62793,33.43179],[-1.64602,33.42301],[-1.64881,33.40837],[-1.66355,33.37812],[-1.65854,33.30144],[-1.67027,33.28408],[-1.65533,33.2559],[-1.64167,33.246],[-1.62893,33.22352],[-1.60673,33.21292],[-1.60022,33.20484],[-1.60029,33.19524],[-1.58035,33.16952],[-1.57334,33.1458],[-1.53916,33.11767],[-1.5346,33.10753],[-1.51463,33.09395],[-1.48782,33.0861],[-1.47132,33.06949],[-1.46176,33.04221],[-1.47673,33.0217],[-1.47229,33.00366],[-1.48593,32.97535],[-1.49645,32.9671],[-1.5106,32.96951],[-1.54378,32.95776],[-1.39899,32.76266],[-1.35641,32.7318],[-1.27149,32.6957],[-1.12314,32.59472],[-1.0449,32.54738],[-1.01009,32.53239],[-0.99944,32.51799],[-1.00066,32.50586],[-1.01577,32.50472],[-1.02053,32.49368],[-1.03959,32.48009],[-1.04875,32.46708],[-1.06297,32.45756],[-1.06301,32.45321],[-1.10385,32.4321],[-1.10822,32.42417],[-1.12056,32.41978],[-1.12418,32.41147],[-1.1618,32.41554],[-1.19569,32.40272],[-1.20638,32.39228],[-1.20139,32.38699],[-1.20946,32.36743],[-1.21886,32.35929],[-1.22079,32.35247],[-1.21746,32.34942],[-1.22174,32.34037],[-1.22621,32.34231],[-1.22986,32.33555],[-1.24633,32.32949],[-1.24401,32.32573],[-1.24872,32.32026],[-1.23508,32.30989],[-1.23483,32.28955],[-1.24258,32.26908],[-1.24076,32.26093],[-1.24816,32.25069],[-1.24112,32.20571],[-1.25676,32.19834],[-1.2614,32.19139],[-1.27262,32.18846],[-1.28454,32.17585],[-1.29913,32.17203],[-1.29857,32.16139],[-1.29367,32.15849],[-1.27253,32.16327],[-1.25697,32.16027],[-1.21762,32.17307],[-1.19191,32.16878],[-1.17248,32.15146],[-1.1648,32.13486],[-1.15288,32.12813],[-1.15549,32.11892],[-1.15236,32.11107],[-1.18291,32.10337],[-1.2038,32.08456],[-1.23025,32.07927],[-1.22969,32.07637],[-1.23282,32.08063],[-1.23961,32.07708],[-1.26135,32.0778],[-1.27261,32.0868],[-1.3382,32.08319],[-1.35725,32.09121],[-1.36913,32.09006],[-1.37898,32.08388],[-1.48335,32.09511],[-1.50478,32.10387],[-1.58031,32.09224],[-1.64061,32.11007],[-1.66196,32.1094],[-1.69679,32.11874],[-1.71213,32.11409],[-1.72652,32.12105],[-1.74886,32.12108],[-1.78365,32.13587],[-1.80156,32.13635],[-1.82996,32.14637],[-1.83817,32.14336],[-1.85598,32.14946],[-1.86838,32.14408],[-1.87416,32.14684],[-1.87452,32.15161],[-1.88314,32.15181],[-1.9034,32.16436],[-1.92075,32.16236],[-1.92678,32.15105],[-1.9445,32.15852],[-1.96858,32.15732],[-1.98864,32.17411],[-2.01492,32.18218],[-2.10241,32.15359],[-2.15023,32.1442],[-2.19033,32.14311],[-2.23161,32.15898],[-2.27761,32.1686],[-2.28642,32.16282],[-2.2871,32.1527],[-2.29993,32.1513],[-2.31432,32.15832],[-2.35221,32.15359],[-2.36075,32.15709],[-2.36708,32.15415],[-2.40649,32.15768],[-2.41918,32.15347],[-2.4486,32.15609],[-2.53634,32.14632],[-2.56918,32.1259],[-2.60003,32.11291],[-2.64907,32.11703],[-2.72856,32.11085],[-2.81214,32.11429],[-2.87344,32.11136],[-2.9156,32.07506],[-2.92813,32.04794],[-2.93056,32.02839],[-2.91654,32.01247],[-2.89949,31.97774],[-2.8852,31.96612],[-2.88189,31.95523],[-2.88365,31.93486],[-2.86293,31.91387],[-2.84232,31.88362],[-2.84239,31.86873],[-2.83707,31.85643],[-2.84415,31.83207],[-2.82488,31.81954],[-2.8207,31.79364],[-3.66467,31.63353],[-3.66484,31.40146],[-3.647,31.39392],[-3.66091,31.37796],[-3.66898,31.38632],[-3.67278,31.38513],[-3.67941,31.3707],[-3.69509,31.3634],[-3.70354,31.36602],[-3.71162,31.36201],[-3.71312,31.35003],[-3.72257,31.34212],[-3.73552,31.34365],[-3.74117,31.35859],[-3.74931,31.36099],[-3.75795,31.34675],[-3.75413,31.33994],[-3.76463,31.33404],[-3.76043,31.32245],[-3.76265,31.31062],[-3.77493,31.30528],[-3.78555,31.29276],[-3.78208,31.28651],[-3.77466,31.29168],[-3.76958,31.27814],[-3.75674,31.28219],[-3.75879,31.26343],[-3.78322,31.24888],[-3.77969,31.24197],[-3.7907,31.23622],[-3.78268,31.22161],[-3.7723,31.223],[-3.77346,31.21096],[-3.76765,31.2003],[-3.76672,31.1844],[-3.75931,31.18],[-3.7768,31.14769],[-3.77506,31.1009],[-3.77243,31.11983],[-3.76026,31.12572],[-3.74127,31.12482],[-3.73393,31.11495],[-3.73051,31.11712],[-3.7237,31.13526],[-3.73391,31.14609],[-3.72423,31.14573],[-3.71054,31.15438],[-3.70801,31.13676],[-3.70545,31.13684],[-3.70477,31.15195],[-3.71387,31.1657],[-3.70206,31.17603],[-3.69789,31.16158],[-3.69437,31.16698],[-3.68093,31.16521],[-3.67155,31.15125],[-3.67011,31.11978],[-3.67625,31.10906],[-3.67408,31.09725],[-3.67954,31.08652],[-3.64386,31.08196],[-3.64276,31.0855],[-3.66645,31.09027],[-3.66558,31.09443],[-3.66202,31.09237],[-3.66465,31.10251],[-3.65723,31.09475],[-3.65355,31.09494],[-3.65437,31.09878],[-3.64474,31.09329],[-3.63658,31.09966],[-3.64418,31.11004],[-3.64464,31.13009],[-3.65159,31.1343],[-3.63865,31.1417],[-3.64308,31.15686],[-3.63899,31.16977],[-3.63466,31.13768],[-3.63908,31.12284],[-3.63694,31.1113],[-3.62964,31.1064],[-3.62611,31.11401],[-3.61599,31.11949],[-3.61758,31.09925],[-3.61077,31.10127],[-3.60532,31.09548],[-3.60811,31.08818],[-3.60306,31.07354],[-3.59161,31.07423],[-3.59218,31.05834],[-3.57389,31.04301],[-3.57205,31.05162],[-3.55918,31.04928],[-3.56131,31.06064],[-3.5565,31.06355],[-3.55289,31.06039],[-3.55239,31.06394],[-3.54861,31.0615],[-3.55494,31.0403],[-3.55067,31.03978],[-3.54838,31.03168],[-3.542,31.0386],[-3.54128,31.01864],[-3.53634,31.01369],[-3.54267,30.98078],[-3.53799,30.97377],[-3.54569,30.97059],[-3.54865,30.96346],[-3.54114,30.96273],[-3.54054,30.95509],[-3.55731,30.94834],[-3.55253,30.93867],[-3.55855,30.94015],[-3.5598,30.92918],[-3.5753,30.93396],[-3.57546,30.92234],[-3.58658,30.91915],[-3.58287,30.90797],[-3.59354,30.89459],[-3.60469,30.89484],[-3.60634,30.87901],[-3.61386,30.87742],[-3.61572,30.86577],[-3.62419,30.86469],[-3.62383,30.86871],[-3.63623,30.87568],[-3.63284,30.86809],[-3.63876,30.85826],[-3.65845,30.8514],[-3.65087,30.83926],[-3.65082,30.80712],[-3.64463,30.76761],[-3.63545,30.76448],[-3.62959,30.74465],[-3.63629,30.71566],[-3.64747,30.69939],[-3.6447,30.69044],[-3.65393,30.6747],[-3.67168,30.66407],[-3.68194,30.66786],[-3.72088,30.64887],[-3.72166,30.6449],[-3.74278,30.63963],[-3.76787,30.62615],[-3.77758,30.6104],[-3.7918,30.60732],[-3.8168,30.59035],[-3.83386,30.59608],[-3.84705,30.59534],[-3.88654,30.61069],[-3.92001,30.59912],[-3.92701,30.60383],[-3.9959,30.59286],[-4.14833,30.58514],[-4.29634,30.53631],[-4.32968,30.52155],[-4.42693,30.43929],[-4.48792,30.37224],[-4.58627,30.29293],[-4.93662,30.14047],[-5.11454,30.0095],[-5.23128,29.93937],[-5.24824,29.92179],[-5.24936,29.91551],[-5.27071,29.90487],[-5.28215,29.88536],[-5.28886,29.88114],[-5.29736,29.85068],[-5.3228,29.8188],[-5.31703,29.79468],[-5.32313,29.77742],[-5.54208,29.51217],[-5.55833,29.47869],[-5.56548,29.47659],[-5.578,29.48957],[-5.60599,29.48886],[-5.61937,29.49289],[-5.62967,29.50146],[-5.65081,29.50454],[-5.66243,29.51153],[-5.66873,29.52209],[-5.67691,29.52473],[-5.68583,29.54119],[-5.71453,29.51983],[-5.74294,29.51577],[-5.74924,29.51826],[-5.75073,29.53024],[-5.74416,29.54811],[-5.72436,29.57397],[-5.72324,29.5862],[-5.7275,29.59104],[-5.76604,29.5941],[-5.79041,29.60543],[-5.80685,29.60791],[-5.86135,29.6009],[-5.87644,29.59036],[-5.92286,29.5944],[-5.96411,29.58817],[-6.00522,29.57782],[-6.029,29.56414],[-6.06984,29.56213],[-6.10386,29.57035],[-6.12515,29.57093],[-6.16532,29.58229],[-6.1856,29.57685],[-6.21343,29.57588],[-6.24746,29.5654],[-6.28968,29.57046],[-6.30335,29.5669],[-6.31715,29.56998],[-6.37387,29.56816],[-6.38671,29.56176],[-6.38649,29.5527],[-6.39031,29.54983],[-6.40049,29.56167],[-6.44851,29.56564],[-6.50955,29.53971],[-6.52296,29.52477],[-6.54107,29.51535],[-6.54664,29.51781],[-6.54773,29.52539],[-6.576,29.52298],[-6.61874,29.52975],[-6.62411,29.52701],[-6.62411,29.5212],[-6.63129,29.51972],[-6.69467,29.51524],[-6.72097,29.50569],[-6.75698,29.46709],[-6.77725,29.4621],[-6.83375,29.46808],[-6.85606,29.48271],[-6.89095,29.485],[-6.9154,29.49744],[-6.96478,29.49442],[-6.9894,29.50393],[-7.02263,29.49358],[-7.06319,29.5038],[-7.08097,29.51429],[-7.10781,29.52256],[-7.14983,29.52271],[-7.2514,29.47818],[-7.35089,29.3886],[-7.39298,29.37598],[-7.41271,29.37767],[-7.48873,29.36013],[-7.53068,29.36065],[-7.58597,29.37276],[-7.61022,29.36744],[-7.6169,29.36015],[-7.61807,29.33858],[-7.63729,29.29804],[-7.68324,29.29231],[-7.73227,29.27582],[-7.77323,29.2551],[-7.81789,29.22316],[-7.82646,29.20628],[-7.8688,29.19581],[-7.90971,29.17115],[-7.95792,29.12167],[-8.04263,29.07894],[-8.15135,29.00902],[-8.21813,28.97584],[-8.30044,28.92284],[-8.36679,28.87239],[-8.43377,28.80711],[-8.45816,28.79203],[-8.54647,28.75921],[-8.59131,28.73702],[-8.63044,28.69793],[-8.66875,28.66719],[-8.66694,26.00028],[-12.00056,26.0],[-12.00028,23.45444],[-12.15583,23.41639],[-12.36583,23.31861],[-12.57139,23.29139],[-12.99833,23.02472],[-13.10528,22.89306],[-13.15029,22.75751],[-13.08399,22.53667],[-13.07563,22.45731],[-12.99964,21.33672],[-14.10194,21.3425],[-15.09722,21.33694],[-16.51306,21.33972],[-16.92545,21.33434],[-16.9252,21.34514],[-16.95084,21.34333],[-16.94776,21.33349],[-16.9936,21.13782],[-17.01056,21.09167],[-17.03356,21.05325],[-17.03806,21.00417],[-17.05356,20.93139],[-17.06758,20.88992],[-17.05944,20.80833],[-17.05005,20.76993],[-17.06627,20.79161],[-17.0827,20.82611],[-17.09479,20.82599],[-17.10254,20.83547],[-17.10321,20.84905],[-17.08713,20.86478],[-17.07754,20.88749],[-17.08569,20.90907],[-17.09131,20.9119],[-17.09403,20.92501]],[[-5.51177,35.8736],[-5.51321,35.87119],[-5.51102,35.87174],[-5.51177,35.8736]]]}}