{"type":"FeatureCollection","features":[{"type":"Feature","properties":{"country":"DE","region":"Tangstedt (Schleswig-Holstein) (Stormarn)","parent":"Schleswig-Holstein"},"geometry":{"type":"MultiPolygon","coordinates":[[[[10.11186,53.76784],[10.10944,53.74581],[10.17048,53.74034],[10.12025,53.71377],[10.02746,53.72744],[10.04211,53.76409],[10.11186,53.76784]]],[[[10.0767,53.69976],[10.06283,53.69839],[10.07841,53.70392],[10.0767,53.69976]]]]}},{"type":"Feature","properties":{"country":"DE","region":"Hamburg, Freie und Hansestadt","parent":"Hamburg"},"geometry":{"type":"MultiPolygon","coordinates":[[[[10.22176,53.63372],[10.19033,53.61342],[10.20145,53.58408],[10.15301,53.57737],[10.16419,53.52105],[10.2106,53.52005],[10.30352,53.4432],[10.32596,53.44964],[10.22675,53.39539],[10.17094,53.39764],[10.05186,53.46324],[9.98349,53.41562],[9.95116,53.43032],[9.90774,53.41609],[9.92066,53.43654],[9.90454,53.45619],[9.86239,53.42988],[9.76587,53.51221],[9.77208,53.54339],[9.81592,53.53018],[9.82288,53.55106],[9.73437,53.56522],[9.76367,53.6275],[9.83554,53.58779],[9.90662,53.65245],[9.9865,53.64822],[9.99728,53.68028],[10.0671,53.67935],[10.08316,53.7201],[10.12025,53.71377],[10.16824,53.73824],[10.19117,53.72257],[10.14131,53.67913],[10.22176,53.63372]]],[[[9.74029,53.55689],[9.77841,53.55468],[9.78316,53.55107],[9.77415,53.54985],[9.74029,53.55689]]],[[[8.49845,53.93251],[8.51594,53.92429],[8.51593,53.9184],[8.48715,53.91372],[8.49845,53.93251]]],[[[8.43688,53.95414],[8.46072,53.95877],[8.42015,53.94612],[8.43688,53.95414]]]]}},{"type":"Feature","properties":{"country":"DE","region":"Norderstedt, Stadt","parent":"Schleswig-Holstein"},"geometry":{"type":"Polygon","coordinates":[[[9.93549,53.67798],[9.98468,53.75999],[10.07281,53.70963],[10.0671,53.67935],[9.99728,53.68028],[9.9865,53.64822],[9.94538,53.65293],[9.93549,53.67798]]]}},{"type":"Feature","properties":{"country":"DE","region":"Bönningstedt","parent":"Schleswig-Holstein"},"geometry":{"type":"Polygon","coordinates":[[[9.94538,53.65293],[9.90662,53.65245],[9.88277,53.6951],[9.93549,53.67798],[9.94538,53.65293]]]}},{"type":"Feature","properties":{"country":"DE","region":"Hasloh","parent":"Schleswig-Holstein"},"geometry":{"type":"Polygon","coordinates":[[[9.93549,53.67798],[9.88492,53.70365],[9.95246,53.71406],[9.93549,53.67798]]]}},{"type":"Feature","properties":{"country":"DE","region":"Quickborn, Stadt","parent":"Schleswig-Holstein"},"geometry":{"type":"Polygon","coordinates":[[[9.91187,53.74854],[9.98468,53.75999],[9.95246,53.71406],[9.88492,53.70365],[9.82718,53.72887],[9.86755,53.7636],[9.91187,53.74854]]]}},{"type":"Feature","properties":{"country":"DE","region":"Eschborn, Stadt","parent":"Hessen"},"geometry":{"type":"Polygon","coordinates":[[[8.56243,50.12983],[8.53809,50.15573],[8.53313,50.16931],[8.60077,50.15729],[8.56243,50.12983]]]}},{"type":"Feature","properties":{"country":"DE","region":"Hattersheim am Main, Stadt","parent":"Hessen"},"geometry":{"type":"Polygon","coordinates":[[[8.45012,50.05933],[8.48902,50.08643],[8.52072,50.06171],[8.45309,50.01899],[8.46724,50.05149],[8.45012,50.05933]]]}},{"type":"Feature","properties":{"country":"DE","region":"Schwalbach am Taunus, Stadt","parent":"Hessen"},"geometry":{"type":"Polygon","coordinates":[[[8.55904,50.12817],[8.52799,50.14086],[8.51058,50.16687],[8.53655,50.16464],[8.55904,50.12817]]]}},{"type":"Feature","properties":{"country":"DE","region":"Sulzbach (Taunus)","parent":"Hessen"},"geometry":{"type":"Polygon","coordinates":[[[8.55904,50.12817],[8.50304,50.12962],[8.51769,50.1506],[8.55904,50.12817]]]}},{"type":"Feature","properties":{"country":"DE","region":"Dreieich, Stadt","parent":"Hessen"},"geometry":{"type":"Polygon","coordinates":[[[8.7581,50.04728],[8.75888,49.96054],[8.72571,49.95421],[8.7096,49.98767],[8.63536,50.03007],[8.7581,50.04728]]]}},{"type":"Feature","properties":{"country":"DE","region":"Egelsbach","parent":"Hessen"},"geometry":{"type":"Polygon","coordinates":[[[8.60391,50.01192],[8.70371,49.95072],[8.62011,49.96548],[8.60391,50.01192]]]}},{"type":"Feature","properties":{"country":"DE","region":"Frankfurt am Main, Stadt","parent":"Hessen"},"geometry":{"type":"Polygon","coordinates":[[[8.51885,50.02057],[8.5593,50.04885],[8.55295,50.06661],[8.5258,50.08366],[8.52072,50.06171],[8.47598,50.10875],[8.59117,50.14062],[8.58868,50.16843],[8.63857,50.20144],[8.71138,50.22626],[8.73107,50.21773],[8.7032,50.18157],[8.72254,50.16418],[8.80053,50.17132],[8.77624,50.10974],[8.72729,50.10827],[8.74873,50.09593],[8.71783,50.06241],[8.62392,50.05447],[8.59132,50.01769],[8.51885,50.02057]]]}},{"type":"Feature","properties":{"country":"DE","region":"Langen (Hessen), Stadt","parent":"Hessen"},"geometry":{"type":"Polygon","coordinates":[[[8.63536,50.03007],[8.7096,49.98767],[8.72571,49.95421],[8.63475,49.97709],[8.60129,50.01599],[8.63536,50.03007]]]}},{"type":"Feature","properties":{"country":"DE","region":"Neu-Isenburg, Stadt","parent":"Hessen"},"geometry":{"type":"Polygon","coordinates":[[[8.60129,50.01599],[8.59724,50.04244],[8.62392,50.05447],[8.75961,50.05781],[8.60129,50.01599]]]}},{"type":"Feature","properties":{"country":"DE","region":"Erzhausen","parent":"Hessen"},"geometry":{"type":"Polygon","coordinates":[[[8.6745,49.95145],[8.62465,49.94176],[8.59489,49.95678],[8.63007,49.96503],[8.6745,49.95145]]]}},{"type":"Feature","properties":{"country":"DE","region":"Kelsterbach, Stadt","parent":"Hessen"},"geometry":{"type":"Polygon","coordinates":[[[8.51624,50.02603],[8.47779,50.04154],[8.5245,50.06388],[8.5258,50.08366],[8.5593,50.04885],[8.51624,50.02603]]]}},{"type":"Feature","properties":{"country":"DE","region":"Mörfelden-Walldorf, Stadt","parent":"Hessen"},"geometry":{"type":"Polygon","coordinates":[[[8.57883,49.9435],[8.50501,49.97623],[8.50996,49.99818],[8.53684,49.98999],[8.56443,50.02649],[8.60129,50.01599],[8.63023,49.96797],[8.57883,49.9435]]]}},{"type":"Feature","properties":{"country":"DE","region":"Raunheim, Stadt","parent":"Hessen"},"geometry":{"type":"Polygon","coordinates":[[[8.4253,50.00758],[8.4762,50.03711],[8.51885,50.02057],[8.46291,49.99079],[8.4253,50.00758]]]}},{"type":"Feature","properties":{"country":"DE","region":"Rüsselsheim am Main, Stadt","parent":"Hessen"},"geometry":{"type":"Polygon","coordinates":[[[8.35628,49.95779],[8.40319,49.97342],[8.36143,50.00178],[8.46235,49.99072],[8.4965,50.01926],[8.54865,50.02475],[8.53684,49.98999],[8.50996,49.99818],[8.50501,49.97623],[8.42262,49.93886],[8.35628,49.95779]],[[8.40604,49.97361],[8.4058,49.97111],[8.40889,49.97203],[8.40604,49.97361]]]}},{"type":"Feature","properties":{"country":"DE","region":"Berlin, Stadt","parent":"Berlin"},"geometry":{"type":"MultiPolygon","coordinates":[[[[13.76002,52.43735],[13.65172,52.33946],[13.64223,52.37682],[13.48071,52.39664],[13.46284,52.4203],[13.41934,52.40927],[13.42098,52.37625],[13.34251,52.41068],[13.31193,52.39919],[13.22216,52.41998],[13.1659,52.39428],[13.08906,52.41754],[13.12201,52.43923],[13.11826,52.47811],[13.16496,52.51039],[13.11818,52.5178],[13.15287,52.57455],[13.12899,52.58744],[13.21651,52.58798],[13.20264,52.60652],[13.22091,52.62734],[13.26349,52.62762],[13.28391,52.66022],[13.31003,52.65738],[13.30925,52.6289],[13.35747,52.62342],[13.4721,52.65362],[13.45212,52.66315],[13.48006,52.67465],[13.5217,52.64388],[13.50824,52.59292],[13.6569,52.52987],[13.61274,52.47107],[13.70224,52.46731],[13.76002,52.43735]]],[[[13.13105,52.38707],[13.13159,52.39164],[13.13419,52.38755],[13.13105,52.38707]]]]}},{"type":"Feature","properties":{"country":"DE","region":"Teltow, Stadt","parent":"Brandenburg"},"geometry":{"type":"Polygon","coordinates":[[[13.25137,52.35016],[13.23595,52.40089],[13.29544,52.4155],[13.30685,52.38319],[13.25137,52.35016]]]}}]}