{"type":"FeatureCollection","features":[{"type":"Feature","properties":{"country":"AD","region":"Andorra la Vella"},"geometry":{"type":"Polygon","coordinates":[[[1.46033,42.50447],[1.46683,42.50945],[1.47268,42.51147],[1.47659,42.51254],[1.47926,42.51229],[1.4831,42.51362],[1.49694,42.51423],[1.49954,42.51609],[1.50619,42.5174],[1.5069,42.5185],[1.51351,42.5217],[1.52156,42.52287],[1.52381,42.5193],[1.5315,42.51463],[1.53334,42.51266],[1.53278,42.51224],[1.5337,42.51094],[1.53328,42.51051],[1.53423,42.50633],[1.53808,42.50262],[1.53634,42.49862],[1.5392,42.49721],[1.54775,42.48255],[1.54832,42.48047],[1.54342,42.47917],[1.54159,42.47369],[1.53632,42.47353],[1.52624,42.47638],[1.49112,42.47787],[1.47737,42.48464],[1.47087,42.49652],[1.46033,42.50447]]]}},{"type":"Feature","properties":{"country":"AD","region":"Canillo"},"geometry":{"type":"Polygon","coordinates":[[[1.76963,42.56484],[1.76805,42.56453],[1.76404,42.5656],[1.75466,42.56504],[1.75034,42.56412],[1.74491,42.56103],[1.74516,42.56051],[1.74294,42.55827],[1.73979,42.55685],[1.73999,42.55621],[1.73907,42.5555],[1.71746,42.55732],[1.7124,42.5608],[1.70308,42.5586],[1.69341,42.55864],[1.68635,42.55616],[1.68337,42.55792],[1.68297,42.5592],[1.67604,42.55602],[1.66599,42.54881],[1.65831,42.54607],[1.6525,42.54727],[1.64971,42.54888],[1.64627,42.54868],[1.6422,42.55185],[1.63968,42.55282],[1.62998,42.55107],[1.62223,42.54599],[1.61787,42.54554],[1.6142,42.54376],[1.61014,42.54356],[1.60597,42.54724],[1.59273,42.54743],[1.56201,42.54629],[1.57096,42.54859],[1.57112,42.55238],[1.57297,42.55777],[1.57268,42.55984],[1.56845,42.56442],[1.56633,42.57062],[1.56609,42.57361],[1.567,42.57734],[1.56547,42.58459],[1.56928,42.58566],[1.57365,42.58962],[1.5754,42.59245],[1.57617,42.59868],[1.57993,42.60207],[1.58453,42.60241],[1.59059,42.60666],[1.59514,42.61113],[1.60732,42.61353],[1.60718,42.6154],[1.60579,42.61789],[1.60608,42.6211],[1.60252,42.62554],[1.60817,42.62846],[1.60939,42.62857],[1.61134,42.62673],[1.61655,42.62686],[1.61915,42.62576],[1.62227,42.62757],[1.62857,42.62666],[1.63712,42.63032],[1.63935,42.62818],[1.6422,42.6283],[1.65315,42.62637],[1.65509,42.62443],[1.65537,42.62248],[1.6639,42.61898],[1.66513,42.62048],[1.6677,42.62168],[1.67296,42.62111],[1.67465,42.62229],[1.67849,42.6225],[1.68048,42.62475],[1.68344,42.62494],[1.69053,42.62335],[1.69213,42.62198],[1.69857,42.62284],[1.70085,42.62232],[1.7133,42.615],[1.7155,42.61458],[1.71983,42.61517],[1.72274,42.61673],[1.73023,42.61462],[1.73198,42.6147],[1.73608,42.61784],[1.73611,42.61565],[1.73841,42.61171],[1.73388,42.60757],[1.73298,42.60352],[1.73021,42.60045],[1.72768,42.601],[1.727,42.59192],[1.7263,42.5914],[1.72681,42.58906],[1.72765,42.58827],[1.73024,42.58797],[1.73371,42.5888],[1.7371,42.58786],[1.74195,42.58787],[1.74981,42.58457],[1.75238,42.58258],[1.75405,42.58198],[1.75451,42.58268],[1.75783,42.58216],[1.7601,42.58092],[1.7683,42.58014],[1.78118,42.58253],[1.78315,42.58194],[1.78527,42.57568],[1.78666,42.57418],[1.78507,42.57325],[1.78496,42.57234],[1.78175,42.57057],[1.77623,42.56782],[1.7751,42.56793],[1.77321,42.56621],[1.77113,42.56639],[1.76963,42.56484]]]}},{"type":"Feature","properties":{"country":"AD","region":"Encamp"},"geometry":{"type":"Polygon","coordinates":[[[1.72589,42.5027],[1.7236,42.50017],[1.71137,42.49226],[1.70384,42.48954],[1.68599,42.49555],[1.68118,42.49424],[1.67948,42.49468],[1.66973,42.49401],[1.66827,42.4929],[1.66392,42.49294],[1.66277,42.492],[1.65579,42.49392],[1.65283,42.49395],[1.6221,42.50036],[1.61498,42.49808],[1.60662,42.49944],[1.59342,42.50587],[1.58416,42.51224],[1.57147,42.51932],[1.56686,42.51747],[1.56551,42.51866],[1.56144,42.51795],[1.55915,42.51474],[1.55263,42.51411],[1.54696,42.51938],[1.54605,42.5238],[1.54853,42.52648],[1.54723,42.52896],[1.54906,42.5321],[1.55489,42.53705],[1.55551,42.53864],[1.55858,42.54124],[1.55909,42.5443],[1.56201,42.54629],[1.59273,42.54743],[1.60597,42.54724],[1.61014,42.54356],[1.6142,42.54376],[1.61787,42.54554],[1.62223,42.54599],[1.62998,42.55107],[1.63968,42.55282],[1.6422,42.55185],[1.64627,42.54868],[1.64971,42.54888],[1.6525,42.54727],[1.65831,42.54607],[1.66599,42.54881],[1.67604,42.55602],[1.68297,42.5592],[1.68337,42.55792],[1.68635,42.55616],[1.69341,42.55864],[1.70308,42.5586],[1.7124,42.5608],[1.71746,42.55732],[1.73907,42.5555],[1.73701,42.55105],[1.73501,42.55004],[1.73444,42.54901],[1.73482,42.5484],[1.73791,42.54954],[1.73777,42.54855],[1.7363,42.54857],[1.73465,42.54753],[1.73547,42.54648],[1.73501,42.54429],[1.73569,42.54327],[1.73402,42.54156],[1.73443,42.54038],[1.7335,42.5388],[1.73486,42.53368],[1.7331,42.53063],[1.73358,42.5279],[1.73317,42.52698],[1.73236,42.52701],[1.73149,42.52887],[1.73059,42.52647],[1.72908,42.52533],[1.72879,42.52262],[1.72969,42.5204],[1.72759,42.51867],[1.72332,42.51818],[1.72525,42.51651],[1.72561,42.51485],[1.72617,42.51062],[1.72589,42.5027]]]}},{"type":"Feature","properties":{"country":"AD","region":"Escaldes-Engordany"},"geometry":{"type":"Polygon","coordinates":[[[1.5812,42.4502],[1.57759,42.45009],[1.57218,42.45401],[1.5696,42.45749],[1.56745,42.45888],[1.56333,42.45814],[1.56114,42.45866],[1.55162,42.46808],[1.54262,42.47218],[1.54159,42.47369],[1.54342,42.47917],[1.54832,42.48047],[1.54775,42.48255],[1.5392,42.49721],[1.53634,42.49862],[1.53808,42.50262],[1.53423,42.50633],[1.53328,42.51051],[1.5337,42.51094],[1.53278,42.51224],[1.53334,42.51266],[1.5315,42.51463],[1.52381,42.5193],[1.52156,42.52287],[1.52872,42.52379],[1.53839,42.52263],[1.54605,42.5238],[1.54696,42.51938],[1.55317,42.514],[1.55915,42.51474],[1.56144,42.51795],[1.56551,42.51866],[1.56686,42.51747],[1.57147,42.51932],[1.58416,42.51224],[1.59342,42.50587],[1.60662,42.49944],[1.61498,42.49808],[1.6221,42.50036],[1.65283,42.49395],[1.65579,42.49392],[1.66277,42.492],[1.66183,42.48411],[1.66329,42.48153],[1.66324,42.47985],[1.66085,42.47902],[1.66268,42.47551],[1.6625,42.47398],[1.65917,42.47148],[1.65703,42.46845],[1.65091,42.46711],[1.64575,42.46878],[1.64253,42.46679],[1.64052,42.46658],[1.63617,42.46809],[1.63287,42.46642],[1.63168,42.46275],[1.62915,42.46426],[1.62682,42.46411],[1.62257,42.46568],[1.61887,42.46471],[1.61223,42.46535],[1.60641,42.46437],[1.59761,42.46762],[1.58613,42.46116],[1.5812,42.4502]]]}},{"type":"Feature","properties":{"country":"AD","region":"La Massana"},"geometry":{"type":"Polygon","coordinates":[[[1.44199,42.60372],[1.44712,42.60373],[1.45096,42.60237],[1.45617,42.60203],[1.45874,42.60333],[1.45951,42.60477],[1.46316,42.60554],[1.46402,42.60679],[1.46897,42.60646],[1.47224,42.60393],[1.47706,42.60278],[1.47819,42.60115],[1.48099,42.60088],[1.48842,42.59738],[1.49345,42.59763],[1.49645,42.59315],[1.49669,42.58315],[1.49733,42.5806],[1.49679,42.57901],[1.50083,42.57589],[1.50236,42.57402],[1.50216,42.57212],[1.50444,42.56983],[1.50813,42.56744],[1.51245,42.56603],[1.51476,42.56277],[1.51457,42.56051],[1.51654,42.56096],[1.51821,42.56001],[1.51976,42.55734],[1.5191,42.55392],[1.52053,42.55166],[1.52014,42.55075],[1.52154,42.5492],[1.5204,42.54798],[1.52113,42.54655],[1.52305,42.54911],[1.52574,42.55017],[1.54148,42.54585],[1.55471,42.54809],[1.56201,42.54629],[1.55909,42.5443],[1.55858,42.54124],[1.55551,42.53864],[1.55489,42.53705],[1.54906,42.5321],[1.54723,42.52896],[1.54853,42.52648],[1.54605,42.5238],[1.54078,42.52272],[1.53584,42.5226],[1.52872,42.52379],[1.51351,42.5217],[1.5069,42.5185],[1.50619,42.5174],[1.49954,42.51609],[1.49694,42.51423],[1.48171,42.51342],[1.47926,42.51229],[1.47659,42.51254],[1.4684,42.51],[1.46436,42.51635],[1.46333,42.51917],[1.45995,42.52347],[1.45751,42.5256],[1.45531,42.52643],[1.45203,42.53119],[1.45118,42.53413],[1.45185,42.53467],[1.45253,42.53871],[1.45072,42.54008],[1.44291,42.54315],[1.43865,42.54368],[1.43677,42.54312],[1.43265,42.54008],[1.42539,42.53913],[1.41778,42.53581],[1.41358,42.53538],[1.41438,42.54007],[1.41943,42.54533],[1.41928,42.54953],[1.42081,42.54998],[1.4223,42.55215],[1.42304,42.55549],[1.42523,42.55796],[1.43667,42.56309],[1.44109,42.56432],[1.44498,42.5682],[1.4439,42.56937],[1.4434,42.57192],[1.43636,42.57318],[1.4318,42.57569],[1.43158,42.57677],[1.42816,42.57971],[1.42719,42.58215],[1.42766,42.58745],[1.43037,42.58776],[1.43587,42.59168],[1.43839,42.5923],[1.44059,42.59444],[1.44083,42.59612],[1.4428,42.59876],[1.44268,42.60276],[1.44199,42.60372]]]}},{"type":"Feature","properties":{"country":"AD","region":"Ordino"},"geometry":{"type":"Polygon","coordinates":[[[1.58035,42.63683],[1.58572,42.63346],[1.59251,42.63332],[1.59444,42.63262],[1.60038,42.62588],[1.60252,42.62554],[1.60598,42.62134],[1.60579,42.61789],[1.60718,42.6154],[1.60732,42.61353],[1.59514,42.61113],[1.59059,42.60666],[1.58453,42.60241],[1.57993,42.60207],[1.57617,42.59868],[1.5754,42.59245],[1.57365,42.58962],[1.56928,42.58566],[1.56547,42.58459],[1.567,42.57734],[1.56609,42.57361],[1.56633,42.57062],[1.56845,42.56442],[1.57304,42.55868],[1.57112,42.55238],[1.57096,42.54859],[1.56448,42.54681],[1.55995,42.54644],[1.55471,42.54809],[1.54148,42.54585],[1.52574,42.55017],[1.52305,42.54911],[1.52113,42.54655],[1.52055,42.54691],[1.5204,42.54798],[1.52154,42.5492],[1.52014,42.55075],[1.52053,42.55166],[1.5191,42.55392],[1.51976,42.55734],[1.51898,42.55898],[1.51654,42.56096],[1.51457,42.56051],[1.51476,42.56277],[1.51245,42.56603],[1.50813,42.56744],[1.50444,42.56983],[1.50216,42.57212],[1.50236,42.57402],[1.50083,42.57589],[1.49679,42.57901],[1.49733,42.5806],[1.49669,42.58315],[1.49645,42.59315],[1.49345,42.59763],[1.48842,42.59738],[1.48099,42.60088],[1.47819,42.60115],[1.47706,42.60278],[1.47224,42.60393],[1.46897,42.60646],[1.47048,42.60896],[1.4766,42.61308],[1.47754,42.61464],[1.47501,42.61803],[1.47356,42.62206],[1.47117,42.62471],[1.47058,42.62606],[1.4711,42.62941],[1.46802,42.63089],[1.47003,42.63547],[1.477,42.64064],[1.47795,42.64355],[1.47696,42.64455],[1.47881,42.64867],[1.47878,42.65145],[1.48705,42.65192],[1.49376,42.65349],[1.49936,42.64594],[1.50661,42.64527],[1.51289,42.64604],[1.51872,42.64547],[1.52077,42.64665],[1.52219,42.64867],[1.52836,42.65181],[1.53343,42.64976],[1.53629,42.65068],[1.53843,42.65247],[1.5493,42.65594],[1.55814,42.65205],[1.56062,42.65347],[1.56229,42.65356],[1.56531,42.65206],[1.56832,42.64854],[1.57479,42.64793],[1.57585,42.64623],[1.57601,42.64327],[1.57917,42.64191],[1.57928,42.63879],[1.58035,42.63683]]]}},{"type":"Feature","properties":{"country":"AD","region":"Sant Julià de Lòria"},"geometry":{"type":"Polygon","coordinates":[[[1.42928,42.49374],[1.44363,42.49532],[1.44541,42.49683],[1.45198,42.49993],[1.45723,42.50389],[1.46033,42.50447],[1.47087,42.49652],[1.47737,42.48464],[1.49112,42.47787],[1.52624,42.47638],[1.53632,42.47353],[1.54159,42.47369],[1.54262,42.47218],[1.55162,42.46808],[1.5563,42.46293],[1.56085,42.45931],[1.56092,42.45821],[1.55701,42.45392],[1.56016,42.44932],[1.55941,42.44724],[1.55986,42.44461],[1.55329,42.43928],[1.55294,42.4338],[1.55109,42.43262],[1.54813,42.43324],[1.54097,42.43218],[1.53899,42.43307],[1.52951,42.43242],[1.52416,42.43111],[1.51883,42.43096],[1.51575,42.42882],[1.50732,42.4299],[1.50394,42.43156],[1.49607,42.43314],[1.48483,42.43279],[1.47589,42.43525],[1.46226,42.43611],[1.45662,42.43565],[1.4524,42.43698],[1.44433,42.44111],[1.44258,42.44471],[1.4468,42.44377],[1.44532,42.44662],[1.44621,42.44821],[1.44177,42.45165],[1.44145,42.45531],[1.44747,42.46013],[1.44012,42.46437],[1.44067,42.46754],[1.44022,42.47119],[1.44103,42.47548],[1.43339,42.48177],[1.43128,42.48244],[1.4165,42.48314],[1.41549,42.48425],[1.4111,42.48358],[1.40861,42.48434],[1.4078,42.48629],[1.4118,42.48828],[1.41765,42.49249],[1.42269,42.49268],[1.42362,42.49334],[1.42838,42.4928],[1.42928,42.49374]]]}}]}