{"type":"FeatureCollection","features":[{"type":"Feature","properties":{"country":"AD","region":"Andorra la Vella"},"geometry":{"type":"Polygon","coordinates":[[[1.460331,42.504474],[1.4605,42.504826],[1.460714,42.505272],[1.461481,42.505912],[1.46249,42.506626],[1.464509,42.507938],[1.466829,42.509446],[1.46729,42.509607],[1.4684,42.509996],[1.46938,42.510353],[1.471046,42.510959],[1.472683,42.511468],[1.473585,42.511663],[1.475059,42.51211],[1.476594,42.512543],[1.477094,42.512568],[1.478184,42.512456],[1.47905,42.51232],[1.47926,42.512287],[1.480161,42.512543],[1.481056,42.513043],[1.48168,42.513402],[1.481707,42.513418],[1.482993,42.513603],[1.483104,42.513619],[1.487124,42.513953],[1.487465,42.513981],[1.488539,42.513934],[1.489781,42.513707],[1.491431,42.513667],[1.492671,42.513908],[1.494336,42.514314],[1.495449,42.513916],[1.496943,42.514227],[1.497991,42.515217],[1.499048,42.51584],[1.499537,42.516091],[1.501916,42.51661],[1.503808,42.516817],[1.505286,42.51708],[1.506186,42.517397],[1.506663,42.518135],[1.506902,42.518504],[1.508043,42.519068],[1.512039,42.52095],[1.513506,42.521701],[1.515319,42.521785],[1.518191,42.522371],[1.520739,42.52277],[1.521564,42.522875],[1.521918,42.522105],[1.521994,42.521987],[1.522177,42.521811],[1.522652,42.521526],[1.522772,42.521448],[1.522924,42.521341],[1.523025,42.521237],[1.523086,42.521145],[1.523144,42.521017],[1.523207,42.520805],[1.523277,42.520682],[1.523377,42.520575],[1.523534,42.520237],[1.523577,42.520068],[1.523608,42.519901],[1.523683,42.519512],[1.523725,42.519387],[1.523815,42.519301],[1.524725,42.518609],[1.525207,42.518252],[1.525647,42.517856],[1.52581,42.517659],[1.525921,42.517549],[1.526026,42.517479],[1.526338,42.517337],[1.526951,42.517078],[1.52705,42.517039],[1.527302,42.516899],[1.527519,42.516778],[1.527777,42.516668],[1.528006,42.516603],[1.528273,42.51653],[1.52844,42.516513],[1.528506,42.516502],[1.528635,42.516442],[1.528783,42.516371],[1.529109,42.516145],[1.529343,42.515884],[1.529727,42.515481],[1.529783,42.515437],[1.529884,42.515399],[1.530062,42.515366],[1.530392,42.515277],[1.530631,42.515188],[1.530836,42.51505],[1.531035,42.514866],[1.531124,42.514791],[1.531221,42.514727],[1.531351,42.514684],[1.531497,42.514628],[1.531543,42.514588],[1.531673,42.5144],[1.531982,42.514088],[1.533049,42.512963],[1.533289,42.512709],[1.533339,42.512656],[1.53278,42.512238],[1.533263,42.511256],[1.53333,42.511194],[1.533699,42.510936],[1.533508,42.510737],[1.533562,42.510709],[1.533276,42.510514],[1.533727,42.509948],[1.533729,42.509799],[1.533802,42.509759],[1.533836,42.509733],[1.533896,42.509604],[1.53395,42.509434],[1.533986,42.509248],[1.534028,42.508781],[1.534049,42.508663],[1.534104,42.508485],[1.534145,42.50808],[1.534176,42.507825],[1.534184,42.507757],[1.534208,42.507507],[1.53421,42.507482],[1.534214,42.507256],[1.534213,42.507115],[1.534209,42.507024],[1.534197,42.506859],[1.534192,42.506751],[1.534248,42.506496],[1.534233,42.506328],[1.53713,42.504128],[1.536782,42.50375],[1.537312,42.503292],[1.538085,42.502623],[1.536338,42.498625],[1.5392,42.497211],[1.544162,42.488282],[1.547754,42.482553],[1.548318,42.480475],[1.543421,42.479167],[1.541588,42.473693],[1.536315,42.473533],[1.526244,42.476378],[1.491118,42.477872],[1.477368,42.484642],[1.470875,42.496519],[1.46618,42.499518],[1.460331,42.504474]]]}},{"type":"Feature","properties":{"country":"AD","region":"Canillo"},"geometry":{"type":"Polygon","coordinates":[[[1.769629,42.564843],[1.769375,42.564812],[1.768961,42.564895],[1.768652,42.56487],[1.768467,42.56473],[1.768291,42.564641],[1.768053,42.564533],[1.767832,42.564564],[1.767677,42.564641],[1.767549,42.564757],[1.767321,42.565028],[1.767194,42.565103],[1.767054,42.5651],[1.766592,42.565047],[1.766144,42.565003],[1.765866,42.56501],[1.765667,42.56506],[1.76557,42.565184],[1.765564,42.565239],[1.765561,42.565405],[1.765453,42.565491],[1.765222,42.565551],[1.765048,42.56556],[1.764777,42.565472],[1.764479,42.565383],[1.764364,42.565465],[1.764193,42.565581],[1.764036,42.565601],[1.763898,42.565583],[1.763834,42.565518],[1.763726,42.565403],[1.763526,42.565374],[1.763097,42.565318],[1.762935,42.565334],[1.762749,42.565424],[1.762599,42.565439],[1.762389,42.565328],[1.762074,42.565132],[1.761971,42.565121],[1.761769,42.565162],[1.761701,42.565211],[1.761422,42.565351],[1.761155,42.565348],[1.760861,42.565277],[1.760558,42.565212],[1.760142,42.56531],[1.759634,42.5654],[1.759265,42.565396],[1.758983,42.565222],[1.758719,42.565049],[1.758425,42.565032],[1.758169,42.564927],[1.757738,42.564821],[1.757414,42.564912],[1.757183,42.565024],[1.756991,42.565049],[1.756706,42.564932],[1.756501,42.564853],[1.756213,42.564894],[1.755722,42.565139],[1.755509,42.565071],[1.755114,42.564963],[1.754861,42.565064],[1.754655,42.565045],[1.754283,42.564873],[1.753899,42.56489],[1.753634,42.564882],[1.753373,42.564694],[1.753058,42.564592],[1.752833,42.564394],[1.752607,42.564293],[1.752129,42.564206],[1.751494,42.564281],[1.751358,42.5641],[1.751212,42.564011],[1.750953,42.564079],[1.750626,42.56419],[1.75034,42.564121],[1.749912,42.563779],[1.749795,42.563391],[1.749479,42.563133],[1.748994,42.563117],[1.748457,42.5631],[1.748106,42.56318],[1.747915,42.562815],[1.74753,42.562721],[1.747092,42.562626],[1.74699,42.562397],[1.746798,42.562339],[1.746779,42.562263],[1.74688,42.562014],[1.74671,42.561914],[1.746161,42.561629],[1.745594,42.561316],[1.74514,42.56118],[1.744915,42.561025],[1.745127,42.560665],[1.745155,42.56051],[1.744869,42.560377],[1.744883,42.560283],[1.74484,42.560179],[1.744513,42.560156],[1.744458,42.559984],[1.744306,42.559821],[1.743868,42.559649],[1.743636,42.559497],[1.743632,42.559313],[1.743511,42.559197],[1.743333,42.559104],[1.743218,42.558997],[1.743257,42.558591],[1.743187,42.558524],[1.742923,42.558504],[1.742824,42.558425],[1.742945,42.558273],[1.742616,42.558209],[1.742161,42.558252],[1.742064,42.55812],[1.742046,42.557849],[1.741975,42.557574],[1.741896,42.557453],[1.741633,42.557436],[1.741372,42.557514],[1.741007,42.557365],[1.740757,42.557038],[1.740688,42.557012],[1.740321,42.55687],[1.740026,42.556892],[1.739791,42.556846],[1.739681,42.55674],[1.739714,42.556575],[1.739912,42.556421],[1.739987,42.556208],[1.739884,42.556019],[1.739052,42.555762],[1.73892,42.555634],[1.738926,42.555577],[1.739072,42.555504],[1.737115,42.555669],[1.718817,42.557209],[1.717456,42.557324],[1.714545,42.559327],[1.712401,42.560804],[1.703082,42.558597],[1.700895,42.558564],[1.698442,42.558828],[1.69341,42.558643],[1.687066,42.556314],[1.686615,42.556195],[1.686482,42.556179],[1.686348,42.556164],[1.686211,42.556199],[1.686071,42.556234],[1.685988,42.5563],[1.685814,42.556436],[1.68555,42.556562],[1.685476,42.556674],[1.685385,42.55681],[1.685023,42.557229],[1.684778,42.557543],[1.684505,42.557716],[1.684153,42.557749],[1.683915,42.557733],[1.683793,42.557713],[1.683564,42.557756],[1.683366,42.557919],[1.683182,42.558144],[1.683083,42.558488],[1.683106,42.558763],[1.683021,42.558991],[1.682967,42.559197],[1.679105,42.557531],[1.678398,42.556978],[1.676038,42.55602],[1.66599,42.548805],[1.658314,42.546066],[1.657466,42.546413],[1.655757,42.54662],[1.652501,42.547274],[1.649713,42.548884],[1.646267,42.548685],[1.642198,42.55185],[1.639682,42.552817],[1.629978,42.551069],[1.622232,42.545985],[1.617865,42.545535],[1.614199,42.543761],[1.612437,42.54392],[1.61061,42.543636],[1.610215,42.543574],[1.610137,42.543562],[1.609976,42.543758],[1.609917,42.543832],[1.608753,42.545257],[1.605967,42.547243],[1.592731,42.547433],[1.579382,42.546532],[1.562015,42.546288],[1.564478,42.546807],[1.565869,42.547312],[1.570955,42.548595],[1.571117,42.552379],[1.571347,42.553114],[1.572433,42.556177],[1.572974,42.55777],[1.573036,42.558685],[1.572856,42.559354],[1.572679,42.55984],[1.572256,42.560323],[1.571664,42.560925],[1.571074,42.561467],[1.570234,42.562128],[1.569642,42.56273],[1.569133,42.563334],[1.568448,42.564423],[1.56792,42.565881],[1.567716,42.567586],[1.56745,42.568376],[1.566672,42.569891],[1.566326,42.570619],[1.566135,42.571714],[1.566028,42.572811],[1.566092,42.573605],[1.566564,42.574648],[1.56671,42.575442],[1.56702,42.576361],[1.566997,42.577337],[1.566815,42.578067],[1.566628,42.57904],[1.566333,42.581111],[1.566214,42.582695],[1.565475,42.584592],[1.567812,42.585033],[1.569283,42.585661],[1.571228,42.587271],[1.572523,42.588385],[1.573651,42.589619],[1.574614,42.590851],[1.57509,42.591711],[1.575403,42.592447],[1.575466,42.593301],[1.575801,42.596721],[1.57617,42.598678],[1.576571,42.599171],[1.577226,42.599423],[1.577961,42.599798],[1.578529,42.600232],[1.579006,42.601031],[1.579324,42.601584],[1.579425,42.601665],[1.579928,42.602071],[1.58453,42.602413],[1.586071,42.603605],[1.587687,42.604638],[1.590594,42.606662],[1.590982,42.60737],[1.592614,42.608679],[1.59333,42.609516],[1.594073,42.610335],[1.595144,42.611131],[1.597803,42.611524],[1.600525,42.611939],[1.602871,42.612403],[1.605524,42.61299],[1.6066,42.613318],[1.607318,42.613532],[1.607452,42.614606],[1.607176,42.615404],[1.606757,42.616125],[1.605974,42.617156],[1.605786,42.617893],[1.606028,42.618681],[1.606077,42.619991],[1.606145,42.620521],[1.606084,42.621103],[1.60598,42.621344],[1.605376,42.621949],[1.604778,42.622938],[1.603691,42.624255],[1.602522,42.625542],[1.603878,42.625769],[1.604777,42.626765],[1.606466,42.627438],[1.608165,42.628464],[1.608743,42.628432],[1.609386,42.628568],[1.610464,42.627727],[1.610606,42.627366],[1.611336,42.626733],[1.61567,42.626739],[1.616547,42.626859],[1.617178,42.626586],[1.61744,42.62625],[1.618132,42.625974],[1.618453,42.625809],[1.61915,42.625761],[1.619856,42.626008],[1.622267,42.627573],[1.623958,42.627005],[1.626473,42.626655],[1.628566,42.626656],[1.629892,42.627245],[1.630459,42.627807],[1.634363,42.629303],[1.637122,42.630316],[1.638548,42.628551],[1.639353,42.628182],[1.640454,42.628302],[1.642198,42.628295],[1.6455,42.627778],[1.645666,42.627752],[1.649818,42.627095],[1.653154,42.626367],[1.655089,42.624429],[1.655366,42.622479],[1.659666,42.620488],[1.660566,42.620434],[1.661266,42.619818],[1.66201,42.619461],[1.662601,42.619465],[1.663169,42.619092],[1.66361,42.619122],[1.663901,42.618981],[1.664399,42.619367],[1.665132,42.620479],[1.666134,42.621073],[1.667699,42.621682],[1.669353,42.621324],[1.670773,42.621471],[1.672958,42.621111],[1.674647,42.622288],[1.67699,42.622434],[1.678487,42.622504],[1.679739,42.62408],[1.680476,42.624754],[1.680931,42.62488],[1.681345,42.62488],[1.682653,42.624879],[1.683443,42.624943],[1.684062,42.624785],[1.685822,42.624166],[1.687474,42.623942],[1.689023,42.623851],[1.690531,42.623352],[1.69077,42.622842],[1.691181,42.622707],[1.691734,42.622293],[1.692129,42.621976],[1.692552,42.622122],[1.694494,42.622538],[1.694512,42.622542],[1.695333,42.622481],[1.696594,42.622386],[1.696604,42.622388],[1.69857,42.622838],[1.699972,42.622542],[1.700852,42.622324],[1.704076,42.62001],[1.705454,42.619192],[1.707876,42.618165],[1.711312,42.616189],[1.713303,42.614996],[1.715498,42.614576],[1.719829,42.615167],[1.721407,42.615855],[1.722737,42.616728],[1.730234,42.614617],[1.731981,42.614699],[1.733233,42.615579],[1.733841,42.616264],[1.735055,42.617457],[1.73608,42.617838],[1.736111,42.615652],[1.73799,42.612561],[1.738409,42.61171],[1.735852,42.609396],[1.735645,42.609213],[1.733875,42.60757],[1.733513,42.605925],[1.732985,42.603519],[1.730213,42.60045],[1.727676,42.601],[1.727021,42.596844],[1.727003,42.591923],[1.726303,42.591399],[1.726816,42.589882],[1.726815,42.589062],[1.727654,42.588269],[1.728664,42.588169],[1.730236,42.587974],[1.731603,42.587959],[1.732892,42.588309],[1.733715,42.5888],[1.734881,42.588147],[1.737101,42.587861],[1.741945,42.587873],[1.745202,42.586347],[1.748199,42.585082],[1.749811,42.584571],[1.752379,42.58258],[1.75405,42.581981],[1.754511,42.58268],[1.755504,42.582627],[1.757831,42.58216],[1.760027,42.580961],[1.760099,42.580922],[1.768296,42.580141],[1.774942,42.581436],[1.776402,42.581692],[1.776418,42.581694],[1.779921,42.582309],[1.78003,42.582328],[1.78118,42.58253],[1.783148,42.581944],[1.785274,42.575678],[1.785506,42.575384],[1.785797,42.575173],[1.786062,42.574993],[1.78632,42.574817],[1.786424,42.574759],[1.786803,42.574548],[1.786866,42.574513],[1.786664,42.574183],[1.786386,42.573948],[1.78593,42.573454],[1.78582,42.573304],[1.785666,42.573235],[1.785448,42.573268],[1.785214,42.573296],[1.785073,42.573252],[1.785065,42.573147],[1.785094,42.573017],[1.785151,42.572761],[1.78512,42.572606],[1.785103,42.572515],[1.784958,42.572337],[1.784888,42.572305],[1.784485,42.572128],[1.783791,42.572063],[1.783393,42.571934],[1.782774,42.571598],[1.782174,42.57129],[1.781959,42.571042],[1.781832,42.570774],[1.781752,42.570569],[1.78151,42.570442],[1.781174,42.570386],[1.780997,42.570364],[1.780939,42.570335],[1.780722,42.57023],[1.780646,42.570116],[1.780535,42.569977],[1.780216,42.569847],[1.779685,42.569593],[1.779053,42.569359],[1.778714,42.569164],[1.778552,42.569014],[1.778414,42.568834],[1.777827,42.568698],[1.777671,42.568636],[1.777496,42.568645],[1.777234,42.568582],[1.776998,42.568486],[1.776965,42.56833],[1.776858,42.568083],[1.776636,42.568],[1.776229,42.567822],[1.775924,42.56781],[1.775699,42.567892],[1.775366,42.567946],[1.775209,42.56794],[1.775104,42.567928],[1.775005,42.567873],[1.775002,42.567585],[1.775023,42.567302],[1.774952,42.567217],[1.774475,42.566919],[1.774279,42.56689],[1.774072,42.566848],[1.773908,42.566732],[1.773829,42.56658],[1.773568,42.566517],[1.77336,42.566352],[1.773206,42.566207],[1.772935,42.566189],[1.772762,42.566207],[1.77251,42.566293],[1.772377,42.566279],[1.772129,42.566178],[1.771795,42.566132],[1.771527,42.566227],[1.771349,42.566399],[1.771125,42.566388],[1.771034,42.566284],[1.771108,42.566062],[1.771074,42.565941],[1.770893,42.565763],[1.770625,42.565722],[1.770339,42.565688],[1.770242,42.565568],[1.770204,42.565351],[1.769921,42.565154],[1.769788,42.565041],[1.76978,42.564914],[1.769629,42.564843]]]}},{"type":"Feature","properties":{"country":"AD","region":"Encamp"},"geometry":{"type":"Polygon","coordinates":[[[1.725891,42.502699],[1.723602,42.500169],[1.720122,42.497685],[1.714379,42.49468],[1.711374,42.492256],[1.709399,42.491563],[1.707403,42.49106],[1.706115,42.490437],[1.705349,42.490135],[1.704433,42.489772],[1.703842,42.489539],[1.703308,42.489637],[1.702573,42.489926],[1.70216,42.490096],[1.70059,42.491061],[1.698432,42.490972],[1.694003,42.492545],[1.692636,42.493007],[1.690958,42.4939],[1.690036,42.49401],[1.688714,42.494717],[1.686598,42.495407],[1.685988,42.495549],[1.685659,42.495544],[1.682541,42.494519],[1.681809,42.494333],[1.681182,42.494242],[1.679865,42.494521],[1.679475,42.494681],[1.678186,42.494645],[1.676869,42.494608],[1.675957,42.494582],[1.673643,42.494369],[1.669732,42.494009],[1.668948,42.493413],[1.668269,42.492896],[1.663921,42.492939],[1.663247,42.492633],[1.662765,42.492004],[1.661435,42.492281],[1.660361,42.49239],[1.657701,42.493396],[1.655794,42.493923],[1.654801,42.494095],[1.652826,42.49395],[1.650337,42.494652],[1.647933,42.495295],[1.645451,42.495693],[1.643049,42.496214],[1.640404,42.496549],[1.630629,42.49869],[1.623258,42.500188],[1.6221,42.500358],[1.620783,42.500281],[1.619719,42.499902],[1.618579,42.499278],[1.617268,42.498897],[1.616202,42.49864],[1.614978,42.498076],[1.61366,42.498],[1.611504,42.498584],[1.609438,42.498803],[1.608858,42.498918],[1.60662,42.49944],[1.605359,42.500058],[1.603673,42.500913],[1.602203,42.501651],[1.593419,42.505869],[1.58416,42.512244],[1.578438,42.515327],[1.57147,42.51932],[1.570833,42.519257],[1.566858,42.517466],[1.566432,42.517859],[1.565856,42.518337],[1.56566,42.518548],[1.565511,42.518661],[1.562563,42.518237],[1.561442,42.517948],[1.559151,42.514736],[1.553172,42.514003],[1.552629,42.514114],[1.550559,42.515729],[1.549919,42.516369],[1.549238,42.517276],[1.548725,42.518062],[1.548054,42.518542],[1.547718,42.518782],[1.546962,42.519382],[1.546704,42.519867],[1.546673,42.521208],[1.546317,42.522302],[1.546048,42.523797],[1.547889,42.525677],[1.54853,42.526478],[1.548178,42.527449],[1.548104,42.527587],[1.54766,42.528419],[1.547235,42.528962],[1.547308,42.52939],[1.548592,42.530931],[1.54906,42.532096],[1.54962,42.532835],[1.550425,42.533699],[1.551964,42.534939],[1.553097,42.535868],[1.554401,42.536555],[1.554885,42.537049],[1.555508,42.538643],[1.55656,42.53951],[1.557125,42.540066],[1.557851,42.540807],[1.558583,42.541243],[1.559053,42.542347],[1.55909,42.5443],[1.560635,42.545295],[1.562015,42.546288],[1.579382,42.546532],[1.592731,42.547433],[1.605967,42.547243],[1.608753,42.545257],[1.609917,42.543832],[1.609976,42.543758],[1.610137,42.543562],[1.610215,42.543574],[1.61061,42.543636],[1.612437,42.54392],[1.614199,42.543761],[1.617865,42.545535],[1.622232,42.545985],[1.629978,42.551069],[1.639682,42.552817],[1.642198,42.55185],[1.646267,42.548685],[1.649713,42.548884],[1.652501,42.547274],[1.655757,42.54662],[1.657466,42.546413],[1.658314,42.546066],[1.66599,42.548805],[1.676038,42.55602],[1.678398,42.556978],[1.679105,42.557531],[1.682967,42.559197],[1.683021,42.558991],[1.683106,42.558763],[1.683083,42.558488],[1.683182,42.558144],[1.683366,42.557919],[1.683564,42.557756],[1.683793,42.557713],[1.683915,42.557733],[1.684153,42.557749],[1.684505,42.557716],[1.684778,42.557543],[1.685023,42.557229],[1.685385,42.55681],[1.685476,42.556674],[1.68555,42.556562],[1.685814,42.556436],[1.685988,42.5563],[1.686071,42.556234],[1.686211,42.556199],[1.686348,42.556164],[1.686482,42.556179],[1.686615,42.556195],[1.687066,42.556314],[1.69341,42.558643],[1.698442,42.558828],[1.700895,42.558564],[1.703082,42.558597],[1.712401,42.560804],[1.714545,42.559327],[1.717456,42.557324],[1.718817,42.557209],[1.737115,42.555669],[1.739072,42.555504],[1.738741,42.555047],[1.738458,42.554574],[1.738005,42.554246],[1.738081,42.553951],[1.738327,42.553779],[1.738418,42.553641],[1.738422,42.553441],[1.738293,42.553073],[1.738131,42.552954],[1.738015,42.552738],[1.737709,42.552124],[1.737514,42.551983],[1.737077,42.551831],[1.73696,42.551754],[1.73701,42.551625],[1.73688,42.551477],[1.736914,42.551197],[1.737014,42.551046],[1.736943,42.550979],[1.736384,42.550781],[1.736188,42.550561],[1.735881,42.550257],[1.735666,42.550016],[1.735468,42.549951],[1.735356,42.549913],[1.735288,42.549868],[1.735013,42.55004],[1.734942,42.549961],[1.734443,42.549013],[1.734559,42.548827],[1.734817,42.548398],[1.735093,42.548589],[1.735467,42.548774],[1.735766,42.548904],[1.736006,42.548995],[1.736499,42.549126],[1.736594,42.549464],[1.736649,42.549508],[1.736726,42.549551],[1.736878,42.549613],[1.737353,42.549583],[1.737616,42.549564],[1.737832,42.549546],[1.737913,42.549539],[1.737885,42.549398],[1.737647,42.54929],[1.73758,42.549228],[1.737497,42.549118],[1.737492,42.549102],[1.737488,42.549087],[1.737486,42.549068],[1.737486,42.54905],[1.737489,42.549031],[1.737494,42.549011],[1.7375,42.548995],[1.737508,42.548979],[1.737519,42.548962],[1.737531,42.548946],[1.737545,42.548932],[1.737624,42.548857],[1.737676,42.548786],[1.737775,42.548629],[1.737767,42.548554],[1.737736,42.548558],[1.737259,42.548622],[1.737191,42.548636],[1.736762,42.548703],[1.736301,42.548575],[1.73616,42.548528],[1.735971,42.548442],[1.735592,42.548252],[1.735354,42.548143],[1.735022,42.547959],[1.734922,42.547882],[1.734788,42.54775],[1.734676,42.547589],[1.734646,42.547527],[1.734687,42.547383],[1.734748,42.54728],[1.734784,42.547219],[1.734822,42.547149],[1.734942,42.547022],[1.735124,42.546853],[1.735185,42.546795],[1.735393,42.546608],[1.735433,42.546551],[1.735473,42.54648],[1.735498,42.546365],[1.7355,42.546251],[1.735391,42.54577],[1.735381,42.545602],[1.735425,42.545301],[1.735489,42.545056],[1.73552,42.544912],[1.735521,42.544893],[1.735521,42.544874],[1.735518,42.544851],[1.735511,42.544826],[1.735504,42.544807],[1.735493,42.544788],[1.735483,42.544772],[1.735468,42.544753],[1.735439,42.544724],[1.735332,42.544632],[1.73513,42.544441],[1.735038,42.544348],[1.735015,42.544289],[1.735025,42.544189],[1.735078,42.544024],[1.735104,42.543938],[1.735117,42.543864],[1.735118,42.543808],[1.735126,42.543743],[1.735151,42.543701],[1.735194,42.543673],[1.735219,42.543667],[1.735292,42.543652],[1.735367,42.543639],[1.735439,42.543628],[1.735493,42.543598],[1.735529,42.543567],[1.735598,42.543499],[1.73564,42.543435],[1.735656,42.543412],[1.735662,42.543403],[1.735682,42.543351],[1.735689,42.543271],[1.735655,42.543036],[1.735577,42.542835],[1.735424,42.542723],[1.735243,42.542706],[1.735175,42.542669],[1.73509,42.542548],[1.734996,42.54247],[1.734683,42.542234],[1.734355,42.542066],[1.734255,42.541996],[1.734075,42.541677],[1.734016,42.541557],[1.734039,42.541415],[1.734122,42.541321],[1.734092,42.541153],[1.734024,42.541062],[1.733981,42.540865],[1.734024,42.540781],[1.734174,42.540738],[1.734436,42.540464],[1.734434,42.540377],[1.73436,42.540249],[1.734287,42.540104],[1.734319,42.539949],[1.734292,42.539853],[1.734236,42.539735],[1.734128,42.539593],[1.734103,42.539441],[1.734105,42.539408],[1.734111,42.539261],[1.734082,42.539154],[1.734024,42.539119],[1.733874,42.539116],[1.733804,42.539109],[1.73365,42.539019],[1.733496,42.538797],[1.733544,42.538463],[1.7335,42.538306],[1.733505,42.538219],[1.733621,42.538139],[1.733728,42.538102],[1.733879,42.537962],[1.733906,42.537825],[1.733787,42.537706],[1.73365,42.537563],[1.733668,42.537465],[1.733682,42.537304],[1.733777,42.537142],[1.733917,42.537025],[1.7341,42.537012],[1.734192,42.536957],[1.734234,42.536803],[1.734351,42.53676],[1.734432,42.536548],[1.73443,42.536382],[1.734296,42.536176],[1.734335,42.536069],[1.734413,42.535861],[1.734395,42.535707],[1.73439,42.535537],[1.734356,42.535467],[1.73422,42.535037],[1.734404,42.534749],[1.734404,42.534547],[1.73453,42.534454],[1.734595,42.534089],[1.73486,42.533682],[1.734609,42.53344],[1.734482,42.533253],[1.734291,42.532969],[1.734246,42.532646],[1.73414,42.532548],[1.733661,42.53226],[1.733597,42.532146],[1.733664,42.531999],[1.733664,42.531823],[1.733542,42.531521],[1.733498,42.531254],[1.733188,42.530989],[1.733179,42.530951],[1.733103,42.530634],[1.733122,42.530335],[1.733304,42.530085],[1.733439,42.530035],[1.733436,42.529373],[1.733583,42.527898],[1.733379,42.527442],[1.733172,42.526981],[1.732738,42.526994],[1.732358,42.527005],[1.732343,42.527071],[1.732322,42.527168],[1.731994,42.528671],[1.731637,42.528939],[1.731487,42.528873],[1.731329,42.528633],[1.73134,42.528318],[1.73129,42.527786],[1.730963,42.527205],[1.730608,42.526762],[1.730608,42.526673],[1.73061,42.526519],[1.730586,42.526474],[1.729658,42.526021],[1.729463,42.525764],[1.729079,42.525327],[1.728884,42.5247],[1.728785,42.522621],[1.72969,42.520401],[1.727961,42.519491],[1.727588,42.518672],[1.726577,42.51845],[1.725271,42.518833],[1.723322,42.518179],[1.7244,42.517581],[1.725247,42.516506],[1.725223,42.515606],[1.725606,42.514853],[1.725947,42.511381],[1.726169,42.510619],[1.725673,42.508262],[1.725812,42.505339],[1.725891,42.502699]]]}},{"type":"Feature","properties":{"country":"AD","region":"Escaldes-Engordany"},"geometry":{"type":"Polygon","coordinates":[[[1.5812,42.450195],[1.578854,42.449886],[1.577593,42.45009],[1.576577,42.451166],[1.575264,42.451668],[1.574467,42.45207],[1.572177,42.454007],[1.57191,42.454351],[1.571352,42.455543],[1.571074,42.455888],[1.570183,42.456508],[1.569992,42.456732],[1.569597,42.457486],[1.568438,42.458433],[1.567449,42.458878],[1.566983,42.458986],[1.566372,42.458939],[1.565925,42.458812],[1.56542,42.458554],[1.563335,42.458142],[1.56166,42.458686],[1.561141,42.458656],[1.560851,42.459314],[1.55985,42.460319],[1.556795,42.462564],[1.556301,42.462927],[1.554429,42.464928],[1.551617,42.468077],[1.542616,42.472183],[1.541588,42.473693],[1.543421,42.479167],[1.548318,42.480475],[1.547754,42.482553],[1.544162,42.488282],[1.5392,42.497211],[1.536338,42.498625],[1.538085,42.502623],[1.537312,42.503292],[1.536782,42.50375],[1.53713,42.504128],[1.534233,42.506328],[1.534248,42.506496],[1.534192,42.506751],[1.534197,42.506859],[1.534209,42.507024],[1.534213,42.507115],[1.534214,42.507256],[1.53421,42.507482],[1.534208,42.507507],[1.534184,42.507757],[1.534176,42.507825],[1.534145,42.50808],[1.534104,42.508485],[1.534049,42.508663],[1.534028,42.508781],[1.533986,42.509248],[1.53395,42.509434],[1.533896,42.509604],[1.533836,42.509733],[1.533802,42.509759],[1.533729,42.509799],[1.533727,42.509948],[1.533276,42.510514],[1.533562,42.510709],[1.533508,42.510737],[1.533699,42.510936],[1.53333,42.511194],[1.533263,42.511256],[1.53278,42.512238],[1.533339,42.512656],[1.533289,42.512709],[1.533049,42.512963],[1.531982,42.514088],[1.531673,42.5144],[1.531543,42.514588],[1.531497,42.514628],[1.531351,42.514684],[1.531221,42.514727],[1.531124,42.514791],[1.531035,42.514866],[1.530836,42.51505],[1.530631,42.515188],[1.530392,42.515277],[1.530062,42.515366],[1.529884,42.515399],[1.529783,42.515437],[1.529727,42.515481],[1.529343,42.515884],[1.529109,42.516145],[1.528783,42.516371],[1.528635,42.516442],[1.528506,42.516502],[1.52844,42.516513],[1.528273,42.51653],[1.528006,42.516603],[1.527777,42.516668],[1.527519,42.516778],[1.527302,42.516899],[1.52705,42.517039],[1.526951,42.517078],[1.526338,42.517337],[1.526026,42.517479],[1.525921,42.517549],[1.52581,42.517659],[1.525647,42.517856],[1.525207,42.518252],[1.524725,42.518609],[1.523815,42.519301],[1.523725,42.519387],[1.523683,42.519512],[1.523608,42.519901],[1.523577,42.520068],[1.523534,42.520237],[1.523377,42.520575],[1.523277,42.520682],[1.523207,42.520805],[1.523144,42.521017],[1.523086,42.521145],[1.523025,42.521237],[1.522924,42.521341],[1.522772,42.521448],[1.522652,42.521526],[1.522177,42.521811],[1.521994,42.521987],[1.521918,42.522105],[1.521564,42.522875],[1.523532,42.523232],[1.526246,42.523572],[1.52781,42.523714],[1.528715,42.523787],[1.529461,42.523613],[1.531949,42.523035],[1.533107,42.522928],[1.534926,42.522707],[1.535836,42.522596],[1.537073,42.522612],[1.538392,42.522629],[1.540782,42.52272],[1.541602,42.522913],[1.542668,42.523171],[1.543983,42.52337],[1.544887,42.523504],[1.546048,42.523797],[1.546317,42.522302],[1.546673,42.521208],[1.546704,42.519867],[1.546962,42.519382],[1.547718,42.518782],[1.548054,42.518542],[1.548725,42.518062],[1.549238,42.517276],[1.549919,42.516369],[1.550559,42.515729],[1.552629,42.514114],[1.553172,42.514003],[1.559151,42.514736],[1.561442,42.517948],[1.562563,42.518237],[1.565511,42.518661],[1.56566,42.518548],[1.565856,42.518337],[1.566432,42.517859],[1.566858,42.517466],[1.570833,42.519257],[1.57147,42.51932],[1.578438,42.515327],[1.58416,42.512244],[1.593419,42.505869],[1.602203,42.501651],[1.603673,42.500913],[1.605359,42.500058],[1.60662,42.49944],[1.608858,42.498918],[1.609438,42.498803],[1.611504,42.498584],[1.61366,42.498],[1.614978,42.498076],[1.616202,42.49864],[1.617268,42.498897],[1.618579,42.499278],[1.619719,42.499902],[1.620783,42.500281],[1.6221,42.500358],[1.623258,42.500188],[1.630629,42.49869],[1.640404,42.496549],[1.643049,42.496214],[1.645451,42.495693],[1.647933,42.495295],[1.650337,42.494652],[1.652826,42.49395],[1.654801,42.494095],[1.655794,42.493923],[1.657701,42.493396],[1.660361,42.49239],[1.661435,42.492281],[1.662765,42.492004],[1.662813,42.491804],[1.662253,42.490161],[1.662321,42.489114],[1.66234,42.488463],[1.661827,42.48411],[1.661933,42.483737],[1.663289,42.48153],[1.663237,42.479848],[1.660852,42.479018],[1.661517,42.477325],[1.661919,42.47684],[1.662683,42.475513],[1.662384,42.474763],[1.662496,42.473981],[1.662312,42.473797],[1.661853,42.473341],[1.660207,42.472309],[1.659172,42.471478],[1.658814,42.471069],[1.657756,42.469105],[1.657438,42.468757],[1.657026,42.46845],[1.656544,42.468232],[1.653585,42.467311],[1.650908,42.467114],[1.6496,42.467185],[1.648725,42.467356],[1.647087,42.468379],[1.64672,42.468647],[1.646191,42.468689],[1.645754,42.468782],[1.64504,42.468667],[1.6436,42.467618],[1.642802,42.467182],[1.642526,42.466792],[1.64226,42.466712],[1.64052,42.466581],[1.637463,42.467546],[1.636174,42.468089],[1.635046,42.467208],[1.634307,42.467085],[1.632872,42.466423],[1.632524,42.465995],[1.632347,42.46557],[1.631944,42.463741],[1.631642,42.463112],[1.63168,42.46275],[1.631296,42.463029],[1.630939,42.463142],[1.630601,42.463336],[1.630356,42.463643],[1.629846,42.463979],[1.62915,42.464259],[1.628586,42.464363],[1.628232,42.464179],[1.627531,42.464073],[1.626816,42.46411],[1.625475,42.464885],[1.62337,42.465528],[1.622567,42.465678],[1.6219,42.465705],[1.620568,42.465465],[1.618868,42.464712],[1.617061,42.464964],[1.616707,42.465001],[1.615229,42.465102],[1.614884,42.465296],[1.614109,42.465293],[1.612724,42.465285],[1.612226,42.46535],[1.611462,42.464975],[1.610511,42.465272],[1.610305,42.46502],[1.609759,42.464779],[1.609218,42.464607],[1.606414,42.464371],[1.605816,42.464746],[1.60549,42.46479],[1.604802,42.465093],[1.604521,42.465171],[1.603782,42.465543],[1.601761,42.466173],[1.601404,42.466449],[1.600582,42.466833],[1.600041,42.466927],[1.598732,42.467646],[1.598335,42.467698],[1.597611,42.467619],[1.596883,42.467306],[1.596031,42.466629],[1.594773,42.465887],[1.592291,42.464708],[1.590337,42.463427],[1.589408,42.463032],[1.588115,42.462642],[1.586712,42.461744],[1.586134,42.461164],[1.585671,42.46049],[1.585522,42.459119],[1.58462,42.457764],[1.584216,42.457173],[1.584135,42.456972],[1.583865,42.456882],[1.583883,42.456738],[1.583776,42.456579],[1.583624,42.456521],[1.583582,42.456313],[1.583594,42.455986],[1.583418,42.455356],[1.582664,42.453731],[1.582464,42.452877],[1.58216,42.452121],[1.581813,42.451584],[1.5812,42.450195]]]}},{"type":"Feature","properties":{"country":"AD","region":"La Massana"},"geometry":{"type":"Polygon","coordinates":[[[1.441991,42.603723],[1.443333,42.603528],[1.445672,42.603526],[1.447125,42.603734],[1.44773,42.603658],[1.448187,42.603601],[1.450958,42.602369],[1.451643,42.602404],[1.45209,42.602427],[1.452768,42.602462],[1.454115,42.602561],[1.456169,42.602028],[1.458738,42.603332],[1.45951,42.604768],[1.459711,42.604845],[1.460677,42.605218],[1.461492,42.605647],[1.463159,42.60554],[1.463939,42.606484],[1.464024,42.606788],[1.464644,42.606918],[1.465907,42.606783],[1.467092,42.606546],[1.467383,42.606488],[1.468975,42.606463],[1.4692,42.606238],[1.469646,42.605791],[1.470311,42.605251],[1.471234,42.604654],[1.472242,42.603935],[1.473077,42.60358],[1.474404,42.603354],[1.475397,42.603245],[1.476143,42.603133],[1.47706,42.602779],[1.477565,42.60242],[1.478079,42.601633],[1.478188,42.601146],[1.480157,42.601112],[1.480988,42.600879],[1.481657,42.600522],[1.482076,42.600283],[1.483081,42.599686],[1.483916,42.599331],[1.48554,42.599176],[1.486749,42.598271],[1.487586,42.597794],[1.488422,42.597378],[1.489335,42.597207],[1.490243,42.597219],[1.491885,42.597606],[1.49287,42.597863],[1.493453,42.597627],[1.493885,42.596839],[1.494397,42.596175],[1.495582,42.594866],[1.496094,42.594245],[1.496451,42.593152],[1.49656,42.592055],[1.496588,42.590897],[1.496865,42.58968],[1.49691,42.58779],[1.496945,42.586327],[1.496898,42.584862],[1.49668,42.583639],[1.496691,42.583151],[1.497051,42.581936],[1.497225,42.581572],[1.497331,42.580598],[1.497269,42.579743],[1.496791,42.579005],[1.497377,42.578603],[1.497713,42.578407],[1.498966,42.577813],[1.499641,42.577212],[1.500085,42.576746],[1.500828,42.575886],[1.501594,42.57492],[1.502359,42.574015],[1.502537,42.573468],[1.502304,42.572855],[1.502156,42.572121],[1.502918,42.571338],[1.503933,42.570314],[1.50444,42.569833],[1.505447,42.569114],[1.506959,42.568035],[1.508129,42.567441],[1.509213,42.566967],[1.510377,42.566616],[1.511375,42.566263],[1.512454,42.566033],[1.51433,42.563495],[1.51476,42.562768],[1.514703,42.56167],[1.514566,42.560509],[1.515878,42.560831],[1.516536,42.560961],[1.517534,42.560608],[1.518209,42.560007],[1.518976,42.55898],[1.519492,42.558071],[1.519757,42.557343],[1.519605,42.556792],[1.519214,42.555872],[1.518988,42.554954],[1.519095,42.553919],[1.519535,42.552765],[1.520532,42.551661],[1.520135,42.550749],[1.521051,42.549975],[1.521245,42.549811],[1.521535,42.549197],[1.521451,42.549153],[1.521269,42.549067],[1.521233,42.548848],[1.521159,42.548804],[1.52112,42.548745],[1.520825,42.548585],[1.520667,42.54843],[1.520501,42.548048],[1.520401,42.54798],[1.52039,42.547829],[1.520546,42.546913],[1.521129,42.546554],[1.521188,42.546654],[1.521236,42.546774],[1.521252,42.546911],[1.521267,42.546984],[1.521294,42.54704],[1.521377,42.547161],[1.521461,42.547257],[1.521574,42.547313],[1.521618,42.547327],[1.521656,42.547338],[1.521755,42.547615],[1.52176,42.547807],[1.521788,42.547912],[1.521864,42.548016],[1.521994,42.548139],[1.522618,42.548548],[1.522712,42.548623],[1.522958,42.54903],[1.523051,42.549109],[1.523183,42.549168],[1.523278,42.549184],[1.524091,42.549247],[1.524234,42.549294],[1.52434,42.549369],[1.525738,42.550167],[1.528535,42.549415],[1.530845,42.549039],[1.533746,42.548198],[1.537334,42.546771],[1.541481,42.545847],[1.543373,42.546054],[1.545185,42.546199],[1.547242,42.546469],[1.549049,42.546797],[1.549954,42.54693],[1.550373,42.547019],[1.552335,42.547448],[1.55307,42.547762],[1.553807,42.548015],[1.554713,42.548088],[1.555539,42.548037],[1.556452,42.547804],[1.55695,42.547689],[1.557618,42.547331],[1.558619,42.546856],[1.5592,42.54668],[1.559948,42.546445],[1.561024,42.546337],[1.562015,42.546288],[1.560635,42.545295],[1.55909,42.5443],[1.559053,42.542347],[1.558583,42.541243],[1.557851,42.540807],[1.557125,42.540066],[1.55656,42.53951],[1.555508,42.538643],[1.554885,42.537049],[1.554401,42.536555],[1.553097,42.535868],[1.551964,42.534939],[1.550425,42.533699],[1.54962,42.532835],[1.54906,42.532096],[1.548592,42.530931],[1.547308,42.52939],[1.547235,42.528962],[1.54766,42.528419],[1.548104,42.527587],[1.548178,42.527449],[1.54853,42.526478],[1.547889,42.525677],[1.546048,42.523797],[1.544887,42.523504],[1.543983,42.52337],[1.542668,42.523171],[1.541602,42.522913],[1.540782,42.52272],[1.538392,42.522629],[1.537073,42.522612],[1.535836,42.522596],[1.534926,42.522707],[1.533107,42.522928],[1.531949,42.523035],[1.529461,42.523613],[1.528715,42.523787],[1.52781,42.523714],[1.526246,42.523572],[1.523532,42.523232],[1.521564,42.522875],[1.520739,42.52277],[1.518191,42.522371],[1.515319,42.521785],[1.513506,42.521701],[1.512039,42.52095],[1.508043,42.519068],[1.506902,42.518504],[1.506663,42.518135],[1.506186,42.517397],[1.505286,42.51708],[1.503808,42.516817],[1.501916,42.51661],[1.499537,42.516091],[1.499048,42.51584],[1.497991,42.515217],[1.496943,42.514227],[1.495449,42.513916],[1.494336,42.514314],[1.492671,42.513908],[1.491431,42.513667],[1.489781,42.513707],[1.488539,42.513934],[1.487465,42.513981],[1.487124,42.513953],[1.483104,42.513619],[1.482993,42.513603],[1.481707,42.513418],[1.48168,42.513402],[1.481056,42.513043],[1.480161,42.512543],[1.47926,42.512287],[1.47905,42.51232],[1.478184,42.512456],[1.477094,42.512568],[1.476594,42.512543],[1.475059,42.51211],[1.473585,42.511663],[1.472683,42.511468],[1.471046,42.510959],[1.46938,42.510353],[1.4684,42.509996],[1.467528,42.511531],[1.466624,42.512898],[1.465802,42.514183],[1.464364,42.516354],[1.463329,42.519171],[1.460269,42.522415],[1.460035,42.522892],[1.459955,42.523472],[1.457514,42.525602],[1.45679,42.526035],[1.455305,42.526434],[1.454858,42.527556],[1.454419,42.528189],[1.453193,42.529955],[1.452651,42.53066],[1.452027,42.531193],[1.451341,42.53287],[1.451177,42.534133],[1.451849,42.534668],[1.452246,42.536414],[1.452293,42.536545],[1.452624,42.537461],[1.45266,42.537793],[1.452542,42.538185],[1.452527,42.538714],[1.451969,42.539454],[1.450724,42.540077],[1.446933,42.5415],[1.444061,42.542579],[1.442911,42.543151],[1.441818,42.543464],[1.440667,42.543598],[1.43965,42.543692],[1.438651,42.543677],[1.4373,42.543342],[1.436773,42.543119],[1.436274,42.542788],[1.435181,42.541794],[1.4343,42.541216],[1.433051,42.540357],[1.432647,42.540079],[1.431012,42.539604],[1.429138,42.539286],[1.426444,42.539279],[1.425386,42.539131],[1.425016,42.539004],[1.421009,42.53696],[1.420656,42.536834],[1.417784,42.535807],[1.416153,42.535625],[1.413578,42.535378],[1.413879,42.536012],[1.413941,42.536774],[1.414056,42.537075],[1.414216,42.537491],[1.414321,42.537887],[1.41435,42.538966],[1.414379,42.540074],[1.415008,42.540754],[1.415362,42.541139],[1.416085,42.541902],[1.416292,42.542147],[1.416439,42.54232],[1.416813,42.542892],[1.417374,42.543591],[1.41854,42.544077],[1.418814,42.544328],[1.41917,42.54507],[1.419432,42.54533],[1.419256,42.546967],[1.419029,42.548781],[1.419279,42.549532],[1.419455,42.549606],[1.420526,42.549781],[1.420808,42.549977],[1.420862,42.550218],[1.42129,42.55094],[1.422302,42.552152],[1.422501,42.552883],[1.422598,42.553239],[1.422795,42.553619],[1.423039,42.555487],[1.423328,42.555917],[1.423703,42.556216],[1.424501,42.557011],[1.425228,42.557962],[1.426434,42.55853],[1.427987,42.55907],[1.430751,42.560541],[1.431776,42.560936],[1.434845,42.56212],[1.4356,42.562438],[1.436668,42.563094],[1.437066,42.563204],[1.437655,42.563272],[1.440061,42.563871],[1.440676,42.564158],[1.441091,42.564318],[1.442175,42.565362],[1.442506,42.565692],[1.442838,42.566024],[1.443427,42.566623],[1.444359,42.567243],[1.444979,42.568199],[1.444393,42.568829],[1.443899,42.56937],[1.443548,42.570259],[1.443562,42.570711],[1.443581,42.571349],[1.443417,42.571873],[1.443401,42.571923],[1.441107,42.572715],[1.440049,42.572785],[1.437402,42.572961],[1.436359,42.573182],[1.43619,42.573265],[1.435808,42.57345],[1.433869,42.574301],[1.432888,42.574987],[1.432781,42.575062],[1.432461,42.575285],[1.4318,42.575687],[1.431578,42.576775],[1.430668,42.577339],[1.428899,42.579252],[1.428162,42.579714],[1.428196,42.580086],[1.427827,42.580842],[1.427653,42.581198],[1.427546,42.581418],[1.427357,42.581805],[1.427187,42.582153],[1.427474,42.58492],[1.427445,42.586727],[1.427658,42.587455],[1.42904,42.587767],[1.43037,42.587763],[1.432446,42.589016],[1.434174,42.590256],[1.435868,42.591677],[1.437596,42.591786],[1.438392,42.592297],[1.440594,42.59444],[1.440521,42.594834],[1.440834,42.596122],[1.441551,42.597333],[1.442188,42.598394],[1.442803,42.598759],[1.442779,42.599858],[1.442863,42.601504],[1.442676,42.602756],[1.441991,42.603723]]]}},{"type":"Feature","properties":{"country":"AD","region":"Ordino"},"geometry":{"type":"Polygon","coordinates":[[[1.580353,42.636829],[1.58106,42.636587],[1.58275,42.63562],[1.583288,42.635108],[1.583927,42.634717],[1.584041,42.634233],[1.584343,42.633938],[1.585159,42.633702],[1.585719,42.633457],[1.586154,42.633501],[1.586647,42.633742],[1.587932,42.633679],[1.588337,42.633497],[1.589083,42.633386],[1.589935,42.633454],[1.590614,42.63333],[1.591323,42.6334],[1.59188,42.633302],[1.592512,42.633316],[1.592696,42.633064],[1.594441,42.632616],[1.594689,42.632259],[1.595151,42.631933],[1.595575,42.630895],[1.596911,42.630129],[1.600384,42.625877],[1.602522,42.625542],[1.603691,42.624255],[1.604778,42.622938],[1.605376,42.621949],[1.60598,42.621344],[1.606084,42.621103],[1.606145,42.620521],[1.606077,42.619991],[1.606028,42.618681],[1.605786,42.617893],[1.605974,42.617156],[1.606757,42.616125],[1.607176,42.615404],[1.607452,42.614606],[1.607318,42.613532],[1.6066,42.613318],[1.605524,42.61299],[1.602871,42.612403],[1.600525,42.611939],[1.597803,42.611524],[1.595144,42.611131],[1.594073,42.610335],[1.59333,42.609516],[1.592614,42.608679],[1.590982,42.60737],[1.590594,42.606662],[1.587687,42.604638],[1.586071,42.603605],[1.58453,42.602413],[1.579928,42.602071],[1.579425,42.601665],[1.579324,42.601584],[1.579006,42.601031],[1.578529,42.600232],[1.577961,42.599798],[1.577226,42.599423],[1.576571,42.599171],[1.57617,42.598678],[1.575801,42.596721],[1.575466,42.593301],[1.575403,42.592447],[1.57509,42.591711],[1.574614,42.590851],[1.573651,42.589619],[1.572523,42.588385],[1.571228,42.587271],[1.569283,42.585661],[1.567812,42.585033],[1.565475,42.584592],[1.566214,42.582695],[1.566333,42.581111],[1.566628,42.57904],[1.566815,42.578067],[1.566997,42.577337],[1.56702,42.576361],[1.56671,42.575442],[1.566564,42.574648],[1.566092,42.573605],[1.566028,42.572811],[1.566135,42.571714],[1.566326,42.570619],[1.566672,42.569891],[1.56745,42.568376],[1.567716,42.567586],[1.56792,42.565881],[1.568448,42.564423],[1.569133,42.563334],[1.569642,42.56273],[1.570234,42.562128],[1.571074,42.561467],[1.571664,42.560925],[1.572256,42.560323],[1.572679,42.55984],[1.572856,42.559354],[1.573036,42.558685],[1.572974,42.55777],[1.572433,42.556177],[1.571347,42.553114],[1.571117,42.552379],[1.570955,42.548595],[1.565869,42.547312],[1.564478,42.546807],[1.562015,42.546288],[1.561024,42.546337],[1.559948,42.546445],[1.5592,42.54668],[1.558619,42.546856],[1.557618,42.547331],[1.55695,42.547689],[1.556452,42.547804],[1.555539,42.548037],[1.554713,42.548088],[1.553807,42.548015],[1.55307,42.547762],[1.552335,42.547448],[1.550373,42.547019],[1.549954,42.54693],[1.549049,42.546797],[1.547242,42.546469],[1.545185,42.546199],[1.543373,42.546054],[1.541481,42.545847],[1.537334,42.546771],[1.533746,42.548198],[1.530845,42.549039],[1.528535,42.549415],[1.525738,42.550167],[1.52434,42.549369],[1.524234,42.549294],[1.524091,42.549247],[1.523278,42.549184],[1.523183,42.549168],[1.523051,42.549109],[1.522958,42.54903],[1.522712,42.548623],[1.522618,42.548548],[1.521994,42.548139],[1.521864,42.548016],[1.521788,42.547912],[1.52176,42.547807],[1.521755,42.547615],[1.521656,42.547338],[1.521618,42.547327],[1.521574,42.547313],[1.521461,42.547257],[1.521377,42.547161],[1.521294,42.54704],[1.521267,42.546984],[1.521252,42.546911],[1.521236,42.546774],[1.521188,42.546654],[1.521129,42.546554],[1.520546,42.546913],[1.52039,42.547829],[1.520401,42.54798],[1.520501,42.548048],[1.520667,42.54843],[1.520825,42.548585],[1.52112,42.548745],[1.521159,42.548804],[1.521233,42.548848],[1.521269,42.549067],[1.521451,42.549153],[1.521535,42.549197],[1.521245,42.549811],[1.521051,42.549975],[1.520135,42.550749],[1.520532,42.551661],[1.519535,42.552765],[1.519095,42.553919],[1.518988,42.554954],[1.519214,42.555872],[1.519605,42.556792],[1.519757,42.557343],[1.519492,42.558071],[1.518976,42.55898],[1.518209,42.560007],[1.517534,42.560608],[1.516536,42.560961],[1.515878,42.560831],[1.514566,42.560509],[1.514703,42.56167],[1.51476,42.562768],[1.51433,42.563495],[1.512454,42.566033],[1.511375,42.566263],[1.510377,42.566616],[1.509213,42.566967],[1.508129,42.567441],[1.506959,42.568035],[1.505447,42.569114],[1.50444,42.569833],[1.503933,42.570314],[1.502918,42.571338],[1.502156,42.572121],[1.502304,42.572855],[1.502537,42.573468],[1.502359,42.574015],[1.501594,42.57492],[1.500828,42.575886],[1.500085,42.576746],[1.499641,42.577212],[1.498966,42.577813],[1.497713,42.578407],[1.497377,42.578603],[1.496791,42.579005],[1.497269,42.579743],[1.497331,42.580598],[1.497225,42.581572],[1.497051,42.581936],[1.496691,42.583151],[1.49668,42.583639],[1.496898,42.584862],[1.496945,42.586327],[1.49691,42.58779],[1.496865,42.58968],[1.496588,42.590897],[1.49656,42.592055],[1.496451,42.593152],[1.496094,42.594245],[1.495582,42.594866],[1.494397,42.596175],[1.493885,42.596839],[1.493453,42.597627],[1.49287,42.597863],[1.491885,42.597606],[1.490243,42.597219],[1.489335,42.597207],[1.488422,42.597378],[1.487586,42.597794],[1.486749,42.598271],[1.48554,42.599176],[1.483916,42.599331],[1.483081,42.599686],[1.482076,42.600283],[1.481657,42.600522],[1.480988,42.600879],[1.480157,42.601112],[1.478188,42.601146],[1.478079,42.601633],[1.477565,42.60242],[1.47706,42.602779],[1.476143,42.603133],[1.475397,42.603245],[1.474404,42.603354],[1.473077,42.60358],[1.472242,42.603935],[1.471234,42.604654],[1.470311,42.605251],[1.469646,42.605791],[1.4692,42.606238],[1.468975,42.606463],[1.470484,42.608964],[1.472872,42.610094],[1.474877,42.6117],[1.475041,42.612369],[1.475041,42.61237],[1.475583,42.612762],[1.476602,42.613082],[1.476883,42.613459],[1.477543,42.61464],[1.475974,42.616433],[1.475006,42.618032],[1.4744,42.61998],[1.473559,42.622062],[1.472568,42.622666],[1.472077,42.623758],[1.471169,42.624707],[1.470582,42.626055],[1.471316,42.628243],[1.471101,42.629407],[1.468019,42.63089],[1.469458,42.633845],[1.470033,42.635467],[1.470319,42.635718],[1.472312,42.636672],[1.473498,42.637777],[1.476995,42.640639],[1.477738,42.642333],[1.477955,42.643551],[1.476957,42.644549],[1.477257,42.645658],[1.477483,42.64593],[1.477987,42.646817],[1.478809,42.648669],[1.478676,42.648943],[1.478773,42.649095],[1.47871,42.649347],[1.478596,42.650342],[1.478622,42.650923],[1.478777,42.65145],[1.479226,42.651463],[1.480084,42.651215],[1.487049,42.651924],[1.492911,42.653215],[1.493294,42.653292],[1.493759,42.653489],[1.493764,42.653481],[1.496607,42.649971],[1.497994,42.648136],[1.499357,42.645937],[1.501215,42.645476],[1.506612,42.645269],[1.512176,42.646026],[1.512886,42.646042],[1.517046,42.645859],[1.518722,42.645475],[1.520769,42.646651],[1.522191,42.648665],[1.524017,42.649578],[1.525198,42.65057],[1.528356,42.651806],[1.531781,42.650826],[1.533427,42.649757],[1.53629,42.650679],[1.538427,42.652471],[1.5417,42.653067],[1.543002,42.653927],[1.544846,42.65442],[1.547119,42.655028],[1.549177,42.655885],[1.549299,42.655936],[1.55022,42.655163],[1.551419,42.654712],[1.55196,42.654509],[1.55239,42.654356],[1.552437,42.654339],[1.552627,42.654271],[1.555867,42.653114],[1.558142,42.652049],[1.559167,42.652805],[1.560622,42.653469],[1.562287,42.653563],[1.563765,42.652824],[1.565311,42.652061],[1.566528,42.650966],[1.566804,42.650105],[1.567529,42.649615],[1.568323,42.648541],[1.569547,42.648105],[1.571261,42.647924],[1.572581,42.648072],[1.574027,42.647962],[1.574794,42.647935],[1.574728,42.647524],[1.574966,42.647129],[1.575849,42.646229],[1.576012,42.643268],[1.57657,42.642834],[1.577222,42.642556],[1.578013,42.64241],[1.579168,42.641908],[1.579327,42.641247],[1.579545,42.640735],[1.579219,42.639427],[1.579321,42.639078],[1.579276,42.638794],[1.579871,42.638254],[1.579966,42.637444],[1.580353,42.636829]]]}},{"type":"Feature","properties":{"country":"AD","region":"Sant Julià de Lòria"},"geometry":{"type":"Polygon","coordinates":[[[1.431647,42.493765],[1.434506,42.494009],[1.437576,42.49441],[1.441652,42.495114],[1.443632,42.495323],[1.445406,42.496829],[1.451977,42.499929],[1.453397,42.501347],[1.455428,42.502425],[1.45648,42.503287],[1.45723,42.503889],[1.45771,42.504134],[1.45801,42.504227],[1.458543,42.504371],[1.458635,42.504519],[1.458875,42.50448],[1.459322,42.504488],[1.459425,42.504487],[1.460331,42.504474],[1.46618,42.499518],[1.470875,42.496519],[1.477368,42.484642],[1.491118,42.477872],[1.526244,42.476378],[1.536315,42.473533],[1.541588,42.473693],[1.542616,42.472183],[1.551617,42.468077],[1.554429,42.464928],[1.556301,42.462927],[1.556795,42.462564],[1.55985,42.460319],[1.560851,42.459314],[1.561141,42.458656],[1.560922,42.458206],[1.560371,42.457963],[1.5585,42.45605],[1.558082,42.455623],[1.557404,42.454993],[1.557058,42.454421],[1.55701,42.453919],[1.557113,42.4535],[1.557893,42.452857],[1.558066,42.452391],[1.558484,42.452122],[1.558755,42.451841],[1.559064,42.45074],[1.560164,42.449318],[1.560138,42.448959],[1.560006,42.44864],[1.559677,42.448302],[1.559476,42.447789],[1.559408,42.447241],[1.559933,42.446762],[1.560013,42.445999],[1.559862,42.444606],[1.557536,42.442543],[1.554079,42.440179],[1.553285,42.439283],[1.553387,42.438019],[1.552723,42.435731],[1.553261,42.435098],[1.552936,42.433805],[1.552631,42.433457],[1.551087,42.432618],[1.550388,42.432853],[1.549562,42.432868],[1.548131,42.43324],[1.546282,42.432719],[1.545951,42.432697],[1.544755,42.432618],[1.54453,42.432602],[1.54413,42.432575],[1.542526,42.432373],[1.540968,42.43218],[1.539547,42.433023],[1.538991,42.433072],[1.538231,42.432976],[1.536122,42.432555],[1.534974,42.432484],[1.53141,42.432436],[1.529506,42.432417],[1.526126,42.431869],[1.524156,42.431109],[1.522988,42.431095],[1.520817,42.430983],[1.519665,42.431028],[1.518834,42.430962],[1.518397,42.430799],[1.517034,42.429421],[1.516282,42.428938],[1.515751,42.428824],[1.51284,42.428903],[1.510431,42.429538],[1.509605,42.429877],[1.508306,42.429739],[1.507322,42.429904],[1.506427,42.430479],[1.505191,42.430699],[1.50394,42.431558],[1.497031,42.433001],[1.496069,42.433138],[1.494628,42.433221],[1.48542,42.432955],[1.485226,42.432893],[1.48483,42.432789],[1.482507,42.433162],[1.480961,42.433768],[1.479724,42.433991],[1.479165,42.434062],[1.478511,42.434175],[1.477458,42.434625],[1.476506,42.435044],[1.476201,42.435199],[1.475887,42.435253],[1.475592,42.43526],[1.475355,42.435237],[1.475124,42.435215],[1.47456,42.435161],[1.474161,42.435221],[1.473796,42.435275],[1.473397,42.435258],[1.473087,42.435181],[1.472951,42.435183],[1.472867,42.435241],[1.472809,42.435281],[1.472758,42.435317],[1.472713,42.435352],[1.472465,42.435546],[1.469375,42.435707],[1.462265,42.436107],[1.459885,42.436059],[1.457841,42.436003],[1.456621,42.435654],[1.455183,42.436061],[1.452404,42.436979],[1.450045,42.43799],[1.447231,42.439441],[1.444333,42.441113],[1.443824,42.442319],[1.443115,42.443439],[1.442971,42.443667],[1.442583,42.444708],[1.443613,42.44449],[1.444996,42.444171],[1.445272,42.44411],[1.446796,42.44377],[1.445986,42.444962],[1.445537,42.445625],[1.44532,42.446619],[1.445334,42.446653],[1.44557,42.447221],[1.446211,42.448205],[1.444076,42.450026],[1.443723,42.450327],[1.441774,42.451646],[1.441596,42.452058],[1.442049,42.452787],[1.441888,42.453775],[1.441449,42.455305],[1.441828,42.455848],[1.443302,42.457087],[1.444059,42.457472],[1.445211,42.458275],[1.445911,42.458639],[1.446163,42.459029],[1.446856,42.459542],[1.44747,42.460131],[1.447223,42.460591],[1.444993,42.461635],[1.444518,42.461884],[1.442926,42.462927],[1.440505,42.463778],[1.440122,42.464369],[1.440594,42.46589],[1.440675,42.467544],[1.440533,42.469665],[1.440216,42.47119],[1.440403,42.472461],[1.441234,42.474572],[1.441251,42.474994],[1.44103,42.47548],[1.439789,42.476384],[1.433804,42.480956],[1.433388,42.481773],[1.431277,42.482439],[1.428358,42.482281],[1.426182,42.482396],[1.423318,42.482554],[1.420231,42.482752],[1.416495,42.483143],[1.415488,42.484251],[1.413134,42.484198],[1.411101,42.483579],[1.408608,42.484341],[1.408594,42.485537],[1.4078,42.486294],[1.411797,42.488276],[1.413414,42.489635],[1.415743,42.491178],[1.416587,42.491815],[1.417074,42.49201],[1.417647,42.492493],[1.418224,42.492491],[1.420761,42.492599],[1.422688,42.492682],[1.422807,42.492767],[1.423615,42.493345],[1.423738,42.493328],[1.424177,42.493252],[1.424669,42.493233],[1.424848,42.493226],[1.425451,42.493185],[1.425799,42.493023],[1.425917,42.492969],[1.427176,42.492851],[1.427564,42.492936],[1.427764,42.49294],[1.428378,42.492797],[1.429277,42.493741],[1.431634,42.493759],[1.431647,42.493765]]]}}]}