{"type":"FeatureCollection","features":[{"type":"Feature","properties":{"country":"DE","region":"Baden-Württemberg"},"geometry":{"type":"MultiPolygon","coordinates":[[[[9.798422,49.69492],[9.935535,49.500703],[10.083723,49.543561],[10.118328,49.47317],[10.111967,49.38491],[10.140738,49.210049],[10.256763,49.059495],[10.409849,48.977436],[10.423689,48.744235],[10.487258,48.696662],[10.277424,48.679872],[10.278226,48.516095],[10.23078,48.510511],[10.133896,48.454871],[10.032695,48.457196],[10.025247,48.42212],[9.983221,48.382204],[9.997606,48.350118],[10.095357,48.164015],[10.136457,48.10846],[10.114927,47.9763],[10.105301,47.974639],[10.110137,47.93715],[10.131928,47.820087],[10.077293,47.639274],[9.859403,47.66794],[9.692152,47.610424],[9.558721,47.541893],[9.506947,47.549736],[9.182192,47.65589],[8.874888,47.65467],[8.850247,47.704395],[8.821322,47.704217],[8.795708,47.675596],[8.670461,47.684862],[8.663354,47.685893],[8.71538,47.750155],[8.613832,47.801079],[8.510115,47.77619],[8.435063,47.67615],[8.60637,47.669006],[8.426435,47.567549],[8.228042,47.611906],[8.015891,47.555351],[7.894107,47.586375],[7.713784,47.539405],[7.634097,47.561114],[7.589039,47.589878],[7.54599,47.743574],[7.604545,47.968913],[7.577291,48.115655],[7.576982,48.119056],[7.680713,48.257267],[7.731775,48.380144],[7.824622,48.611435],[7.95963,48.718581],[8.232633,48.966571],[8.261284,48.980917],[8.277349,48.989939],[8.33997,49.08015],[8.413073,49.249817],[8.466986,49.282976],[8.487268,49.290027],[8.470915,49.340713],[8.497316,49.411347],[8.472506,49.443514],[8.423068,49.541821],[8.4227,49.574193],[8.42244,49.583385],[8.581375,49.519781],[8.660168,49.591729],[8.829397,49.448598],[8.93188,49.470637],[9.08278,49.526391],[9.103006,49.577456],[9.410976,49.663498],[9.360696,49.756438],[9.471497,49.779727],[9.648736,49.791477],[9.644791,49.721359],[9.798422,49.69492]]]]}},{"type":"Feature","properties":{"country":"DE","region":"Bayern"},"geometry":{"type":"MultiPolygon","coordinates":[[[[10.586551,50.323437],[10.610162,50.22792],[10.729443,50.230264],[10.805427,50.26851],[10.752882,50.355287],[10.945591,50.386506],[11.113502,50.351932],[11.189943,50.271186],[11.268402,50.328164],[11.265938,50.479421],[11.385038,50.511339],[11.481568,50.431621],[11.60329,50.398766],[11.919323,50.424728],[12.100901,50.318028],[12.160679,50.219849],[12.260799,50.058157],[12.550989,49.905088],[12.401524,49.758373],[12.593779,49.542191],[12.637107,49.52028],[12.633763,49.476195],[12.792186,49.358155],[12.984294,49.322935],[13.170908,49.17358],[13.416652,48.980035],[13.551578,48.967787],[13.839507,48.771605],[13.796107,48.7136],[13.809691,48.614913],[13.727091,48.51302],[13.513497,48.590962],[13.438431,48.548895],[13.414325,48.380144],[13.177043,48.29439],[12.944684,48.206692],[12.751555,48.11281],[12.860182,47.99664],[12.875786,47.962609],[12.984538,47.856745],[12.928675,47.735691],[13.079004,47.667163],[13.046055,47.520503],[12.912873,47.498651],[12.695795,47.682223],[12.575026,47.632316],[12.338045,47.697088],[12.060662,47.618744],[11.632883,47.592446],[11.560552,47.521603],[11.410219,47.495324],[11.421428,47.444852],[11.0165,47.396368],[10.991202,47.396131],[10.886147,47.536782],[10.810077,47.520451],[10.454439,47.555797],[10.429381,47.392417],[10.178353,47.270114],[10.200434,47.35576],[9.999526,47.483017],[9.967814,47.546241],[9.558721,47.541893],[9.692152,47.610424],[9.859403,47.66794],[10.077293,47.639274],[10.131928,47.820087],[10.110137,47.93715],[10.105301,47.974639],[10.114927,47.9763],[10.136457,48.10846],[10.095357,48.164015],[9.997606,48.350118],[9.983221,48.382204],[10.025247,48.42212],[10.032695,48.457196],[10.133896,48.454871],[10.23078,48.510511],[10.278226,48.516095],[10.277424,48.679872],[10.487258,48.696662],[10.423689,48.744235],[10.409849,48.977436],[10.256763,49.059495],[10.140738,49.210049],[10.111967,49.38491],[10.118328,49.47317],[10.083723,49.543561],[9.935535,49.500703],[9.798422,49.69492],[9.644791,49.721359],[9.648736,49.791477],[9.471497,49.779727],[9.360696,49.756438],[9.410976,49.663498],[9.103006,49.577456],[9.12717,49.742135],[9.03608,49.846504],[9.05008,49.866315],[9.016088,49.991341],[8.99056,50.067119],[9.254055,50.141911],[9.404984,50.087734],[9.500835,50.11374],[9.539038,50.221966],[9.623151,50.22904],[9.732914,50.356149],[9.779707,50.411334],[9.935655,50.419606],[10.041338,50.51647],[10.201044,50.549665],[10.450532,50.40186],[10.586551,50.323437]]]]}},{"type":"Feature","properties":{"country":"DE","region":"Berlin"},"geometry":{"type":"MultiPolygon","coordinates":[[[[13.66698,52.474167],[13.729884,52.438593],[13.699738,52.377883],[13.420985,52.376247],[13.311926,52.399186],[13.165898,52.394275],[13.11108,52.426787],[13.153696,52.501822],[13.164263,52.598901],[13.39854,52.648194],[13.610827,52.544235],[13.66698,52.474167]]]]}},{"type":"Feature","properties":{"country":"DE","region":"Brandenburg"},"geometry":{"type":"MultiPolygon","coordinates":[[[[14.204572,53.428218],[14.175553,53.266283],[14.412157,53.329636],[14.34916,53.072939],[14.143658,52.961368],[14.156692,52.895591],[14.164825,52.830544],[14.436438,52.6799],[14.565063,52.624497],[14.630564,52.521818],[14.534362,52.395008],[14.600891,52.272052],[14.69554,52.228866],[14.755105,52.070085],[14.716716,52.001188],[14.611507,51.830393],[14.737449,51.664883],[14.729862,51.581777],[14.447771,51.542069],[14.163325,51.541043],[14.028512,51.42221],[13.835313,51.37679],[13.69125,51.374013],[13.398863,51.440598],[13.21015,51.404736],[13.184064,51.533931],[13.051025,51.647677],[13.151754,51.709763],[13.150913,51.85961],[12.76978,51.979275],[12.376123,52.045119],[12.276725,52.104018],[12.237234,52.17257],[12.31718,52.454095],[12.283324,52.504729],[12.171291,52.506182],[12.249203,52.791862],[12.126812,52.8902],[11.914646,52.895432],[11.597784,53.035927],[11.265732,53.121978],[11.508824,53.134813],[11.602809,53.225892],[11.785739,53.233237],[12.098946,53.353022],[12.325101,53.321302],[12.331751,53.318011],[12.984683,53.164986],[13.241403,53.232401],[13.413669,53.270018],[13.710066,53.479063],[14.204572,53.428218]],[[13.11108,52.426787],[13.165898,52.394275],[13.311926,52.399186],[13.420985,52.376247],[13.699738,52.377883],[13.729884,52.438593],[13.66698,52.474167],[13.610827,52.544235],[13.39854,52.648194],[13.164263,52.598901],[13.153696,52.501822],[13.11108,52.426787]]]]}},{"type":"Feature","properties":{"country":"DE","region":"Bremen"},"geometry":{"type":"MultiPolygon","coordinates":[[[[8.984186,53.126071],[8.915827,53.011021],[8.711424,53.04463],[8.654899,53.108864],[8.485331,53.22712],[8.984186,53.126071]]],[[[8.609432,53.489626],[8.492652,53.47242],[8.552684,53.516175],[8.564362,53.549792],[8.523294,53.591565],[8.520411,53.606205],[8.608423,53.586231],[8.645854,53.519258],[8.609432,53.489626]]]]}},{"type":"Feature","properties":{"country":"DE","region":"Hamburg"},"geometry":{"type":"MultiPolygon","coordinates":[[[[10.307954,53.433201],[9.921512,53.423495],[9.768861,53.505279],[9.765381,53.546518],[9.734365,53.565216],[9.945376,53.652928],[10.072805,53.709634],[10.193154,53.64439],[10.164743,53.548027],[10.236678,53.496354],[10.307954,53.433201]]],[[[8.510301,54.013814],[8.456317,53.914174],[8.357419,53.928272],[8.445663,54.013781],[8.510301,54.013814]]]]}},{"type":"Feature","properties":{"country":"DE","region":"Hessen"},"geometry":{"type":"MultiPolygon","coordinates":[[[[9.647755,51.552511],[9.587293,51.369776],[9.731606,51.295591],[9.798824,51.384459],[9.928339,51.375299],[9.968193,51.30519],[10.206942,51.190649],[10.210013,51.144083],[10.179671,51.013111],[10.021558,50.99295],[10.036715,50.867081],[9.926176,50.76739],[9.901707,50.654548],[10.056325,50.668076],[10.041338,50.51647],[9.935655,50.419606],[9.779707,50.411334],[9.732914,50.356149],[9.623151,50.22904],[9.539038,50.221966],[9.500835,50.11374],[9.404984,50.087734],[9.254055,50.141911],[8.99056,50.067119],[9.016088,49.991341],[9.05008,49.866315],[9.03608,49.846504],[9.12717,49.742135],[9.103006,49.577456],[9.08278,49.526391],[8.93188,49.470637],[8.829397,49.448598],[8.660168,49.591729],[8.581375,49.519781],[8.42244,49.583385],[8.414774,49.595052],[8.379512,49.684444],[8.446377,49.730799],[8.448365,49.733662],[8.400055,49.803675],[8.343031,49.940506],[8.288245,49.995134],[8.190039,50.035296],[8.175135,50.034256],[7.919991,49.977383],[7.773997,50.06654],[8.121913,50.277225],[7.971559,50.40622],[8.012893,50.527817],[8.151592,50.599371],[8.125777,50.685814],[8.17312,50.816439],[8.355496,50.862001],[8.477892,50.969047],[8.549085,51.101868],[8.663463,51.108659],[8.73998,51.183494],[8.713735,51.256133],[8.592509,51.299034],[8.709272,51.37184],[8.915504,51.395793],[8.917593,51.481443],[8.970815,51.506656],[9.155411,51.442675],[9.440457,51.650394],[9.608874,51.624792],[9.647755,51.552511]]]]}},{"type":"Feature","properties":{"country":"DE","region":"Mecklenburg-Vorpommern"},"geometry":{"type":"MultiPolygon","coordinates":[[[[13.298339,54.599617],[13.460019,54.515652],[13.510036,54.569594],[13.638712,54.567454],[13.556808,54.449117],[13.597304,54.351246],[13.319396,54.193506],[13.474791,54.112163],[13.736964,54.13753],[13.821254,54.150271],[13.975293,53.984343],[14.096145,53.997803],[14.226302,53.928653],[14.213078,53.866479],[14.054104,53.831488],[14.030435,53.798618],[14.094329,53.755042],[14.266031,53.745597],[14.268869,53.697923],[14.412157,53.329636],[14.175553,53.266283],[14.204572,53.428218],[13.710066,53.479063],[13.413669,53.270018],[13.241403,53.232401],[12.984683,53.164986],[12.331751,53.318011],[12.325101,53.321302],[12.098946,53.353022],[11.785739,53.233237],[11.602809,53.225892],[11.508824,53.134813],[11.265732,53.121978],[11.171861,53.156644],[10.970633,53.331123],[10.810077,53.313691],[10.595047,53.363928],[10.642203,53.442165],[10.810077,53.51557],[10.838546,53.557128],[10.90765,53.577464],[10.951918,53.647622],[10.762965,53.811153],[10.903661,53.956822],[11.138352,54.0024],[11.366209,53.964808],[11.452733,53.898137],[11.561778,54.028089],[11.668917,54.141307],[11.998484,54.17497],[12.114026,54.175226],[12.207709,54.244027],[12.285531,54.274952],[12.57214,54.436438],[12.797828,54.378024],[12.993831,54.398176],[13.132205,54.299155],[13.298339,54.599617]]]]}},{"type":"Feature","properties":{"country":"DE","region":"Niedersachsen"},"geometry":{"type":"MultiPolygon","coordinates":[[[[8.651577,53.883315],[9.029917,53.825565],[9.259451,53.85487],[9.397542,53.745597],[9.573364,53.599757],[9.765381,53.546518],[9.768861,53.505279],[9.921512,53.423495],[10.307954,53.433201],[10.469244,53.385815],[10.595047,53.363928],[10.810077,53.313691],[10.970633,53.331123],[11.171861,53.156644],[11.265732,53.121978],[11.597784,53.035927],[11.505027,52.941033],[10.810077,52.84914],[10.759315,52.795831],[11.008782,52.496747],[10.934542,52.471795],[11.046565,52.374274],[11.026551,52.146494],[10.964386,52.056683],[10.810077,52.047986],[10.561227,52.004066],[10.62847,51.900316],[10.588321,51.799258],[10.701372,51.642188],[10.677283,51.638376],[10.488551,51.574778],[9.928339,51.375299],[9.798824,51.384459],[9.731606,51.295591],[9.587293,51.369776],[9.647755,51.552511],[9.608874,51.624792],[9.440457,51.650394],[9.417318,51.647269],[9.427672,51.825242],[9.323343,51.855061],[9.308862,51.922962],[9.155604,52.09783],[8.985834,52.194598],[8.995234,52.302539],[9.125253,52.411994],[9.070392,52.488216],[8.923417,52.407735],[8.738736,52.401023],[8.70297,52.500312],[8.297214,52.456498],[8.466187,52.267614],[8.410586,52.115115],[8.096448,52.057145],[7.885161,52.083395],[7.988662,52.124313],[7.923472,52.213653],[7.956465,52.272491],[7.964626,52.324858],[7.608976,52.47399],[7.540634,52.368414],[7.317481,52.280272],[7.099149,52.243058],[7.065685,52.241373],[6.997369,52.444527],[6.697775,52.486301],[6.709742,52.627784],[7.006229,52.638763],[7.092692,52.838201],[7.194149,52.974282],[7.202795,53.113282],[7.208935,53.243064],[7.302077,53.323638],[7.039353,53.33786],[6.999447,53.359888],[7.051488,53.49923],[7.210963,53.646824],[7.550173,53.675038],[7.809896,53.707662],[8.014334,53.699415],[8.091291,53.638109],[8.143959,53.59249],[8.161394,53.534286],[8.133208,53.510117],[8.062341,53.505668],[8.195555,53.409172],[8.299815,53.465745],[8.244924,53.545456],[8.290382,53.599701],[8.552684,53.516175],[8.492652,53.47242],[8.609432,53.489626],[8.645854,53.519258],[8.608423,53.586231],[8.520411,53.606205],[8.517732,53.745597],[8.651577,53.883315]],[[8.711424,53.04463],[8.915827,53.011021],[8.984186,53.126071],[8.485331,53.22712],[8.654899,53.108864],[8.711424,53.04463]]],[[[6.784254,53.548803],[6.688694,53.546187],[6.619623,53.59654],[6.729143,53.632492],[6.784254,53.548803]]]]}},{"type":"Feature","properties":{"country":"DE","region":"Nordrhein-Westfalen"},"geometry":{"type":"MultiPolygon","coordinates":[[[[8.70297,52.500312],[8.738736,52.401023],[8.923417,52.407735],[9.070392,52.488216],[9.125253,52.411994],[8.995234,52.302539],[8.985834,52.194598],[9.155604,52.09783],[9.308862,51.922962],[9.323343,51.855061],[9.427672,51.825242],[9.417318,51.647269],[9.440457,51.650394],[9.155411,51.442675],[8.970815,51.506656],[8.917593,51.481443],[8.915504,51.395793],[8.709272,51.37184],[8.592509,51.299034],[8.713735,51.256133],[8.73998,51.183494],[8.663463,51.108659],[8.549085,51.101868],[8.477892,50.969047],[8.355496,50.862001],[8.17312,50.816439],[8.125777,50.685814],[8.03969,50.697376],[7.851496,50.925832],[7.785898,50.939914],[7.661004,50.820364],[7.439152,50.711089],[7.212399,50.623405],[6.927901,50.558618],[6.893097,50.486938],[6.770958,50.454947],[6.800712,50.361782],[6.425295,50.323012],[6.405029,50.323309],[6.315556,50.497043],[6.192201,50.521055],[6.189312,50.566094],[6.194051,50.637636],[6.020999,50.754295],[6.086948,50.913135],[5.877056,51.03206],[6.174812,51.184513],[6.072657,51.242588],[6.224405,51.364979],[6.19223,51.522391],[5.953192,51.747846],[5.990898,51.82431],[6.167766,51.900805],[6.40778,51.828092],[6.777568,51.936839],[6.760465,52.118569],[7.065685,52.241373],[7.099149,52.243058],[7.317481,52.280272],[7.540634,52.368414],[7.608976,52.47399],[7.964626,52.324858],[7.956465,52.272491],[7.923472,52.213653],[7.988662,52.124313],[7.885161,52.083395],[8.096448,52.057145],[8.410586,52.115115],[8.466187,52.267614],[8.297214,52.456498],[8.70297,52.500312]]]]}},{"type":"Feature","properties":{"country":"DE","region":"Rheinland-Pfalz"},"geometry":{"type":"MultiPolygon","coordinates":[[[[7.971559,50.40622],[8.121913,50.277225],[7.773997,50.06654],[7.919991,49.977383],[8.175135,50.034256],[8.190039,50.035296],[8.288245,49.995134],[8.343031,49.940506],[8.400055,49.803675],[8.448365,49.733662],[8.446377,49.730799],[8.379512,49.684444],[8.414774,49.595052],[8.42244,49.583385],[8.4227,49.574193],[8.423068,49.541821],[8.472506,49.443514],[8.497316,49.411347],[8.470915,49.340713],[8.487268,49.290027],[8.466986,49.282976],[8.413073,49.249817],[8.33997,49.08015],[8.277349,48.989939],[8.261284,48.980917],[8.232633,48.966571],[8.06831,48.999346],[7.910655,49.045163],[7.635651,49.05395],[7.478726,49.15775],[7.368756,49.161458],[7.320341,49.189499],[7.310325,49.245522],[7.394494,49.316352],[7.402076,49.367719],[7.395899,49.372046],[7.292601,49.408222],[7.252589,49.431465],[7.276622,49.548624],[7.02798,49.639439],[6.891454,49.613423],[6.585598,49.525925],[6.380053,49.551105],[6.499791,49.728207],[6.474963,49.821275],[6.298279,49.858824],[6.136218,50.015151],[6.137662,50.129952],[6.195402,50.229658],[6.405029,50.323309],[6.425295,50.323012],[6.800712,50.361782],[6.770958,50.454947],[6.893097,50.486938],[6.927901,50.558618],[7.212399,50.623405],[7.439152,50.711089],[7.661004,50.820364],[7.785898,50.939914],[7.851496,50.925832],[8.03969,50.697376],[8.125777,50.685814],[8.151592,50.599371],[8.012893,50.527817],[7.971559,50.40622]]]]}},{"type":"Feature","properties":{"country":"DE","region":"Saarland"},"geometry":{"type":"MultiPolygon","coordinates":[[[[7.276622,49.548624],[7.252589,49.431465],[7.292601,49.408222],[7.395899,49.372046],[7.402076,49.367719],[7.394494,49.316352],[7.310325,49.245522],[7.320341,49.189499],[7.368756,49.161458],[7.249932,49.117938],[7.101069,49.155998],[6.930712,49.216202],[6.779378,49.161801],[6.723466,49.218829],[6.556986,49.419208],[6.367108,49.469507],[6.380053,49.551105],[6.585598,49.525925],[6.891454,49.613423],[7.02798,49.639439],[7.276622,49.548624]]]]}},{"type":"Feature","properties":{"country":"DE","region":"Sachsen"},"geometry":{"type":"MultiPolygon","coordinates":[[[[13.184064,51.533931],[13.21015,51.404736],[13.398863,51.440598],[13.69125,51.374013],[13.835313,51.37679],[14.028512,51.42221],[14.163325,51.541043],[14.447771,51.542069],[14.729862,51.581777],[14.931646,51.466495],[14.974183,51.36395],[15.022566,51.275857],[14.997301,51.137581],[14.823362,50.87055],[14.755769,50.8261],[14.6188,50.857804],[14.583494,50.980511],[14.491221,51.04353],[14.317874,51.054699],[14.282125,51.00081],[14.362586,50.90419],[13.829683,50.732738],[13.652174,50.73036],[13.501846,50.633643],[13.049709,50.49839],[12.948145,50.404311],[12.805882,50.450163],[12.583778,50.407079],[12.410605,50.318182],[12.316772,50.181643],[12.173331,50.312227],[12.100901,50.318028],[11.919323,50.424728],[11.896885,50.540045],[11.944137,50.591275],[12.065501,50.56868],[12.318916,50.676532],[12.250887,50.730295],[12.250495,50.818537],[12.652866,50.923678],[12.617355,50.980793],[12.43661,51.080389],[12.283547,51.091924],[12.170905,51.275508],[12.193544,51.332519],[12.198939,51.531321],[12.580263,51.626066],[13.051025,51.647677],[13.184064,51.533931]]]]}},{"type":"Feature","properties":{"country":"DE","region":"Sachsen-Anhalt"},"geometry":{"type":"MultiPolygon","coordinates":[[[[12.283547,51.091924],[12.224169,50.942935],[12.163529,50.9586],[12.021019,50.969123],[11.696938,51.087491],[11.484608,51.105437],[11.385375,51.245887],[11.473016,51.296468],[11.393107,51.359495],[10.978113,51.426885],[10.916059,51.616374],[10.810077,51.639592],[10.701372,51.642188],[10.588321,51.799258],[10.62847,51.900316],[10.561227,52.004066],[10.810077,52.047986],[10.964386,52.056683],[11.026551,52.146494],[11.046565,52.374274],[10.934542,52.471795],[11.008782,52.496747],[10.759315,52.795831],[10.810077,52.84914],[11.505027,52.941033],[11.597784,53.035927],[11.914646,52.895432],[12.126812,52.8902],[12.249203,52.791862],[12.171291,52.506182],[12.283324,52.504729],[12.31718,52.454095],[12.237234,52.17257],[12.276725,52.104018],[12.376123,52.045119],[12.76978,51.979275],[13.150913,51.85961],[13.151754,51.709763],[13.051025,51.647677],[12.580263,51.626066],[12.198939,51.531321],[12.193544,51.332519],[12.170905,51.275508],[12.283547,51.091924]]]]}},{"type":"Feature","properties":{"country":"DE","region":"Schleswig-Holstein"},"geometry":{"type":"MultiPolygon","coordinates":[[[[9.113097,54.873602],[9.295613,54.808345],[9.420152,54.831956],[9.422934,54.823223],[9.49195,54.822636],[9.946253,54.768448],[10.03117,54.636575],[9.976351,54.479313],[10.168517,54.432845],[10.174162,54.345746],[10.341321,54.428072],[10.728152,54.307671],[10.953803,54.373479],[11.073302,54.311485],[11.062145,54.190118],[10.77836,54.063668],[10.840886,53.991894],[10.903661,53.956822],[10.762965,53.811153],[10.951918,53.647622],[10.90765,53.577464],[10.838546,53.557128],[10.810077,53.51557],[10.642203,53.442165],[10.595047,53.363928],[10.469244,53.385815],[10.307954,53.433201],[10.236678,53.496354],[10.164743,53.548027],[10.193154,53.64439],[10.072805,53.709634],[9.945376,53.652928],[9.734365,53.565216],[9.579591,53.619119],[9.51764,53.713862],[9.198433,53.889432],[8.987137,53.896157],[8.889129,53.955796],[8.851254,54.017417],[8.936954,54.075736],[8.830174,54.161177],[8.844813,54.265533],[8.690795,54.332028],[8.860201,54.441492],[8.860057,54.58011],[8.650595,54.823581],[8.636,54.911569],[9.113097,54.873602]]],[[[11.272274,54.433659],[11.152452,54.391361],[10.997019,54.466554],[11.157948,54.517904],[11.272274,54.433659]]],[[[8.668104,54.48395],[8.610137,54.482697],[8.561384,54.520507],[8.686307,54.563442],[8.724478,54.554262],[8.708698,54.507328],[8.668104,54.48395]]],[[[8.383574,54.630791],[8.327702,54.61117],[8.253172,54.668258],[8.349282,54.728737],[8.383574,54.630791]]],[[[8.629596,54.713418],[8.542944,54.671111],[8.445008,54.711815],[8.547551,54.758585],[8.629596,54.713418]]],[[[8.376756,54.880403],[8.315361,54.845488],[8.27189,54.863023],[8.30893,54.950074],[8.355316,54.977031],[8.376756,54.880403]]]]}},{"type":"Feature","properties":{"country":"DE","region":"Thüringen"},"geometry":{"type":"MultiPolygon","coordinates":[[[[12.163529,50.9586],[12.224169,50.942935],[12.283547,51.091924],[12.43661,51.080389],[12.617355,50.980793],[12.652866,50.923678],[12.250495,50.818537],[12.250887,50.730295],[12.318916,50.676532],[12.065501,50.56868],[11.944137,50.591275],[11.896885,50.540045],[11.919323,50.424728],[11.60329,50.398766],[11.481568,50.431621],[11.385038,50.511339],[11.265938,50.479421],[11.268402,50.328164],[11.189943,50.271186],[11.113502,50.351932],[10.945591,50.386506],[10.752882,50.355287],[10.805427,50.26851],[10.729443,50.230264],[10.610162,50.22792],[10.586551,50.323437],[10.450532,50.40186],[10.201044,50.549665],[10.041338,50.51647],[10.056325,50.668076],[9.901707,50.654548],[9.926176,50.76739],[10.036715,50.867081],[10.021558,50.99295],[10.179671,51.013111],[10.210013,51.144083],[10.206942,51.190649],[9.968193,51.30519],[9.928339,51.375299],[10.488551,51.574778],[10.677283,51.638376],[10.701372,51.642188],[10.810077,51.639592],[10.916059,51.616374],[10.978113,51.426885],[11.393107,51.359495],[11.473016,51.296468],[11.385375,51.245887],[11.484608,51.105437],[11.696938,51.087491],[12.021019,50.969123],[12.163529,50.9586]]]]}}]}